<?xml version='1.0' encoding='utf-8'?>
<osm version="0.6" generator="JOSM"><node id="-200001" action="modify" visible="true" lat="35.207233" lon="129.037782"><tag k="amenity" v="library" /><tag k="name" v="부산광역시 북구디지털도서관" /><tag k="opening_hours" v="Tu-Sa 09:00-18:00; Mo, PH off" /><tag k="ref:isil" v="KR-121023" /><tag k="capacity" v="96" /><tag k="oparator" v="부산광역시 북구청" /><tag k="phone" v="+82 51 309 2091" /><tag k="website" v="https://www.bsbukgu.go.kr/mdlib" /><tag k="source" v="공공데이터포털" /><tag k="source:date" v="2021-02-16" /><tag k="addr:street" v="은행나무로" /><tag k="addr:housenumber" v="26" /><tag k="addr:subdistrict" v="만덕동" /></node><node id="-200002" action="modify" visible="true" lat="35.23219367" lon="129.009343"><tag k="amenity" v="library" /><tag k="name" v="부산광역시 화명도서관" /><tag k="opening_hours" v="Tu-Sa 09:00-18:00; Mo, PH off" /><tag k="ref:isil" v="KR-126025" /><tag k="capacity" v="311" /><tag k="oparator" v="부산광역시 북구청" /><tag k="phone" v="+82 51 309 6481" /><tag k="website" v="https://www.bsbukgu.go.kr/hmlib" /><tag k="source" v="공공데이터포털" /><tag k="source:date" v="2021-02-16" /><tag k="addr:street" v="화명대로12번길" /><tag k="addr:housenumber" v="59" /><tag k="addr:subdistrict" v="화명동" /></node><node id="-200003" action="modify" visible="true" lat="35.26323389" lon="129.0167168"><tag k="amenity" v="library" /><tag k="name" v="금곡도서관" /><tag k="opening_hours" v="Tu-Sa 09:00-18:00; Mo, PH off" /><tag k="ref:isil" v="KR-126152" /><tag k="capacity" v="97" /><tag k="oparator" v="부산광역시 북구청" /><tag k="phone" v="+82 51 309 6181" /><tag k="website" v="https://www.bsbukgu.go.kr/bglib/" /><tag k="source" v="공공데이터포털" /><tag k="source:date" v="2021-02-16" /><tag k="addr:street" v="효열로203번길" /><tag k="addr:housenumber" v="34" /><tag k="addr:subdistrict" v="금곡동" /></node><node id="-200004" action="modify" visible="true" lat="35.21714577" lon="129.0402148"><tag k="amenity" v="library" /><tag k="name" v="상학작은도서관" /><tag k="opening_hours" v="Tu-Sa 09:00-18:00; Mo, PH off" /><tag k="ref:isil" v="KR-726246" /><tag k="capacity" v="36" /><tag k="oparator" v="부산광역시 북구청" /><tag k="phone" v="+82 51 309 6177" /><tag k="website" v="https://www.bsbukgu.go.kr/shlib" /><tag k="source" v="공공데이터포털" /><tag k="source:date" v="2021-02-16" /><tag k="addr:street" v="상학산복길" /><tag k="addr:housenumber" v="215" /></node><node id="-200005" action="modify" visible="true" lat="35.23726524" lon="129.0157741"><tag k="amenity" v="library" /><tag k="name" v="솔밭작은도서관" /><tag k="opening_hours" v="Tu-Sa 09:00-18:00; Mo, PH off" /><tag k="ref:isil" v="KR-726247" /><tag k="capacity" v="43" /><tag k="oparator" v="부산광역시 북구청" /><tag k="phone" v="+82 51 309 6178" /><tag k="website" v="https://www.bsbukgu.go.kr/sblib" /><tag k="source" v="공공데이터포털" /><tag k="source:date" v="2021-02-16" /><tag k="addr:street" v="금곡대로324번길" /><tag k="addr:housenumber" v="29" /></node></osm>