<?xml version='1.0' encoding='utf-8'?>
<osm version="0.6" generator="JOSM"><node id="-200001" action="modify" visible="true" lat="34.9666776" lon="127.4860721"><tag k="amenity" v="library" /><tag k="name" v="순천시립삼산도서관" /><tag k="opening_hours" v="Mo-Su 08:30-22:00; Mo[1], PH off" /><tag k="capacity" v="552" /><tag k="ref:isil" v="KR-146120" /><tag k="operator" v="순천시청 도서관운영과" /><tag k="phone" v="+82 61 749 6691" /><tag k="website" v="https://library.suncheon.go.kr/" /><tag k="source" v="공공데이터포털" /><tag k="source:date" v="2021-02-15" /><tag k="addr:street" v="중앙로" /><tag k="addr:housenumber" v="232" /></node><node id="-200002" action="modify" visible="true" lat="34.9579849" lon="127.4860252"><tag k="amenity" v="library" /><tag k="name" v="순천시립그림책도서관" /><tag k="opening_hours" v="Mo-Su, PH 09:00-18:00; Mo[1] off &quot;단, 월요일이 공휴일인 경우 대신 그 다음날을 휴관&quot;" /><tag k="capacity" v="175" /><tag k="ref:isil" v="KR-146014" /><tag k="operator" v="순천시청 도서관운영과" /><tag k="phone" v="+82 61 749 8892" /><tag k="website" v="https://library.suncheon.go.kr/pblibrary/" /><tag k="source" v="공공데이터포털" /><tag k="source:date" v="2021-02-15" /><tag k="addr:street" v="도서관길" /><tag k="addr:housenumber" v="33" /></node><node id="-200003" action="modify" visible="true" lat="34.94710586" lon="127.5185747"><tag k="amenity" v="library" /><tag k="name" v="순천시립도서관연향분관" /><tag k="opening_hours" v="Mo-Su 08:30-22:00; Mo[1], PH off" /><tag k="capacity" v="556" /><tag k="ref:isil" v="KR-146034" /><tag k="operator" v="순천시청 도서관운영과" /><tag k="phone" v="+82 61 749 8555" /><tag k="website" v="https://library.suncheon.go.kr/" /><tag k="source" v="공공데이터포털" /><tag k="source:date" v="2021-02-15" /><tag k="addr:street" v="연향번영길" /><tag k="addr:housenumber" v="54" /></node><node id="-200004" action="modify" visible="true" lat="34.94715332" lon="127.527648"><tag k="amenity" v="library" /><tag k="name" v="순천기적의도서관" /><tag k="opening_hours" v="Mo-Sa 08:30-22:00; Mo[1], Su, PH off" /><tag k="capacity" v="380" /><tag k="ref:isil" v="KR-146118" /><tag k="operator" v="순천시청 도서관운영과" /><tag k="phone" v="+82 61 749 8890" /><tag k="website" v="https://library.suncheon.go.kr/miracle" /><tag k="source" v="공공데이터포털" /><tag k="source:date" v="2021-02-15" /><tag k="addr:street" v="기적의도서관길" /><tag k="addr:housenumber" v="60" /><tag k="addr:subdistrict" v="해룡면" /></node><node id="-200005" action="modify" visible="true" lat="34.9640441" lon="127.5245546"><tag k="amenity" v="library" /><tag k="name" v="순천시립조례호수도서관" /><tag k="opening_hours" v="Mo-Su 08:30-22:00; Mo[1], PH off" /><tag k="capacity" v="363" /><tag k="ref:isil" v="KR-146068" /><tag k="operator" v="순천시청 도서관운영과" /><tag k="phone" v="+82 61 749 8891" /><tag k="website" v="https://library.suncheon.go.kr/" /><tag k="source" v="공공데이터포털" /><tag k="source:date" v="2021-02-15" /><tag k="addr:street" v="조례2길" /><tag k="addr:housenumber" v="31" /></node><node id="-200006" action="modify" visible="true" lat="34.9366208" lon="127.5481891"><tag k="amenity" v="library" /><tag k="name" v="순천시립신대도서관" /><tag k="opening_hours" v="Mo-Su 09:00-22:00; Mo[1], PH off" /><tag k="capacity" v="150" /><tag k="ref:isil" v="KR-146175" /><tag k="operator" v="순천시청 도서관운영과" /><tag k="phone" v="+82 61 749 4374" /><tag k="website" v="https://library.suncheon.go.kr/" /><tag k="source" v="공공데이터포털" /><tag k="source:date" v="2021-02-15" /><tag k="addr:street" v="매안로" /><tag k="addr:housenumber" v="162" /><tag k="addr:subdistrict" v="해룡면" /></node></osm>