<?xml version='1.0' encoding='utf-8'?>
<osm version="0.6" generator="JOSM"><node id="-200001" action="modify" visible="true" lat="37.47394" lon="129.04435"><tag k="highway" v="bus_stop" /><tag k="public_transport" v="platform" /><tag k="bus" v="yes" /><tag k="name" v="쌍용자원개발(무릉방면)" /><tag k="addr:full" v="강원도 동해시 삼화동 552-3" /><tag k="source" v="공공데이터포털" /><tag k="source:date" v="2020-11-24" /></node><node id="-200002" action="modify" visible="true" lat="37.47335" lon="129.04391"><tag k="highway" v="bus_stop" /><tag k="public_transport" v="platform" /><tag k="bus" v="yes" /><tag k="name" v="쌍용자원개발(대동.북평방면)" /><tag k="addr:full" v="강원도 동해시 삼화동 528" /><tag k="source" v="공공데이터포털" /><tag k="source:date" v="2020-11-24" /></node><node id="-200003" action="modify" visible="true" lat="37.47683" lon="129.04788"><tag k="highway" v="bus_stop" /><tag k="public_transport" v="platform" /><tag k="bus" v="yes" /><tag k="name" v="쌍용후문종점(대동.북평방면)" /><tag k="addr:full" v="강원도 동해시 삼화동 403-5" /><tag k="source" v="공공데이터포털" /><tag k="source:date" v="2020-11-24" /></node><node id="-200004" action="modify" visible="true" lat="37.47685" lon="129.04776"><tag k="highway" v="bus_stop" /><tag k="public_transport" v="platform" /><tag k="bus" v="yes" /><tag k="name" v="쌍용후문(무릉방면)" /><tag k="addr:full" v="강원도 동해시 삼화동 403-6" /><tag k="source" v="공공데이터포털" /><tag k="source:date" v="2020-11-24" /></node><node id="-200005" action="modify" visible="true" lat="37.55337" lon="129.11958"><tag k="highway" v="bus_stop" /><tag k="public_transport" v="platform" /><tag k="bus" v="yes" /><tag k="name" v="갈매기횟집(발한.시청방면)" /><tag k="addr:full" v="강원도 동해시 묵호진동 2-260" /><tag k="source" v="공공데이터포털" /><tag k="source:date" v="2020-11-24" /></node><node id="-200006" action="modify" visible="true" lat="37.55337" lon="129.1197"><tag k="highway" v="bus_stop" /><tag k="public_transport" v="platform" /><tag k="bus" v="yes" /><tag k="name" v="갈매기횟집(대진방면)" /><tag k="addr:full" v="강원도 동해시 묵호진동 13-5" /><tag k="source" v="공공데이터포털" /><tag k="source:date" v="2020-11-24" /></node><node id="-200007" action="modify" visible="true" lat="37.57088" lon="129.0757"><tag k="highway" v="bus_stop" /><tag k="public_transport" v="platform" /><tag k="bus" v="yes" /><tag k="name" v="갈전교앞(발한.시청방면)" /><tag k="addr:full" v="강원도 동해시 만우동 380-15" /><tag k="source" v="공공데이터포털" /><tag k="source:date" v="2020-11-24" /></node><node id="-200008" action="modify" visible="true" lat="37.57087" lon="129.07562"><tag k="highway" v="bus_stop" /><tag k="public_transport" v="platform" /><tag k="bus" v="yes" /><tag k="name" v="갈전교앞(만우방면)" /><tag k="addr:full" v="강원도 동해시 만우동 380-15" /><tag k="source" v="공공데이터포털" /><tag k="source:date" v="2020-11-24" /></node><node id="-200009" action="modify" visible="true" lat="37.51443" lon="129.12441"><tag k="highway" v="bus_stop" /><tag k="public_transport" v="platform" /><tag k="bus" v="yes" /><tag k="name" v="평생교육센터(북평.대동방면)" /><tag k="addr:full" v="강원도 동해시 용정동 503" /><tag k="source" v="공공데이터포털" /><tag k="source:date" v="2020-11-24" /></node><node id="-200010" action="modify" visible="true" lat="37.51541" lon="129.12438"><tag k="highway" v="bus_stop" /><tag k="public_transport" v="platform" /><tag k="bus" v="yes" /><tag k="name" v="감추사(시청.발한방면)" /><tag k="addr:full" v="강원도 동해시 천곡동 산3-3" /><tag k="source" v="공공데이터포털" /><tag k="source:date" v="2020-11-24" /></node><node id="-200011" action="modify" visible="true" lat="37.57537" lon="129.0799"><tag k="highway" v="bus_stop" /><tag k="public_transport" v="platform" /><tag k="bus" v="yes" /><tag k="name" v="동해직업전문학교(발한.시청방면)" /><tag k="addr:full" v="강원도 동해시 초구동 291-1" /><tag k="source" v="공공데이터포털" /><tag k="source:date" v="2020-11-24" /></node><node id="-200012" action="modify" visible="true" lat="37.57537" lon="129.07991"><tag k="highway" v="bus_stop" /><tag k="public_transport" v="platform" /><tag k="bus" v="yes" /><tag k="name" v="동해직업전문학교(만우방면)" /><tag k="addr:full" v="강원도 동해시 초구동 291-1" /><tag k="source" v="공공데이터포털" /><tag k="source:date" v="2020-11-24" /></node><node id="-200013" action="modify" visible="true" lat="37.49232" lon="129.10936"><tag k="highway" v="bus_stop" /><tag k="public_transport" v="platform" /><tag k="bus" v="yes" /><tag k="name" v="건강증진센터(시청방면)" /><tag k="addr:full" v="강원도 동해시 효가동 162-58" /><tag k="source" v="공공데이터포털" /><tag k="source:date" v="2020-11-24" /></node><node id="-200014" action="modify" visible="true" lat="37.51481" lon="129.11862"><tag k="highway" v="bus_stop" /><tag k="public_transport" v="platform" /><tag k="bus" v="yes" /><tag k="name" v="행복드림.경포아파트(북평.대동방면)" /><tag k="addr:full" v="강원도 동해시 천곡동 981" /><tag k="source" v="공공데이터포털" /><tag k="source:date" v="2020-11-24" /></node><node id="-200015" action="modify" visible="true" lat="37.51518" lon="129.11872"><tag k="highway" v="bus_stop" /><tag k="public_transport" v="platform" /><tag k="bus" v="yes" /><tag k="name" v="행복드림아파트(시청.발한방면)" /><tag k="addr:full" v="강원도 동해시 천곡동 979-7" /><tag k="source" v="공공데이터포털" /><tag k="source:date" v="2020-11-24" /></node><node id="-200016" action="modify" visible="true" lat="37.53637" lon="129.10305"><tag k="highway" v="bus_stop" /><tag k="public_transport" v="platform" /><tag k="bus" v="yes" /><tag k="name" v="(구)고속버스터미널(시청.북평방면)" /><tag k="addr:full" v="강원도 동해시 부곡동 74-14" /><tag k="source" v="공공데이터포털" /><tag k="source:date" v="2020-11-24" /></node><node id="-200017" action="modify" visible="true" lat="37.53622" lon="129.10357"><tag k="highway" v="bus_stop" /><tag k="public_transport" v="platform" /><tag k="bus" v="yes" /><tag k="name" v="(구)고속버스터미널(발한.옥계방면)" /><tag k="addr:full" v="강원도 동해시 부곡동 75-7" /><tag k="source" v="공공데이터포털" /><tag k="source:date" v="2020-11-24" /></node><node id="-200018" action="modify" visible="true" lat="37.51937" lon="129.0477"><tag k="highway" v="bus_stop" /><tag k="public_transport" v="platform" /><tag k="bus" v="yes" /><tag k="name" v="비천종점(비천종점)" /><tag k="addr:full" v="강원도 동해시 비천동 266" /><tag k="source" v="공공데이터포털" /><tag k="source:date" v="2020-11-24" /></node><node id="-200019" action="modify" visible="true" lat="37.49283" lon="129.1079"><tag k="highway" v="bus_stop" /><tag k="public_transport" v="platform" /><tag k="bus" v="yes" /><tag k="name" v="북삼농협뒤(대동.북평방면)" /><tag k="addr:full" v="강원도 동해시 효가동 467-2" /><tag k="source" v="공공데이터포털" /><tag k="source:date" v="2020-11-24" /></node><node id="-200020" action="modify" visible="true" lat="37.4929" lon="129.1081"><tag k="highway" v="bus_stop" /><tag k="public_transport" v="platform" /><tag k="bus" v="yes" /><tag k="name" v="북삼농협뒤(한중대방면)" /><tag k="addr:full" v="강원도 동해시 효가동 162-53" /><tag k="source" v="공공데이터포털" /><tag k="source:date" v="2020-11-24" /></node><node id="-200021" action="modify" visible="true" lat="37.49017" lon="129.10086"><tag k="highway" v="bus_stop" /><tag k="public_transport" v="platform" /><tag k="bus" v="yes" /><tag k="name" v="광희고등학교앞(무릉.신흥방면)" /><tag k="addr:full" v="강원도 동해시 동회동 354-5" /><tag k="source" v="공공데이터포털" /><tag k="source:date" v="2020-11-24" /></node><node id="-200022" action="modify" visible="true" lat="37.49006" lon="129.10135"><tag k="highway" v="bus_stop" /><tag k="public_transport" v="platform" /><tag k="bus" v="yes" /><tag k="name" v="광희중.고등학교앞(대동.북평방면)" /><tag k="addr:full" v="강원도 동해시 동회동 355-2" /><tag k="source" v="공공데이터포털" /><tag k="source:date" v="2020-11-24" /></node><node id="-200023" action="modify" visible="true" lat="37.47897" lon="129.0964"><tag k="highway" v="bus_stop" /><tag k="public_transport" v="platform" /><tag k="bus" v="yes" /><tag k="name" v="귀운(북평.시청방면)" /><tag k="addr:full" v="강원도 동해시 귀운동 315" /><tag k="source" v="공공데이터포털" /><tag k="source:date" v="2020-11-24" /></node><node id="-200024" action="modify" visible="true" lat="37.47901" lon="129.09641"><tag k="highway" v="bus_stop" /><tag k="public_transport" v="platform" /><tag k="bus" v="yes" /><tag k="name" v="귀운(삼화방면)" /><tag k="addr:full" v="강원도 동해시 귀운동 315" /><tag k="source" v="공공데이터포털" /><tag k="source:date" v="2020-11-24" /></node><node id="-200025" action="modify" visible="true" lat="37.59584" lon="129.08287"><tag k="highway" v="bus_stop" /><tag k="public_transport" v="platform" /><tag k="bus" v="yes" /><tag k="name" v="기곡(옥계방면)" /><tag k="addr:full" v="강원도 동해시 망상동 409-34" /><tag k="source" v="공공데이터포털" /><tag k="source:date" v="2020-11-24" /></node><node id="-200026" action="modify" visible="true" lat="37.59572" lon="129.08286"><tag k="highway" v="bus_stop" /><tag k="public_transport" v="platform" /><tag k="bus" v="yes" /><tag k="name" v="기곡(발한.시청방면)" /><tag k="addr:full" v="강원도 동해시 망상동 409-2" /><tag k="source" v="공공데이터포털" /><tag k="source:date" v="2020-11-24" /></node><node id="-200027" action="modify" visible="true" lat="37.59574" lon="129.0828"><tag k="highway" v="bus_stop" /><tag k="public_transport" v="platform" /><tag k="bus" v="yes" /><tag k="name" v="기곡(만우방면)" /><tag k="addr:full" v="강원도 동해시 망상동 409-2" /><tag k="source" v="공공데이터포털" /><tag k="source:date" v="2020-11-24" /></node><node id="-200028" action="modify" visible="true" lat="37.50635" lon="129.12636"><tag k="highway" v="bus_stop" /><tag k="public_transport" v="platform" /><tag k="bus" v="yes" /><tag k="name" v="기상대(북평.대동방면)" /><tag k="addr:full" v="강원도 동해시 용정동 480-3" /><tag k="source" v="공공데이터포털" /><tag k="source:date" v="2020-11-24" /></node><node id="-200029" action="modify" visible="true" lat="37.50705" lon="129.12606"><tag k="highway" v="bus_stop" /><tag k="public_transport" v="platform" /><tag k="bus" v="yes" /><tag k="name" v="용정삼거리(시청.발한방면)" /><tag k="addr:full" v="강원도 동해시 용정동 34-4" /><tag k="source" v="공공데이터포털" /><tag k="source:date" v="2020-11-24" /></node><node id="-200030" action="modify" visible="true" lat="37.55643" lon="129.12111"><tag k="highway" v="bus_stop" /><tag k="public_transport" v="platform" /><tag k="bus" v="yes" /><tag k="name" v="삼양비치타워(발한.시청방면)" /><tag k="addr:full" v="강원도 동해시 묵호진동 2-455" /><tag k="source" v="공공데이터포털" /><tag k="source:date" v="2020-11-24" /></node><node id="-200031" action="modify" visible="true" lat="37.55662" lon="129.12127"><tag k="highway" v="bus_stop" /><tag k="public_transport" v="platform" /><tag k="bus" v="yes" /><tag k="name" v="삼양회센터(대진방면)" /><tag k="addr:full" v="강원도 동해시 묵호진동 2-455" /><tag k="source" v="공공데이터포털" /><tag k="source:date" v="2020-11-24" /></node><node id="-200032" action="modify" visible="true" lat="37.48505" lon="129.1121"><tag k="highway" v="bus_stop" /><tag k="public_transport" v="platform" /><tag k="bus" v="yes" /><tag k="name" v="나안마을(대동.무릉방면)" /><tag k="addr:full" v="강원도 동해시 나안동 221-1" /><tag k="source" v="공공데이터포털" /><tag k="source:date" v="2020-11-24" /></node><node id="-200033" action="modify" visible="true" lat="37.48486" lon="129.11191"><tag k="highway" v="bus_stop" /><tag k="public_transport" v="platform" /><tag k="bus" v="yes" /><tag k="name" v="나안마을(북평.시청방면)" /><tag k="addr:full" v="강원도 동해시 나안동 136-5" /><tag k="source" v="공공데이터포털" /><tag k="source:date" v="2020-11-24" /></node><node id="-200034" action="modify" visible="true" lat="37.584" lon="129.10029"><tag k="highway" v="bus_stop" /><tag k="public_transport" v="platform" /><tag k="bus" v="yes" /><tag k="name" v="노봉(발한.시청방면)" /><tag k="addr:full" v="강원도 동해시 망상동 650-3" /><tag k="source" v="공공데이터포털" /><tag k="source:date" v="2020-11-24" /></node><node id="-200035" action="modify" visible="true" lat="37.5844" lon="129.10041"><tag k="highway" v="bus_stop" /><tag k="public_transport" v="platform" /><tag k="bus" v="yes" /><tag k="name" v="노봉(옥계방면)" /><tag k="addr:full" v="강원도 동해시 망상동 68-3" /><tag k="source" v="공공데이터포털" /><tag k="source:date" v="2020-11-24" /></node><node id="-200036" action="modify" visible="true" lat="37.51572" lon="129.12268"><tag k="highway" v="bus_stop" /><tag k="public_transport" v="platform" /><tag k="bus" v="yes" /><tag k="name" v="노인종합복지관(북평.대동방면)" /><tag k="addr:full" v="강원도 동해시 천곡동 993-8" /><tag k="source" v="공공데이터포털" /><tag k="source:date" v="2020-11-24" /></node><node id="-200037" action="modify" visible="true" lat="37.54496" lon="129.10309"><tag k="highway" v="bus_stop" /><tag k="public_transport" v="platform" /><tag k="bus" v="yes" /><tag k="name" v="농수산물시장(시청.북평방면)" /><tag k="addr:full" v="강원도 동해시 발한동 182-2" /><tag k="source" v="공공데이터포털" /><tag k="source:date" v="2020-11-24" /></node><node id="-200038" action="modify" visible="true" lat="37.54562" lon="129.10397"><tag k="highway" v="bus_stop" /><tag k="public_transport" v="platform" /><tag k="bus" v="yes" /><tag k="name" v="농수산물시장(발한.옥계방면)" /><tag k="addr:full" v="강원도 동해시 발한동 224-6" /><tag k="source" v="공공데이터포털" /><tag k="source:date" v="2020-11-24" /></node><node id="-200039" action="modify" visible="true" lat="37.52061" lon="129.11422"><tag k="highway" v="bus_stop" /><tag k="public_transport" v="platform" /><tag k="bus" v="yes" /><tag k="name" v="주공2차아파트(시청.발한방면)" /><tag k="addr:full" v="강원도 동해시 천곡동 1022" /><tag k="source" v="공공데이터포털" /><tag k="source:date" v="2020-11-24" /></node><node id="-200040" action="modify" visible="true" lat="37.52075" lon="129.11404"><tag k="highway" v="bus_stop" /><tag k="public_transport" v="platform" /><tag k="bus" v="yes" /><tag k="name" v="주공2차아파트(북평.대동방면)" /><tag k="addr:full" v="강원도 동해시 천곡동 1066" /><tag k="source" v="공공데이터포털" /><tag k="source:date" v="2020-11-24" /></node><node id="-200041" action="modify" visible="true" lat="37.4752" lon="129.12422"><tag k="highway" v="bus_stop" /><tag k="public_transport" v="platform" /><tag k="bus" v="yes" /><tag k="name" v="단봉동(추암방면)" /><tag k="addr:full" v="강원도 동해시 단봉동 241-3" /><tag k="source" v="공공데이터포털" /><tag k="source:date" v="2020-11-24" /></node><node id="-200042" action="modify" visible="true" lat="37.47537" lon="129.1243"><tag k="highway" v="bus_stop" /><tag k="public_transport" v="platform" /><tag k="bus" v="yes" /><tag k="name" v="단봉연당(단봉방면)" /><tag k="addr:full" v="강원도 동해시 단봉동 247-3" /><tag k="source" v="공공데이터포털" /><tag k="source:date" v="2020-11-24" /></node><node id="-200043" action="modify" visible="true" lat="37.46867" lon="129.11453"><tag k="highway" v="bus_stop" /><tag k="public_transport" v="platform" /><tag k="bus" v="yes" /><tag k="name" v="단봉종점(추암방면)" /><tag k="addr:full" v="강원도 동해시 단봉동 918-54" /><tag k="source" v="공공데이터포털" /><tag k="source:date" v="2020-11-24" /></node><node id="-200044" action="modify" visible="true" lat="37.50227" lon="129.04456"><tag k="highway" v="bus_stop" /><tag k="public_transport" v="platform" /><tag k="bus" v="yes" /><tag k="name" v="달방댐(비천.신흥방면)" /><tag k="addr:full" v="강원도 동해시 이로동 산265-1" /><tag k="source" v="공공데이터포털" /><tag k="source:date" v="2020-11-24" /></node><node id="-200045" action="modify" visible="true" lat="37.50224" lon="129.04446"><tag k="highway" v="bus_stop" /><tag k="public_transport" v="platform" /><tag k="bus" v="yes" /><tag k="name" v="달방댐(대동.북평방면)" /><tag k="addr:full" v="강원도 동해시 이로동 882-6" /><tag k="source" v="공공데이터포털" /><tag k="source:date" v="2020-11-24" /></node><node id="-200046" action="modify" visible="true" lat="37.50621" lon="129.02113"><tag k="highway" v="bus_stop" /><tag k="public_transport" v="platform" /><tag k="bus" v="yes" /><tag k="name" v="달방마을( )" /><tag k="addr:full" v="강원도 동해시 달방동 110-2" /><tag k="source" v="공공데이터포털" /><tag k="source:date" v="2020-11-24" /></node><node id="-200047" action="modify" visible="true" lat="37.50788" lon="129.03751"><tag k="highway" v="bus_stop" /><tag k="public_transport" v="platform" /><tag k="bus" v="yes" /><tag k="name" v="달방댐(신흥방면)" /><tag k="addr:full" v="강원도 동해시 달방동 산3-6" /><tag k="source" v="공공데이터포털" /><tag k="source:date" v="2020-11-24" /></node><node id="-200048" action="modify" visible="true" lat="37.50779" lon="129.03755"><tag k="highway" v="bus_stop" /><tag k="public_transport" v="platform" /><tag k="bus" v="yes" /><tag k="name" v="달방댐(대동.북평방면)" /><tag k="addr:full" v="강원도 동해시 이로동 산290-1" /><tag k="source" v="공공데이터포털" /><tag k="source:date" v="2020-11-24" /></node><node id="-200049" action="modify" visible="true" lat="37.47071" lon="129.14071"><tag k="highway" v="bus_stop" /><tag k="public_transport" v="platform" /><tag k="bus" v="yes" /><tag k="name" v="대구동(북평.시청방면)" /><tag k="addr:full" v="강원도 동해시 대구동 572" /><tag k="source" v="공공데이터포털" /><tag k="source:date" v="2020-11-24" /></node><node id="-200050" action="modify" visible="true" lat="37.47089" lon="129.1402"><tag k="highway" v="bus_stop" /><tag k="public_transport" v="platform" /><tag k="bus" v="yes" /><tag k="name" v="대구동(북평.삼척방면)" /><tag k="addr:full" v="강원도 동해시 대구동 38-5" /><tag k="source" v="공공데이터포털" /><tag k="source:date" v="2020-11-24" /></node><node id="-200051" action="modify" visible="true" lat="37.46653" lon="129.13521"><tag k="highway" v="bus_stop" /><tag k="public_transport" v="platform" /><tag k="bus" v="yes" /><tag k="name" v="대구마을( )" /><tag k="addr:full" v="강원도 동해시 대구동 189-1" /><tag k="source" v="공공데이터포털" /><tag k="source:date" v="2020-11-24" /></node><node id="-200052" action="modify" visible="true" lat="37.46651" lon="129.13525"><tag k="highway" v="bus_stop" /><tag k="public_transport" v="platform" /><tag k="bus" v="yes" /><tag k="name" v="대구마을( )" /><tag k="addr:full" v="강원도 동해시 대구동 160-1" /><tag k="source" v="공공데이터포털" /><tag k="source:date" v="2020-11-24" /></node><node id="-200053" action="modify" visible="true" lat="37.48604" lon="129.10543"><tag k="highway" v="bus_stop" /><tag k="public_transport" v="platform" /><tag k="bus" v="yes" /><tag k="name" v="대동.부영아파트단지(대동방면)" /><tag k="addr:full" v="강원도 동해시 쇄운동 45-1" /><tag k="source" v="공공데이터포털" /><tag k="source:date" v="2020-11-24" /></node><node id="-200054" action="modify" visible="true" lat="37.55215" lon="129.11239"><tag k="highway" v="bus_stop" /><tag k="public_transport" v="platform" /><tag k="bus" v="yes" /><tag k="name" v="대동상회(발한.시청방면)" /><tag k="addr:full" v="강원도 동해시 묵호진동 15-120" /><tag k="source" v="공공데이터포털" /><tag k="source:date" v="2020-11-24" /></node><node id="-200055" action="modify" visible="true" lat="37.55196" lon="129.11242"><tag k="highway" v="bus_stop" /><tag k="public_transport" v="platform" /><tag k="bus" v="yes" /><tag k="name" v="대동상회(대진방면)" /><tag k="addr:full" v="강원도 동해시 발한동 95-12" /><tag k="source" v="공공데이터포털" /><tag k="source:date" v="2020-11-24" /></node><node id="-200056" action="modify" visible="true" lat="37.47413" lon="129.13013"><tag k="highway" v="bus_stop" /><tag k="public_transport" v="platform" /><tag k="bus" v="yes" /><tag k="name" v="대동석재(단봉방면)" /><tag k="addr:full" v="강원도 동해시 대구동 351-9" /><tag k="source" v="공공데이터포털" /><tag k="source:date" v="2020-11-24" /></node><node id="-200057" action="modify" visible="true" lat="37.47389" lon="129.13037"><tag k="highway" v="bus_stop" /><tag k="public_transport" v="platform" /><tag k="bus" v="yes" /><tag k="name" v="대동석재(추암방면)" /><tag k="addr:full" v="강원도 동해시 대구동 372-3" /><tag k="source" v="공공데이터포털" /><tag k="source:date" v="2020-11-24" /></node><node id="-200058" action="modify" visible="true" lat="37.48621" lon="129.10855"><tag k="highway" v="bus_stop" /><tag k="public_transport" v="platform" /><tag k="bus" v="yes" /><tag k="name" v="대동아파트(무릉.신흥방면)" /><tag k="addr:full" v="강원도 동해시 쇄운동 1-8" /><tag k="source" v="공공데이터포털" /><tag k="source:date" v="2020-11-24" /></node><node id="-200059" action="modify" visible="true" lat="37.48602" lon="129.10859"><tag k="highway" v="bus_stop" /><tag k="public_transport" v="platform" /><tag k="bus" v="yes" /><tag k="name" v="대동아파트(북평.시청방면)" /><tag k="addr:full" v="강원도 동해시 쇄운동 33-4" /><tag k="source" v="공공데이터포털" /><tag k="source:date" v="2020-11-24" /></node><node id="-200060" action="modify" visible="true" lat="37.49341" lon="129.12463"><tag k="highway" v="bus_stop" /><tag k="public_transport" v="platform" /><tag k="bus" v="yes" /><tag k="name" v="제일안전산업(동해역방면)" /><tag k="addr:full" v="강원도 동해시 송정동 1048-6" /><tag k="source" v="공공데이터포털" /><tag k="source:date" v="2020-11-24" /></node><node id="-200061" action="modify" visible="true" lat="37.49326" lon="129.12457"><tag k="highway" v="bus_stop" /><tag k="public_transport" v="platform" /><tag k="bus" v="yes" /><tag k="name" v="주유소앞(효가.시청방면)" /><tag k="addr:full" v="강원도 동해시 송정동 1049" /><tag k="source" v="공공데이터포털" /><tag k="source:date" v="2020-11-24" /></node><node id="-200062" action="modify" visible="true" lat="37.50678" lon="129.10313"><tag k="highway" v="bus_stop" /><tag k="public_transport" v="platform" /><tag k="bus" v="yes" /><tag k="name" v="지흥골숫골입구(북평.삼척방면)" /><tag k="addr:full" v="강원도 동해시 지흥동 498-3" /><tag k="source" v="공공데이터포털" /><tag k="source:date" v="2020-11-24" /></node><node id="-200063" action="modify" visible="true" lat="37.50753" lon="129.10341"><tag k="highway" v="bus_stop" /><tag k="public_transport" v="platform" /><tag k="bus" v="yes" /><tag k="name" v="북삼동숫골입구(시청방면)" /><tag k="addr:full" v="강원도 동해시 지흥동 산54-1" /><tag k="source" v="공공데이터포털" /><tag k="source:date" v="2020-11-24" /></node><node id="-200064" action="modify" visible="true" lat="37.5798" lon="129.11264"><tag k="highway" v="bus_stop" /><tag k="public_transport" v="platform" /><tag k="bus" v="yes" /><tag k="name" v="대진(발한.시청방면)" /><tag k="addr:full" v="강원도 동해시 대진동 32-5" /><tag k="source" v="공공데이터포털" /><tag k="source:date" v="2020-11-24" /></node><node id="-200065" action="modify" visible="true" lat="37.57994" lon="129.11264"><tag k="highway" v="bus_stop" /><tag k="public_transport" v="platform" /><tag k="bus" v="yes" /><tag k="name" v="대진(대진종점)" /><tag k="addr:full" v="강원도 동해시 대진동 196-4" /><tag k="source" v="공공데이터포털" /><tag k="source:date" v="2020-11-24" /></node><node id="-200066" action="modify" visible="true" lat="37.57538" lon="129.1167"><tag k="highway" v="bus_stop" /><tag k="public_transport" v="platform" /><tag k="bus" v="yes" /><tag k="name" v="대진등대(발한.시청방면)" /><tag k="addr:full" v="강원도 동해시 대진동 185" /><tag k="source" v="공공데이터포털" /><tag k="source:date" v="2020-11-24" /></node><node id="-200067" action="modify" visible="true" lat="37.57539" lon="129.1169"><tag k="highway" v="bus_stop" /><tag k="public_transport" v="platform" /><tag k="bus" v="yes" /><tag k="name" v="대진등대(대진방면)" /><tag k="addr:full" v="강원도 동해시 대진동 199-6" /><tag k="source" v="공공데이터포털" /><tag k="source:date" v="2020-11-24" /></node><node id="-200068" action="modify" visible="true" lat="37.5776" lon="129.11551"><tag k="highway" v="bus_stop" /><tag k="public_transport" v="platform" /><tag k="bus" v="yes" /><tag k="name" v="대진삼거리(발한.시청방면)" /><tag k="addr:full" v="강원도 동해시 대진동 148-8" /><tag k="source" v="공공데이터포털" /><tag k="source:date" v="2020-11-24" /></node><node id="-200069" action="modify" visible="true" lat="37.5781" lon="129.11515"><tag k="highway" v="bus_stop" /><tag k="public_transport" v="platform" /><tag k="bus" v="yes" /><tag k="name" v="대진동(대진방면)" /><tag k="addr:full" v="강원도 동해시 대진동 10-16" /><tag k="source" v="공공데이터포털" /><tag k="source:date" v="2020-11-24" /></node><node id="-200070" action="modify" visible="true" lat="37.47914" lon="129.10615"><tag k="highway" v="bus_stop" /><tag k="public_transport" v="platform" /><tag k="bus" v="yes" /><tag k="name" v="동성교회(삼화.무릉방면)" /><tag k="addr:full" v="강원도 동해시 이도동 431-3" /><tag k="source" v="공공데이터포털" /><tag k="source:date" v="2020-11-24" /></node><node id="-200071" action="modify" visible="true" lat="37.4791" lon="129.1062"><tag k="highway" v="bus_stop" /><tag k="public_transport" v="platform" /><tag k="bus" v="yes" /><tag k="name" v="동성교회(북평.시청방면)" /><tag k="addr:full" v="강원도 동해시 이도동 452-6" /><tag k="source" v="공공데이터포털" /><tag k="source:date" v="2020-11-24" /></node><node id="-200072" action="modify" visible="true" lat="37.47212" lon="129.13836"><tag k="highway" v="bus_stop" /><tag k="public_transport" v="platform" /><tag k="bus" v="yes" /><tag k="name" v="만리사(북평.삼척방면)" /><tag k="addr:full" v="강원도 동해시 대구동 541" /><tag k="source" v="공공데이터포털" /><tag k="source:date" v="2020-11-24" /></node><node id="-200073" action="modify" visible="true" lat="37.47257" lon="129.13723"><tag k="highway" v="bus_stop" /><tag k="public_transport" v="platform" /><tag k="bus" v="yes" /><tag k="name" v="북평공단(북평.시청방면)" /><tag k="addr:full" v="강원도 동해시 대구동 542" /><tag k="source" v="공공데이터포털" /><tag k="source:date" v="2020-11-24" /></node><node id="-200074" action="modify" visible="true" lat="37.55525" lon="129.11644"><tag k="highway" v="bus_stop" /><tag k="public_transport" v="platform" /><tag k="bus" v="yes" /><tag k="name" v="논골길(등대방면)" /><tag k="addr:full" v="강원도 동해시 묵호진동 102-3" /><tag k="source" v="공공데이터포털" /><tag k="source:date" v="2020-11-24" /></node><node id="-200075" action="modify" visible="true" lat="37.55373" lon="129.11624"><tag k="highway" v="bus_stop" /><tag k="public_transport" v="platform" /><tag k="bus" v="yes" /><tag k="name" v="논골담길(대진.시청방면)" /><tag k="addr:full" v="강원도 동해시 묵호진동 38-4" /><tag k="source" v="공공데이터포털" /><tag k="source:date" v="2020-11-24" /></node><node id="-200076" action="modify" visible="true" lat="37.48287" lon="129.12645"><tag k="highway" v="bus_stop" /><tag k="public_transport" v="platform" /><tag k="bus" v="yes" /><tag k="name" v="북평농협(북평.삼척방면)" /><tag k="addr:full" v="강원도 동해시 북평동 15-3" /><tag k="source" v="공공데이터포털" /><tag k="source:date" v="2020-11-24" /></node><node id="-200077" action="modify" visible="true" lat="37.48385" lon="129.12596"><tag k="highway" v="bus_stop" /><tag k="public_transport" v="platform" /><tag k="bus" v="yes" /><tag k="name" v="북평동주민센터(시청.발한방면)" /><tag k="addr:full" v="강원도 동해시 북평동 8-1" /><tag k="source" v="공공데이터포털" /><tag k="source:date" v="2020-11-24" /></node><node id="-200078" action="modify" visible="true" lat="37.56774" lon="129.07529"><tag k="highway" v="bus_stop" /><tag k="public_transport" v="platform" /><tag k="bus" v="yes" /><tag k="name" v="만우골프장(발한.시청방면)" /><tag k="addr:full" v="강원도 동해시 만우동 72-1" /><tag k="source" v="공공데이터포털" /><tag k="source:date" v="2020-11-24" /></node><node id="-200079" action="modify" visible="true" lat="37.56778" lon="129.07516"><tag k="highway" v="bus_stop" /><tag k="public_transport" v="platform" /><tag k="bus" v="yes" /><tag k="name" v="만우골프장(만우방면)" /><tag k="addr:full" v="강원도 동해시 만우동 72-1" /><tag k="source" v="공공데이터포털" /><tag k="source:date" v="2020-11-24" /></node><node id="-200080" action="modify" visible="true" lat="37.53063" lon="129.10449"><tag k="highway" v="bus_stop" /><tag k="public_transport" v="platform" /><tag k="bus" v="yes" /><tag k="name" v="제1함대사령부(시청.북평방면)" /><tag k="addr:full" v="강원도 동해시 평릉동 200-4" /><tag k="source" v="공공데이터포털" /><tag k="source:date" v="2020-11-24" /></node><node id="-200081" action="modify" visible="true" lat="37.53043" lon="129.10493"><tag k="highway" v="bus_stop" /><tag k="public_transport" v="platform" /><tag k="bus" v="yes" /><tag k="name" v="제1함대사령부(발한.옥계방면)" /><tag k="addr:full" v="강원도 동해시 평릉동 184-1" /><tag k="source" v="공공데이터포털" /><tag k="source:date" v="2020-11-24" /></node><node id="-200082" action="modify" visible="true" lat="37.55821" lon="129.12124"><tag k="highway" v="bus_stop" /><tag k="public_transport" v="platform" /><tag k="bus" v="yes" /><tag k="name" v="횟집타운(발한.시청방면)" /><tag k="addr:full" v="강원도 동해시 묵호진동 2-47" /><tag k="source" v="공공데이터포털" /><tag k="source:date" v="2020-11-24" /></node><node id="-200083" action="modify" visible="true" lat="37.55833" lon="129.12117"><tag k="highway" v="bus_stop" /><tag k="public_transport" v="platform" /><tag k="bus" v="yes" /><tag k="name" v="꿈의궁전동해비치호텔(대진방면)" /><tag k="addr:full" v="강원도 동해시 묵호진동 2-34" /><tag k="source" v="공공데이터포털" /><tag k="source:date" v="2020-11-24" /></node><node id="-200084" action="modify" visible="true" lat="37.5231" lon="129.11642"><tag k="highway" v="bus_stop" /><tag k="public_transport" v="platform" /><tag k="bus" v="yes" /><tag k="name" v="동해시보건소(북평.대동방면)" /><tag k="addr:full" v="강원도 동해시 천곡동 842" /><tag k="source" v="공공데이터포털" /><tag k="source:date" v="2020-11-24" /></node><node id="-200085" action="modify" visible="true" lat="37.52257" lon="129.11693"><tag k="highway" v="bus_stop" /><tag k="public_transport" v="platform" /><tag k="bus" v="yes" /><tag k="name" v="동해시보건소(시청.발한방면)" /><tag k="addr:full" v="강원도 동해시 천곡동 841" /><tag k="source" v="공공데이터포털" /><tag k="source:date" v="2020-11-24" /></node><node id="-200086" action="modify" visible="true" lat="37.51206" lon="129.0272"><tag k="highway" v="bus_stop" /><tag k="public_transport" v="platform" /><tag k="bus" v="yes" /><tag k="name" v="동해시승화원(신흥방면)" /><tag k="addr:full" v="강원도 동해시 신흥동 산12-4" /><tag k="source" v="공공데이터포털" /><tag k="source:date" v="2020-11-24" /></node><node id="-200087" action="modify" visible="true" lat="37.51196" lon="129.0272"><tag k="highway" v="bus_stop" /><tag k="public_transport" v="platform" /><tag k="bus" v="yes" /><tag k="name" v="동해시승화원(대동.북평방면)" /><tag k="addr:full" v="강원도 동해시 신흥동 산9-1" /><tag k="source" v="공공데이터포털" /><tag k="source:date" v="2020-11-24" /></node><node id="-200088" action="modify" visible="true" lat="37.49751" lon="129.12508"><tag k="highway" v="bus_stop" /><tag k="public_transport" v="platform" /><tag k="bus" v="yes" /><tag k="name" v="동해역(북평.추암방면)" /><tag k="addr:full" v="강원도 동해시 송정동 841-25" /><tag k="source" v="공공데이터포털" /><tag k="source:date" v="2020-11-24" /></node><node id="-200089" action="modify" visible="true" lat="37.4977" lon="129.12526"><tag k="highway" v="bus_stop" /><tag k="public_transport" v="platform" /><tag k="bus" v="yes" /><tag k="name" v="동해역(효가.시청방면)" /><tag k="addr:full" v="강원도 동해시 송정동 846-32" /><tag k="source" v="공공데이터포털" /><tag k="source:date" v="2020-11-24" /></node><node id="-200090" action="modify" visible="true" lat="37.49837" lon="129.12622"><tag k="highway" v="bus_stop" /><tag k="public_transport" v="platform" /><tag k="bus" v="yes" /><tag k="name" v="송정동주민센터(북평.대동방면)" /><tag k="addr:full" v="강원도 동해시 송정동 1668-4" /><tag k="source" v="공공데이터포털" /><tag k="source:date" v="2020-11-24" /></node><node id="-200091" action="modify" visible="true" lat="37.49803" lon="129.1264"><tag k="highway" v="bus_stop" /><tag k="public_transport" v="platform" /><tag k="bus" v="yes" /><tag k="name" v="도용서실(시청.발한방면)" /><tag k="addr:full" v="강원도 동해시 송정동 698-3" /><tag k="source" v="공공데이터포털" /><tag k="source:date" v="2020-11-24" /></node><node id="-200092" action="modify" visible="true" lat="37.49255" lon="129.12427"><tag k="highway" v="bus_stop" /><tag k="public_transport" v="platform" /><tag k="bus" v="yes" /><tag k="name" v="동해항(북평.대동방면)" /><tag k="addr:full" v="강원도 동해시 송정동 1139-3" /><tag k="source" v="공공데이터포털" /><tag k="source:date" v="2020-11-24" /></node><node id="-200093" action="modify" visible="true" lat="37.49255" lon="129.12482"><tag k="highway" v="bus_stop" /><tag k="public_transport" v="platform" /><tag k="bus" v="yes" /><tag k="name" v="동해항(시청.발한방면)" /><tag k="addr:full" v="강원도 동해시 송정동 1140-1" /><tag k="source" v="공공데이터포털" /><tag k="source:date" v="2020-11-24" /></node><node id="-200094" action="modify" visible="true" lat="37.48879" lon="129.12235"><tag k="highway" v="bus_stop" /><tag k="public_transport" v="platform" /><tag k="bus" v="yes" /><tag k="name" v="동해항.송정산업단지(북평.대동방면)" /><tag k="addr:full" v="강원도 동해시 송정동 1198-4" /><tag k="source" v="공공데이터포털" /><tag k="source:date" v="2020-11-24" /></node><node id="-200095" action="modify" visible="true" lat="37.48923" lon="129.12237"><tag k="highway" v="bus_stop" /><tag k="public_transport" v="platform" /><tag k="bus" v="yes" /><tag k="name" v="동해항정문(시청.발한방면)" /><tag k="addr:full" v="강원도 동해시 송정동 1200-2" /><tag k="source" v="공공데이터포털" /><tag k="source:date" v="2020-11-24" /></node><node id="-200096" action="modify" visible="true" lat="37.54204" lon="129.10168"><tag k="highway" v="bus_stop" /><tag k="public_transport" v="platform" /><tag k="bus" v="yes" /><tag k="name" v="동호육교(시청.북평방면)" /><tag k="addr:full" v="강원도 동해시 발한동 580-16" /><tag k="source" v="공공데이터포털" /><tag k="source:date" v="2020-11-24" /></node><node id="-200097" action="modify" visible="true" lat="37.54261" lon="129.10211"><tag k="highway" v="bus_stop" /><tag k="public_transport" v="platform" /><tag k="bus" v="yes" /><tag k="name" v="동호육교(발한.옥계방면)" /><tag k="addr:full" v="강원도 동해시 발한동 578-22" /><tag k="source" v="공공데이터포털" /><tag k="source:date" v="2020-11-24" /></node><node id="-200098" action="modify" visible="true" lat="37.55417" lon="129.11826"><tag k="highway" v="bus_stop" /><tag k="public_transport" v="platform" /><tag k="bus" v="yes" /><tag k="name" v="묵호등대(발한.시청방면)" /><tag k="addr:full" v="강원도 동해시 묵호진동 4-195" /><tag k="source" v="공공데이터포털" /><tag k="source:date" v="2020-11-24" /></node><node id="-200099" action="modify" visible="true" lat="37.55655" lon="129.11718"><tag k="highway" v="bus_stop" /><tag k="public_transport" v="platform" /><tag k="bus" v="yes" /><tag k="name" v="등대경로당(발한.시청방면)" /><tag k="addr:full" v="강원도 동해시 묵호진동 3-116" /><tag k="source" v="공공데이터포털" /><tag k="source:date" v="2020-11-24" /></node><node id="-200100" action="modify" visible="true" lat="37.55646" lon="129.11714"><tag k="highway" v="bus_stop" /><tag k="public_transport" v="platform" /><tag k="bus" v="yes" /><tag k="name" v="등대경로당(묵호등대방면)" /><tag k="addr:full" v="강원도 동해시 묵호진동 4-176" /><tag k="source" v="공공데이터포털" /><tag k="source:date" v="2020-11-24" /></node><node id="-200101" action="modify" visible="true" lat="37.54607" lon="129.10723"><tag k="highway" v="bus_stop" /><tag k="public_transport" v="platform" /><tag k="bus" v="yes" /><tag k="name" v="묵호역(시청.삼척방면)" /><tag k="addr:full" v="강원도 동해시 발한동 208-4" /><tag k="source" v="공공데이터포털" /><tag k="source:date" v="2020-11-24" /></node><node id="-200102" action="modify" visible="true" lat="37.54613" lon="129.10761"><tag k="highway" v="bus_stop" /><tag k="public_transport" v="platform" /><tag k="bus" v="yes" /><tag k="name" v="묵호역(발한.대진방면)" /><tag k="addr:full" v="강원도 동해시 발한동 208-13" /><tag k="source" v="공공데이터포털" /><tag k="source:date" v="2020-11-24" /></node><node id="-200103" action="modify" visible="true" lat="37.55821" lon="129.07235"><tag k="highway" v="bus_stop" /><tag k="public_transport" v="platform" /><tag k="bus" v="yes" /><tag k="name" v="만우(발한.시청방면)" /><tag k="addr:full" v="강원도 동해시 만우동 222-4" /><tag k="source" v="공공데이터포털" /><tag k="source:date" v="2020-11-24" /></node><node id="-200104" action="modify" visible="true" lat="37.56028" lon="129.0743"><tag k="highway" v="bus_stop" /><tag k="public_transport" v="platform" /><tag k="bus" v="yes" /><tag k="name" v="만우가든(발한.시청방면)" /><tag k="addr:full" v="강원도 동해시 만우동 380-27" /><tag k="source" v="공공데이터포털" /><tag k="source:date" v="2020-11-24" /></node><node id="-200105" action="modify" visible="true" lat="37.56032" lon="129.07425"><tag k="highway" v="bus_stop" /><tag k="public_transport" v="platform" /><tag k="bus" v="yes" /><tag k="name" v="만우가든(만우방면)" /><tag k="addr:full" v="강원도 동해시 만우동 380-27" /><tag k="source" v="공공데이터포털" /><tag k="source:date" v="2020-11-24" /></node><node id="-200106" action="modify" visible="true" lat="37.59008" lon="129.08921"><tag k="highway" v="bus_stop" /><tag k="public_transport" v="platform" /><tag k="bus" v="yes" /><tag k="name" v="하얀팬션앞(발한.시청방면)" /><tag k="addr:full" v="강원도 동해시 망상동 365-4" /><tag k="source" v="공공데이터포털" /><tag k="source:date" v="2020-11-24" /></node><node id="-200107" action="modify" visible="true" lat="37.59002" lon="129.08917"><tag k="highway" v="bus_stop" /><tag k="public_transport" v="platform" /><tag k="bus" v="yes" /><tag k="name" v="하얀팬션앞(만우방면)" /><tag k="addr:full" v="강원도 동해시 망상동 365-4" /><tag k="source" v="공공데이터포털" /><tag k="source:date" v="2020-11-24" /></node><node id="-200108" action="modify" visible="true" lat="37.58612" lon="129.09874"><tag k="highway" v="bus_stop" /><tag k="public_transport" v="platform" /><tag k="bus" v="yes" /><tag k="name" v="망상역(옥계방면)" /><tag k="addr:full" v="강원도 동해시 망상동 162-11" /><tag k="source" v="공공데이터포털" /><tag k="source:date" v="2020-11-24" /></node><node id="-200109" action="modify" visible="true" lat="37.58598" lon="129.09858"><tag k="highway" v="bus_stop" /><tag k="public_transport" v="platform" /><tag k="bus" v="yes" /><tag k="name" v="망상역앞(발한.시청방면)" /><tag k="addr:full" v="강원도 동해시 망상동 153-25" /><tag k="source" v="공공데이터포털" /><tag k="source:date" v="2020-11-24" /></node><node id="-200110" action="modify" visible="true" lat="37.59151" lon="129.08969"><tag k="highway" v="bus_stop" /><tag k="public_transport" v="platform" /><tag k="bus" v="yes" /><tag k="name" v="망상해변(발한.시청방면)" /><tag k="addr:full" v="강원도 동해시 망상동 361-2" /><tag k="source" v="공공데이터포털" /><tag k="source:date" v="2020-11-24" /></node><node id="-200111" action="modify" visible="true" lat="37.59166" lon="129.08982"><tag k="highway" v="bus_stop" /><tag k="public_transport" v="platform" /><tag k="bus" v="yes" /><tag k="name" v="망상해변(옥계방면)" /><tag k="addr:full" v="강원도 동해시 망상동 361-2" /><tag k="source" v="공공데이터포털" /><tag k="source:date" v="2020-11-24" /></node><node id="-200112" action="modify" visible="true" lat="37.58477" lon="129.0927"><tag k="highway" v="bus_stop" /><tag k="public_transport" v="platform" /><tag k="bus" v="yes" /><tag k="name" v="매밑(발한.시청방면)" /><tag k="addr:full" v="강원도 동해시 망상동 566-3" /><tag k="source" v="공공데이터포털" /><tag k="source:date" v="2020-11-24" /></node><node id="-200113" action="modify" visible="true" lat="37.58481" lon="129.09262"><tag k="highway" v="bus_stop" /><tag k="public_transport" v="platform" /><tag k="bus" v="yes" /><tag k="name" v="매밑(만우방면)" /><tag k="addr:full" v="강원도 동해시 망상동 566-3" /><tag k="source" v="공공데이터포털" /><tag k="source:date" v="2020-11-24" /></node><node id="-200114" action="modify" visible="true" lat="37.46375" lon="129.02249"><tag k="highway" v="bus_stop" /><tag k="public_transport" v="platform" /><tag k="bus" v="yes" /><tag k="name" v="무릉계곡(무릉종점)" /><tag k="addr:full" v="강원도 동해시 삼화동 858-3" /><tag k="source" v="공공데이터포털" /><tag k="source:date" v="2020-11-24" /></node><node id="-200115" action="modify" visible="true" lat="37.46361" lon="129.02233"><tag k="highway" v="bus_stop" /><tag k="public_transport" v="platform" /><tag k="bus" v="yes" /><tag k="name" v="무릉계곡(대동.북평방면)" /><tag k="addr:full" v="강원도 동해시 삼화동 858-3" /><tag k="source" v="공공데이터포털" /><tag k="source:date" v="2020-11-24" /></node><node id="-200116" action="modify" visible="true" lat="37.5523" lon="129.11511"><tag k="highway" v="bus_stop" /><tag k="public_transport" v="platform" /><tag k="bus" v="yes" /><tag k="name" v="묵호동어판장앞(발한.시청방면)" /><tag k="addr:full" v="강원도 동해시 묵호진동 15-93" /><tag k="source" v="공공데이터포털" /><tag k="source:date" v="2020-11-24" /></node><node id="-200117" action="modify" visible="true" lat="37.55217" lon="129.11635"><tag k="highway" v="bus_stop" /><tag k="public_transport" v="platform" /><tag k="bus" v="yes" /><tag k="name" v="논골입구(대진방면)" /><tag k="addr:full" v="강원도 동해시 묵호진동 15-187" /><tag k="source" v="공공데이터포털" /><tag k="source:date" v="2020-11-24" /></node><node id="-200118" action="modify" visible="true" lat="37.55905" lon="129.10381"><tag k="highway" v="bus_stop" /><tag k="public_transport" v="platform" /><tag k="bus" v="yes" /><tag k="name" v="묵호여중(발한.시청방면)" /><tag k="addr:full" v="강원도 동해시 발한동 354-10" /><tag k="source" v="공공데이터포털" /><tag k="source:date" v="2020-11-24" /></node><node id="-200119" action="modify" visible="true" lat="37.55976" lon="129.10363"><tag k="highway" v="bus_stop" /><tag k="public_transport" v="platform" /><tag k="bus" v="yes" /><tag k="name" v="묵호여중(옥계방면)" /><tag k="addr:full" v="강원도 동해시 발한동 363-2" /><tag k="source" v="공공데이터포털" /><tag k="source:date" v="2020-11-24" /></node><node id="-200120" action="modify" visible="true" lat="37.54714" lon="129.10613"><tag k="highway" v="bus_stop" /><tag k="public_transport" v="platform" /><tag k="bus" v="yes" /><tag k="name" v="동해프라자(시청.북평방면)" /><tag k="addr:full" v="강원도 동해시 발한동 219-33" /><tag k="source" v="공공데이터포털" /><tag k="source:date" v="2020-11-24" /></node><node id="-200121" action="modify" visible="true" lat="37.54696" lon="129.10638"><tag k="highway" v="bus_stop" /><tag k="public_transport" v="platform" /><tag k="bus" v="yes" /><tag k="name" v="동해프라자(발한.옥계방면)" /><tag k="addr:full" v="강원도 동해시 발한동 219-3" /><tag k="source" v="공공데이터포털" /><tag k="source:date" v="2020-11-24" /></node><node id="-200122" action="modify" visible="true" lat="37.55903" lon="129.11317"><tag k="highway" v="bus_stop" /><tag k="public_transport" v="platform" /><tag k="bus" v="yes" /><tag k="name" v="묵호LH아파트(발한.시청방면)" /><tag k="addr:full" v="강원도 동해시 묵호진동 1-120" /><tag k="source" v="공공데이터포털" /><tag k="source:date" v="2020-11-24" /></node><node id="-200123" action="modify" visible="true" lat="37.55887" lon="129.11272"><tag k="highway" v="bus_stop" /><tag k="public_transport" v="platform" /><tag k="bus" v="yes" /><tag k="name" v="묵호LH아파트(묵호등대방면)" /><tag k="addr:full" v="강원도 동해시 묵호진동 1-80" /><tag k="source" v="공공데이터포털" /><tag k="source:date" v="2020-11-24" /></node><node id="-200124" action="modify" visible="true" lat="37.55051" lon="129.10972"><tag k="highway" v="bus_stop" /><tag k="public_transport" v="platform" /><tag k="bus" v="yes" /><tag k="name" v="조은내과앞(발한.시청방면)" /><tag k="addr:full" v="강원도 동해시 발한동 3-10" /><tag k="source" v="공공데이터포털" /><tag k="source:date" v="2020-11-24" /></node><node id="-200125" action="modify" visible="true" lat="37.55064" lon="129.11012"><tag k="highway" v="bus_stop" /><tag k="public_transport" v="platform" /><tag k="bus" v="yes" /><tag k="name" v="항만입구(대진방면)" /><tag k="addr:full" v="강원도 동해시 발한동 4-9" /><tag k="source" v="공공데이터포털" /><tag k="source:date" v="2020-11-24" /></node><node id="-200126" action="modify" visible="true" lat="37.49566" lon="129.10287"><tag k="highway" v="bus_stop" /><tag k="public_transport" v="platform" /><tag k="bus" v="yes" /><tag k="name" v="북삼주민공원(한중대방면)" /><tag k="addr:full" v="강원도 동해시 지흥동 86-13" /><tag k="source" v="공공데이터포털" /><tag k="source:date" v="2020-11-24" /></node><node id="-200127" action="modify" visible="true" lat="37.49541" lon="129.10299"><tag k="highway" v="bus_stop" /><tag k="public_transport" v="platform" /><tag k="bus" v="yes" /><tag k="name" v="미미문구(대동.시청방면)" /><tag k="addr:full" v="강원도 동해시 지흥동 87-5" /><tag k="source" v="공공데이터포털" /><tag k="source:date" v="2020-11-24" /></node><node id="-200128" action="modify" visible="true" lat="37.56377" lon="129.11937"><tag k="highway" v="bus_stop" /><tag k="public_transport" v="platform" /><tag k="bus" v="yes" /><tag k="name" v="마을슈퍼(발한.시청방면)" /><tag k="addr:full" v="강원도 동해시 어달동 188-33" /><tag k="source" v="공공데이터포털" /><tag k="source:date" v="2020-11-24" /></node><node id="-200129" action="modify" visible="true" lat="37.56383" lon="129.11943"><tag k="highway" v="bus_stop" /><tag k="public_transport" v="platform" /><tag k="bus" v="yes" /><tag k="name" v="민박식당(대진방면)" /><tag k="addr:full" v="강원도 동해시 어달동 188-33" /><tag k="source" v="공공데이터포털" /><tag k="source:date" v="2020-11-24" /></node><node id="-200130" action="modify" visible="true" lat="37.51763" lon="129.11428"><tag k="highway" v="bus_stop" /><tag k="public_transport" v="platform" /><tag k="bus" v="yes" /><tag k="name" v="박정형외과앞(북평.대동방면)" /><tag k="addr:full" v="강원도 동해시 천곡동 산61-6" /><tag k="source" v="공공데이터포털" /><tag k="source:date" v="2020-11-24" /></node><node id="-200131" action="modify" visible="true" lat="37.51782" lon="129.11413"><tag k="highway" v="bus_stop" /><tag k="public_transport" v="platform" /><tag k="bus" v="yes" /><tag k="name" v="혜원빌라입구(시청.발한방면)" /><tag k="addr:full" v="강원도 동해시 천곡동 1010-18" /><tag k="source" v="공공데이터포털" /><tag k="source:date" v="2020-11-24" /></node><node id="-200132" action="modify" visible="true" lat="37.54868" lon="129.10869"><tag k="highway" v="bus_stop" /><tag k="public_transport" v="platform" /><tag k="bus" v="yes" /><tag k="name" v="발한삼거리(시청.북평방면)" /><tag k="addr:full" v="강원도 동해시 발한동 32-17" /><tag k="source" v="공공데이터포털" /><tag k="source:date" v="2020-11-24" /></node><node id="-200133" action="modify" visible="true" lat="37.54856" lon="129.10896"><tag k="highway" v="bus_stop" /><tag k="public_transport" v="platform" /><tag k="bus" v="yes" /><tag k="name" v="우리은행앞(옥계방면)" /><tag k="addr:full" v="강원도 동해시 발한동 39-27" /><tag k="source" v="공공데이터포털" /><tag k="source:date" v="2020-11-24" /></node><node id="-200134" action="modify" visible="true" lat="37.53848" lon="129.10454"><tag k="highway" v="bus_stop" /><tag k="public_transport" v="platform" /><tag k="bus" v="yes" /><tag k="name" v="방열창고(시청.북평방면)" /><tag k="addr:full" v="강원도 동해시 부곡동 81-2" /><tag k="source" v="공공데이터포털" /><tag k="source:date" v="2020-11-24" /></node><node id="-200135" action="modify" visible="true" lat="37.53876" lon="129.10392"><tag k="highway" v="bus_stop" /><tag k="public_transport" v="platform" /><tag k="bus" v="yes" /><tag k="name" v="방열창고(발한.망상방면)" /><tag k="addr:full" v="강원도 동해시 부곡동 79-16" /><tag k="source" v="공공데이터포털" /><tag k="source:date" v="2020-11-24" /></node><node id="-200136" action="modify" visible="true" lat="37.48024" lon="129.11044"><tag k="highway" v="bus_stop" /><tag k="public_transport" v="platform" /><tag k="bus" v="yes" /><tag k="name" v="배골경로당(삼화.무릉방면)" /><tag k="addr:full" v="강원도 동해시 이도동 290-2" /><tag k="source" v="공공데이터포털" /><tag k="source:date" v="2020-11-24" /></node><node id="-200137" action="modify" visible="true" lat="37.48022" lon="129.11024"><tag k="highway" v="bus_stop" /><tag k="public_transport" v="platform" /><tag k="bus" v="yes" /><tag k="name" v="배골(북평.시청방면)" /><tag k="addr:full" v="강원도 동해시 이도동 290-2" /><tag k="source" v="공공데이터포털" /><tag k="source:date" v="2020-11-24" /></node><node id="-200138" action="modify" visible="true" lat="37.51187" lon="129.12523"><tag k="highway" v="bus_stop" /><tag k="public_transport" v="platform" /><tag k="bus" v="yes" /><tag k="name" v="범주성지아파트(북평.대동방면)" /><tag k="addr:full" v="강원도 동해시 용정동 261-11" /><tag k="source" v="공공데이터포털" /><tag k="source:date" v="2020-11-24" /></node><node id="-200139" action="modify" visible="true" lat="37.51294" lon="129.12518"><tag k="highway" v="bus_stop" /><tag k="public_transport" v="platform" /><tag k="bus" v="yes" /><tag k="name" v="범주성지아파트(시청.발한방면)" /><tag k="addr:full" v="강원도 동해시 용정동 503-3" /><tag k="source" v="공공데이터포털" /><tag k="source:date" v="2020-11-24" /></node><node id="-200140" action="modify" visible="true" lat="37.49235" lon="129.11236"><tag k="highway" v="bus_stop" /><tag k="public_transport" v="platform" /><tag k="bus" v="yes" /><tag k="name" v="효가동변전소(북평.삼척방면)" /><tag k="addr:full" v="강원도 동해시 효가동 128-9" /><tag k="source" v="공공데이터포털" /><tag k="source:date" v="2020-11-24" /></node><node id="-200141" action="modify" visible="true" lat="37.49264" lon="129.11246"><tag k="highway" v="bus_stop" /><tag k="public_transport" v="platform" /><tag k="bus" v="yes" /><tag k="name" v="효가동변전소(시청.발한방면)" /><tag k="addr:full" v="강원도 동해시 효가동 126-10" /><tag k="source" v="공공데이터포털" /><tag k="source:date" v="2020-11-24" /></node><node id="-200142" action="modify" visible="true" lat="37.50994" lon="129.11882"><tag k="highway" v="bus_stop" /><tag k="public_transport" v="platform" /><tag k="bus" v="yes" /><tag k="name" v="봉오동(북평.대동방면)" /><tag k="addr:full" v="강원도 동해시 용정동 산27-9" /><tag k="source" v="공공데이터포털" /><tag k="source:date" v="2020-11-24" /></node><node id="-200143" action="modify" visible="true" lat="37.50997" lon="129.11895"><tag k="highway" v="bus_stop" /><tag k="public_transport" v="platform" /><tag k="bus" v="yes" /><tag k="name" v="봉오동(시청.발한방면)" /><tag k="addr:full" v="강원도 동해시 용정동 산27-6" /><tag k="source" v="공공데이터포털" /><tag k="source:date" v="2020-11-24" /></node><node id="-200144" action="modify" visible="true" lat="37.53659" lon="129.11251"><tag k="highway" v="bus_stop" /><tag k="public_transport" v="platform" /><tag k="bus" v="yes" /><tag k="name" v="동해교육도서관(시청.북평방면)" /><tag k="addr:full" v="강원도 동해시 부곡동 48-5" /><tag k="source" v="공공데이터포털" /><tag k="source:date" v="2020-11-24" /></node><node id="-200145" action="modify" visible="true" lat="37.53707" lon="129.11224"><tag k="highway" v="bus_stop" /><tag k="public_transport" v="platform" /><tag k="bus" v="yes" /><tag k="name" v="동해교육도서관(발한.망상방면)" /><tag k="addr:full" v="강원도 동해시 부곡동 43-1" /><tag k="source" v="공공데이터포털" /><tag k="source:date" v="2020-11-24" /></node><node id="-200146" action="modify" visible="true" lat="37.53922" lon="129.10156"><tag k="highway" v="bus_stop" /><tag k="public_transport" v="platform" /><tag k="bus" v="yes" /><tag k="name" v="부곡파출소(시청.북평방면)" /><tag k="addr:full" v="강원도 동해시 부곡동 66-22" /><tag k="source" v="공공데이터포털" /><tag k="source:date" v="2020-11-24" /></node><node id="-200147" action="modify" visible="true" lat="37.53937" lon="129.10194"><tag k="highway" v="bus_stop" /><tag k="public_transport" v="platform" /><tag k="bus" v="yes" /><tag k="name" v="부곡삼거리(발한.옥계방면)" /><tag k="addr:full" v="강원도 동해시 발한동 597-18" /><tag k="source" v="공공데이터포털" /><tag k="source:date" v="2020-11-24" /></node><node id="-200148" action="modify" visible="true" lat="37.49164" lon="129.10393"><tag k="highway" v="bus_stop" /><tag k="public_transport" v="platform" /><tag k="bus" v="yes" /><tag k="name" v="북삼도서관(무릉.신흥방면)" /><tag k="addr:full" v="강원도 동해시 동회동 234-5" /><tag k="source" v="공공데이터포털" /><tag k="source:date" v="2020-11-24" /></node><node id="-200149" action="modify" visible="true" lat="37.49164" lon="129.10467"><tag k="highway" v="bus_stop" /><tag k="public_transport" v="platform" /><tag k="bus" v="yes" /><tag k="name" v="북삼도서관(대동.북평방면)" /><tag k="addr:full" v="강원도 동해시 동회동 254-2" /><tag k="source" v="공공데이터포털" /><tag k="source:date" v="2020-11-24" /></node><node id="-200150" action="modify" visible="true" lat="37.49255" lon="129.10734"><tag k="highway" v="bus_stop" /><tag k="public_transport" v="platform" /><tag k="bus" v="yes" /><tag k="name" v="북삼우체국(무릉.신흥방면)" /><tag k="addr:full" v="강원도 동해시 동회동 209-3" /><tag k="source" v="공공데이터포털" /><tag k="source:date" v="2020-11-24" /></node><node id="-200151" action="modify" visible="true" lat="37.49227" lon="129.10785"><tag k="highway" v="bus_stop" /><tag k="public_transport" v="platform" /><tag k="bus" v="yes" /><tag k="name" v="북평고등학교(대동.북평방면)" /><tag k="addr:full" v="강원도 동해시 동회동 430-12" /><tag k="source" v="공공데이터포털" /><tag k="source:date" v="2020-11-24" /></node><node id="-200152" action="modify" visible="true" lat="37.49623" lon="129.10125"><tag k="highway" v="bus_stop" /><tag k="public_transport" v="platform" /><tag k="bus" v="yes" /><tag k="name" v="북삼초등학교(한중대방면)" /><tag k="addr:full" v="강원도 동해시 지흥동 139-4" /><tag k="source" v="공공데이터포털" /><tag k="source:date" v="2020-11-24" /></node><node id="-200153" action="modify" visible="true" lat="37.49628" lon="129.10047"><tag k="highway" v="bus_stop" /><tag k="public_transport" v="platform" /><tag k="bus" v="yes" /><tag k="name" v="북삼초등학교(대동.시청방면)" /><tag k="addr:full" v="강원도 동해시 지흥동 517-5" /><tag k="source" v="공공데이터포털" /><tag k="source:date" v="2020-11-24" /></node><node id="-200154" action="modify" visible="true" lat="37.49077" lon="129.10838"><tag k="highway" v="bus_stop" /><tag k="public_transport" v="platform" /><tag k="bus" v="yes" /><tag k="name" v="북평고등학교(무릉.신흥방면)" /><tag k="addr:full" v="강원도 동해시 동회동 58-1" /><tag k="source" v="공공데이터포털" /><tag k="source:date" v="2020-11-24" /></node><node id="-200155" action="modify" visible="true" lat="37.49062" lon="129.10826"><tag k="highway" v="bus_stop" /><tag k="public_transport" v="platform" /><tag k="bus" v="yes" /><tag k="name" v="북평고등학교(대동.북평방면)" /><tag k="addr:full" v="강원도 동해시 동회동 59-4" /><tag k="source" v="공공데이터포털" /><tag k="source:date" v="2020-11-24" /></node><node id="-200156" action="modify" visible="true" lat="37.47549" lon="129.13254"><tag k="highway" v="bus_stop" /><tag k="public_transport" v="platform" /><tag k="bus" v="yes" /><tag k="name" v="북평국가산업단지(북평.삼척방면)" /><tag k="addr:full" v="강원도 동해시 대구동 326-4" /><tag k="source" v="공공데이터포털" /><tag k="source:date" v="2020-11-24" /></node><node id="-200157" action="modify" visible="true" lat="37.47543" lon="129.13287"><tag k="highway" v="bus_stop" /><tag k="public_transport" v="platform" /><tag k="bus" v="yes" /><tag k="name" v="북평국가산업단지(북평.시청방면)" /><tag k="addr:full" v="강원도 동해시 구미동 124-10" /><tag k="source" v="공공데이터포털" /><tag k="source:date" v="2020-11-24" /></node><node id="-200158" action="modify" visible="true" lat="37.48058" lon="129.12841"><tag k="highway" v="bus_stop" /><tag k="public_transport" v="platform" /><tag k="bus" v="yes" /><tag k="name" v="북평중앙사거리(북평.삼척방면)" /><tag k="addr:full" v="강원도 동해시 구미동 553-2" /><tag k="source" v="공공데이터포털" /><tag k="source:date" v="2020-11-24" /></node><node id="-200159" action="modify" visible="true" lat="37.48113" lon="129.12828"><tag k="highway" v="bus_stop" /><tag k="public_transport" v="platform" /><tag k="bus" v="yes" /><tag k="name" v="북평장터(북평.시청방면)" /><tag k="addr:full" v="강원도 동해시 구미동 513-5" /><tag k="source" v="공공데이터포털" /><tag k="source:date" v="2020-11-24" /></node><node id="-200160" action="modify" visible="true" lat="37.48113" lon="129.12084"><tag k="highway" v="bus_stop" /><tag k="public_transport" v="platform" /><tag k="bus" v="yes" /><tag k="name" v="북평주공2차아파트앞(대동.무릉방면)" /><tag k="addr:full" v="강원도 동해시 북평동 89-1" /><tag k="source" v="공공데이터포털" /><tag k="source:date" v="2020-11-24" /></node><node id="-200161" action="modify" visible="true" lat="37.48137" lon="129.12168"><tag k="highway" v="bus_stop" /><tag k="public_transport" v="platform" /><tag k="bus" v="yes" /><tag k="name" v="북평주공2차아파트앞(북평.시청방면)" /><tag k="addr:full" v="강원도 동해시 북평동 151-5" /><tag k="source" v="공공데이터포털" /><tag k="source:date" v="2020-11-24" /></node><node id="-200162" action="modify" visible="true" lat="37.48324" lon="129.12526"><tag k="highway" v="bus_stop" /><tag k="public_transport" v="platform" /><tag k="bus" v="yes" /><tag k="name" v="북평우체국(대동.무릉방면)" /><tag k="addr:full" v="강원도 동해시 북평동 30-1" /><tag k="source" v="공공데이터포털" /><tag k="source:date" v="2020-11-24" /></node><node id="-200163" action="modify" visible="true" lat="37.49815" lon="129.1106"><tag k="highway" v="bus_stop" /><tag k="public_transport" v="platform" /><tag k="bus" v="yes" /><tag k="name" v="샘터(북평.삼척방면)" /><tag k="addr:full" v="강원도 동해시 효가동 275-4" /><tag k="source" v="공공데이터포털" /><tag k="source:date" v="2020-11-24" /></node><node id="-200164" action="modify" visible="true" lat="37.49826" lon="129.11088"><tag k="highway" v="bus_stop" /><tag k="public_transport" v="platform" /><tag k="bus" v="yes" /><tag k="name" v="북평중학교(시청.발한방면)" /><tag k="addr:full" v="강원도 동해시 효가동 275-6" /><tag k="source" v="공공데이터포털" /><tag k="source:date" v="2020-11-24" /></node><node id="-200165" action="modify" visible="true" lat="37.49807" lon="129.11546"><tag k="highway" v="bus_stop" /><tag k="public_transport" v="platform" /><tag k="bus" v="yes" /><tag k="name" v="북평중(등교)(시청.발한방면)" /><tag k="addr:full" v="강원도 동해시 효가동 4-4" /><tag k="source" v="공공데이터포털" /><tag k="source:date" v="2020-11-24" /></node><node id="-200166" action="modify" visible="true" lat="37.48208" lon="129.12317"><tag k="highway" v="bus_stop" /><tag k="public_transport" v="platform" /><tag k="bus" v="yes" /><tag k="name" v="북평초교(시청.발한방면)" /><tag k="addr:full" v="강원도 동해시 북평동 121-2" /><tag k="source" v="공공데이터포털" /><tag k="source:date" v="2020-11-24" /></node><node id="-200167" action="modify" visible="true" lat="37.48218" lon="129.12302"><tag k="highway" v="bus_stop" /><tag k="public_transport" v="platform" /><tag k="bus" v="yes" /><tag k="name" v="북평초교앞(대동.무릉방면)" /><tag k="addr:full" v="강원도 동해시 북평동 120-5" /><tag k="source" v="공공데이터포털" /><tag k="source:date" v="2020-11-24" /></node><node id="-200168" action="modify" visible="true" lat="37.55589" lon="129.10438"><tag k="highway" v="bus_stop" /><tag k="public_transport" v="platform" /><tag k="bus" v="yes" /><tag k="name" v="사문재(발한.시청방면)" /><tag k="addr:full" v="강원도 동해시 발한동 348-17" /><tag k="source" v="공공데이터포털" /><tag k="source:date" v="2020-11-24" /></node><node id="-200169" action="modify" visible="true" lat="37.55606" lon="129.10458"><tag k="highway" v="bus_stop" /><tag k="public_transport" v="platform" /><tag k="bus" v="yes" /><tag k="name" v="사문재(옥계방면)" /><tag k="addr:full" v="강원도 동해시 발한동 354-145" /><tag k="source" v="공공데이터포털" /><tag k="source:date" v="2020-11-24" /></node><node id="-200170" action="modify" visible="true" lat="37.56143" lon="129.10173"><tag k="highway" v="bus_stop" /><tag k="public_transport" v="platform" /><tag k="bus" v="yes" /><tag k="name" v="자매공원(발한.시청방면)" /><tag k="addr:full" v="강원도 동해시 발한동 377-11" /><tag k="source" v="공공데이터포털" /><tag k="source:date" v="2020-11-24" /></node><node id="-200171" action="modify" visible="true" lat="37.56205" lon="129.10145"><tag k="highway" v="bus_stop" /><tag k="public_transport" v="platform" /><tag k="bus" v="yes" /><tag k="name" v="사문재(옥계방면)" /><tag k="addr:full" v="강원도 동해시 발한동 382-32" /><tag k="source" v="공공데이터포털" /><tag k="source:date" v="2020-11-24" /></node><node id="-200172" action="modify" visible="true" lat="37.57918" lon="129.08485"><tag k="highway" v="bus_stop" /><tag k="public_transport" v="platform" /><tag k="bus" v="yes" /><tag k="name" v="삼곡소류지(발한.시청방면)" /><tag k="addr:full" v="강원도 동해시 심곡동 303-4" /><tag k="source" v="공공데이터포털" /><tag k="source:date" v="2020-11-24" /></node><node id="-200173" action="modify" visible="true" lat="37.57913" lon="129.08481"><tag k="highway" v="bus_stop" /><tag k="public_transport" v="platform" /><tag k="bus" v="yes" /><tag k="name" v="삼곡소류지(만우방면)" /><tag k="addr:full" v="강원도 동해시 심곡동 300-2" /><tag k="source" v="공공데이터포털" /><tag k="source:date" v="2020-11-24" /></node><node id="-200174" action="modify" visible="true" lat="37.55921" lon="129.11436"><tag k="highway" v="bus_stop" /><tag k="public_transport" v="platform" /><tag k="bus" v="yes" /><tag k="name" v="삼본아파트(발한.시청방면)" /><tag k="addr:full" v="강원도 동해시 묵호진동 1-108" /><tag k="source" v="공공데이터포털" /><tag k="source:date" v="2020-11-24" /></node><node id="-200175" action="modify" visible="true" lat="37.55906" lon="129.11428"><tag k="highway" v="bus_stop" /><tag k="public_transport" v="platform" /><tag k="bus" v="yes" /><tag k="name" v="삼본아파트(묵호등대방면)" /><tag k="addr:full" v="강원도 동해시 묵호진동 1-72" /><tag k="source" v="공공데이터포털" /><tag k="source:date" v="2020-11-24" /></node><node id="-200176" action="modify" visible="true" lat="37.52349" lon="129.1127"><tag k="highway" v="bus_stop" /><tag k="public_transport" v="platform" /><tag k="bus" v="yes" /><tag k="name" v="삼성아파트(시청.북평방면)" /><tag k="addr:full" v="강원도 동해시 천곡동 1076" /><tag k="source" v="공공데이터포털" /><tag k="source:date" v="2020-11-24" /></node><node id="-200177" action="modify" visible="true" lat="37.52395" lon="129.11197"><tag k="highway" v="bus_stop" /><tag k="public_transport" v="platform" /><tag k="bus" v="yes" /><tag k="name" v="천일서점(발한.옥계방면)" /><tag k="addr:full" v="강원도 동해시 천곡동 801-18" /><tag k="source" v="공공데이터포털" /><tag k="source:date" v="2020-11-24" /></node><node id="-200178" action="modify" visible="true" lat="37.53865" lon="129.108"><tag k="highway" v="bus_stop" /><tag k="public_transport" v="platform" /><tag k="bus" v="yes" /><tag k="name" v="동해교육도서관(시청.북평방면)" /><tag k="addr:full" v="강원도 동해시 부곡동 166-16" /><tag k="source" v="공공데이터포털" /><tag k="source:date" v="2020-11-24" /></node><node id="-200179" action="modify" visible="true" lat="37.53903" lon="129.10847"><tag k="highway" v="bus_stop" /><tag k="public_transport" v="platform" /><tag k="bus" v="yes" /><tag k="name" v="동해교육도서관(발한.망상방면)" /><tag k="addr:full" v="강원도 동해시 부곡동 9-1" /><tag k="source" v="공공데이터포털" /><tag k="source:date" v="2020-11-24" /></node><node id="-200180" action="modify" visible="true" lat="37.48841" lon="129.06998"><tag k="highway" v="bus_stop" /><tag k="public_transport" v="platform" /><tag k="bus" v="yes" /><tag k="name" v="삼화교(대동.북평방면)" /><tag k="addr:full" v="강원도 동해시 이로동 115-1" /><tag k="source" v="공공데이터포털" /><tag k="source:date" v="2020-11-24" /></node><node id="-200181" action="modify" visible="true" lat="37.48834" lon="129.07056"><tag k="highway" v="bus_stop" /><tag k="public_transport" v="platform" /><tag k="bus" v="yes" /><tag k="name" v="해성주유소(무릉.신흥방면)" /><tag k="addr:full" v="강원도 동해시 이로동 110-2" /><tag k="source" v="공공데이터포털" /><tag k="source:date" v="2020-11-24" /></node><node id="-200182" action="modify" visible="true" lat="37.48914" lon="129.06903"><tag k="highway" v="bus_stop" /><tag k="public_transport" v="platform" /><tag k="bus" v="yes" /><tag k="name" v="삼화동주민센터(대동.북평방면)" /><tag k="addr:full" v="강원도 동해시 이로동 118-2" /><tag k="source" v="공공데이터포털" /><tag k="source:date" v="2020-11-24" /></node><node id="-200183" action="modify" visible="true" lat="37.48698" lon="129.06732"><tag k="highway" v="bus_stop" /><tag k="public_transport" v="platform" /><tag k="bus" v="yes" /><tag k="name" v="삼화시장(무릉방면)" /><tag k="addr:full" v="강원도 동해시 이로동 93-1" /><tag k="source" v="공공데이터포털" /><tag k="source:date" v="2020-11-24" /></node><node id="-200184" action="modify" visible="true" lat="37.48725" lon="129.06813"><tag k="highway" v="bus_stop" /><tag k="public_transport" v="platform" /><tag k="bus" v="yes" /><tag k="name" v="삼화시장(대동.북평방면)" /><tag k="addr:full" v="강원도 동해시 이로동 100-3" /><tag k="source" v="공공데이터포털" /><tag k="source:date" v="2020-11-24" /></node><node id="-200185" action="modify" visible="true" lat="37.49318" lon="129.0608"><tag k="highway" v="bus_stop" /><tag k="public_transport" v="platform" /><tag k="bus" v="yes" /><tag k="name" v="삼흥(비천.신흥방면)" /><tag k="addr:full" v="강원도 동해시 이로동 550-3" /><tag k="source" v="공공데이터포털" /><tag k="source:date" v="2020-11-24" /></node><node id="-200186" action="modify" visible="true" lat="37.49307" lon="129.0608"><tag k="highway" v="bus_stop" /><tag k="public_transport" v="platform" /><tag k="bus" v="yes" /><tag k="name" v="삼흥(대동.북평방면)" /><tag k="addr:full" v="강원도 동해시 이로동 558-8" /><tag k="source" v="공공데이터포털" /><tag k="source:date" v="2020-11-24" /></node><node id="-200187" action="modify" visible="true" lat="37.51707" lon="129.02209"><tag k="highway" v="bus_stop" /><tag k="public_transport" v="platform" /><tag k="bus" v="yes" /><tag k="name" v="삼흥체험학습장(신흥방면)" /><tag k="addr:full" v="강원도 동해시 신흥동 181-6" /><tag k="source" v="공공데이터포털" /><tag k="source:date" v="2020-11-24" /></node><node id="-200188" action="modify" visible="true" lat="37.51701" lon="129.022"><tag k="highway" v="bus_stop" /><tag k="public_transport" v="platform" /><tag k="bus" v="yes" /><tag k="name" v="삼흥체험학습장(대동.북평방면)" /><tag k="addr:full" v="강원도 동해시 신흥동 180-1" /><tag k="source" v="공공데이터포털" /><tag k="source:date" v="2020-11-24" /></node><node id="-200189" action="modify" visible="true" lat="37.56812" lon="129.10054"><tag k="highway" v="bus_stop" /><tag k="public_transport" v="platform" /><tag k="bus" v="yes" /><tag k="name" v="샘터입구(발한.시청방면)" /><tag k="addr:full" v="강원도 동해시 초구동 2-8" /><tag k="source" v="공공데이터포털" /><tag k="source:date" v="2020-11-24" /></node><node id="-200190" action="modify" visible="true" lat="37.56807" lon="129.10083"><tag k="highway" v="bus_stop" /><tag k="public_transport" v="platform" /><tag k="bus" v="yes" /><tag k="name" v="샘터입구(옥계방면)" /><tag k="addr:full" v="강원도 동해시 초구동 2-10" /><tag k="source" v="공공데이터포털" /><tag k="source:date" v="2020-11-24" /></node><node id="-200191" action="modify" visible="true" lat="37.59809" lon="129.0798"><tag k="highway" v="bus_stop" /><tag k="public_transport" v="platform" /><tag k="bus" v="yes" /><tag k="name" v="석두골(발한.시청방면)" /><tag k="addr:full" v="강원도 동해시 망상동 426-29" /><tag k="source" v="공공데이터포털" /><tag k="source:date" v="2020-11-24" /></node><node id="-200192" action="modify" visible="true" lat="37.59818" lon="129.07991"><tag k="highway" v="bus_stop" /><tag k="public_transport" v="platform" /><tag k="bus" v="yes" /><tag k="name" v="석두골(옥계방면)" /><tag k="addr:full" v="강원도 동해시 망상동 426-29" /><tag k="source" v="공공데이터포털" /><tag k="source:date" v="2020-11-24" /></node><node id="-200193" action="modify" visible="true" lat="37.48039" lon="129.11448"><tag k="highway" v="bus_stop" /><tag k="public_transport" v="platform" /><tag k="bus" v="yes" /><tag k="name" v="그린타워(북평.시청방면)" /><tag k="addr:full" v="강원도 동해시 이도동 2-2" /><tag k="source" v="공공데이터포털" /><tag k="source:date" v="2020-11-24" /></node><node id="-200194" action="modify" visible="true" lat="37.48047" lon="129.11447"><tag k="highway" v="bus_stop" /><tag k="public_transport" v="platform" /><tag k="bus" v="yes" /><tag k="name" v="그린타워(대동.무릉방면)" /><tag k="addr:full" v="강원도 동해시 이도동 2-2" /><tag k="source" v="공공데이터포털" /><tag k="source:date" v="2020-11-24" /></node><node id="-200195" action="modify" visible="true" lat="37.48066" lon="129.11978"><tag k="highway" v="bus_stop" /><tag k="public_transport" v="platform" /><tag k="bus" v="yes" /><tag k="name" v="북평구장터(북평.시청방면)" /><tag k="addr:full" v="강원도 동해시 북평동 94-3" /><tag k="source" v="공공데이터포털" /><tag k="source:date" v="2020-11-24" /></node><node id="-200196" action="modify" visible="true" lat="37.48089" lon="129.11868"><tag k="highway" v="bus_stop" /><tag k="public_transport" v="platform" /><tag k="bus" v="yes" /><tag k="name" v="성협아파트(대동.무릉방면)" /><tag k="addr:full" v="강원도 동해시 북평동 231-4" /><tag k="source" v="공공데이터포털" /><tag k="source:date" v="2020-11-24" /></node><node id="-200197" action="modify" visible="true" lat="37.52017" lon="129.11154"><tag k="highway" v="bus_stop" /><tag k="public_transport" v="platform" /><tag k="bus" v="yes" /><tag k="name" v="센트로빌아파트(북평.대동방면)" /><tag k="addr:full" v="강원도 동해시 천곡동 1040-7" /><tag k="source" v="공공데이터포털" /><tag k="source:date" v="2020-11-24" /></node><node id="-200198" action="modify" visible="true" lat="37.51998" lon="129.11146"><tag k="highway" v="bus_stop" /><tag k="public_transport" v="platform" /><tag k="bus" v="yes" /><tag k="name" v="센트로빌아파트(시청.발한방면)" /><tag k="addr:full" v="강원도 동해시 천곡동 1040-6" /><tag k="source" v="공공데이터포털" /><tag k="source:date" v="2020-11-24" /></node><node id="-200199" action="modify" visible="true" lat="37.47995" lon="129.1054"><tag k="highway" v="bus_stop" /><tag k="public_transport" v="platform" /><tag k="bus" v="yes" /><tag k="name" v="소망교회(대동방면)" /><tag k="addr:full" v="강원도 동해시 이도동 384" /><tag k="source" v="공공데이터포털" /><tag k="source:date" v="2020-11-24" /></node><node id="-200200" action="modify" visible="true" lat="37.49612" lon="129.05274"><tag k="highway" v="bus_stop" /><tag k="public_transport" v="platform" /><tag k="bus" v="yes" /><tag k="name" v="소비천(비천.신흥방면)" /><tag k="addr:full" v="강원도 동해시 이로동 733-1" /><tag k="source" v="공공데이터포털" /><tag k="source:date" v="2020-11-24" /></node><node id="-200201" action="modify" visible="true" lat="37.49603" lon="129.05269"><tag k="highway" v="bus_stop" /><tag k="public_transport" v="platform" /><tag k="bus" v="yes" /><tag k="name" v="소비천(대동.북평방면)" /><tag k="addr:full" v="강원도 동해시 이로동 733-1" /><tag k="source" v="공공데이터포털" /><tag k="source:date" v="2020-11-24" /></node><node id="-200202" action="modify" visible="true" lat="37.48341" lon="129.06204"><tag k="highway" v="bus_stop" /><tag k="public_transport" v="platform" /><tag k="bus" v="yes" /><tag k="name" v="소학동(무릉방면)" /><tag k="addr:full" v="강원도 동해시 삼화동 30-1" /><tag k="source" v="공공데이터포털" /><tag k="source:date" v="2020-11-24" /></node><node id="-200203" action="modify" visible="true" lat="37.4827" lon="129.06257"><tag k="highway" v="bus_stop" /><tag k="public_transport" v="platform" /><tag k="bus" v="yes" /><tag k="name" v="소학동(대동.북평방면)" /><tag k="addr:full" v="강원도 동해시 삼화동 34-21" /><tag k="source" v="공공데이터포털" /><tag k="source:date" v="2020-11-24" /></node><node id="-200204" action="modify" visible="true" lat="37.56225" lon="129.07535"><tag k="highway" v="bus_stop" /><tag k="public_transport" v="platform" /><tag k="bus" v="yes" /><tag k="name" v="송전교앞(발한.시청방면)" /><tag k="addr:full" v="강원도 동해시 만우동 58-11" /><tag k="source" v="공공데이터포털" /><tag k="source:date" v="2020-11-24" /></node><node id="-200205" action="modify" visible="true" lat="37.56224" lon="129.07527"><tag k="highway" v="bus_stop" /><tag k="public_transport" v="platform" /><tag k="bus" v="yes" /><tag k="name" v="송전교앞(만우방면)" /><tag k="addr:full" v="강원도 동해시 만우동 58-11" /><tag k="source" v="공공데이터포털" /><tag k="source:date" v="2020-11-24" /></node><node id="-200206" action="modify" visible="true" lat="37.50015" lon="129.12573"><tag k="highway" v="bus_stop" /><tag k="public_transport" v="platform" /><tag k="bus" v="yes" /><tag k="name" v="송정우체국(북평.대동방면)" /><tag k="addr:full" v="강원도 동해시 송정동 867-108" /><tag k="source" v="공공데이터포털" /><tag k="source:date" v="2020-11-24" /></node><node id="-200207" action="modify" visible="true" lat="37.49982" lon="129.12597"><tag k="highway" v="bus_stop" /><tag k="public_transport" v="platform" /><tag k="bus" v="yes" /><tag k="name" v="송정우체국(시청.발한방면)" /><tag k="addr:full" v="강원도 동해시 송정동 849-71" /><tag k="source" v="공공데이터포털" /><tag k="source:date" v="2020-11-24" /></node><node id="-200208" action="modify" visible="true" lat="37.49536" lon="129.12299"><tag k="highway" v="bus_stop" /><tag k="public_transport" v="platform" /><tag k="bus" v="yes" /><tag k="name" v="송정초등학교(북평.추암방면)" /><tag k="addr:full" v="강원도 동해시 송정동 1028-111" /><tag k="source" v="공공데이터포털" /><tag k="source:date" v="2020-11-24" /></node><node id="-200209" action="modify" visible="true" lat="37.49446" lon="129.12355"><tag k="highway" v="bus_stop" /><tag k="public_transport" v="platform" /><tag k="bus" v="yes" /><tag k="name" v="송정초등학교(효가.시청방면)" /><tag k="addr:full" v="강원도 동해시 송정동 1065" /><tag k="source" v="공공데이터포털" /><tag k="source:date" v="2020-11-24" /></node><node id="-200210" action="modify" visible="true" lat="37.48541" lon="129.09485"><tag k="highway" v="bus_stop" /><tag k="public_transport" v="platform" /><tag k="bus" v="yes" /><tag k="name" v="쇄운경로당(대동.북평방면)" /><tag k="addr:full" v="강원도 동해시 쇄운동 313-1" /><tag k="source" v="공공데이터포털" /><tag k="source:date" v="2020-11-24" /></node><node id="-200211" action="modify" visible="true" lat="37.48644" lon="129.09536"><tag k="highway" v="bus_stop" /><tag k="public_transport" v="platform" /><tag k="bus" v="yes" /><tag k="name" v="쇄운동(무릉.신흥방면)" /><tag k="addr:full" v="강원도 동해시 쇄운동 325-1" /><tag k="source" v="공공데이터포털" /><tag k="source:date" v="2020-11-24" /></node><node id="-200212" action="modify" visible="true" lat="37.48243" lon="129.09018"><tag k="highway" v="bus_stop" /><tag k="public_transport" v="platform" /><tag k="bus" v="yes" /><tag k="name" v="쇄운교(무릉.신흥방면)" /><tag k="addr:full" v="강원도 동해시 쇄운동 617-3" /><tag k="source" v="공공데이터포털" /><tag k="source:date" v="2020-11-24" /></node><node id="-200213" action="modify" visible="true" lat="37.48239" lon="129.0904"><tag k="highway" v="bus_stop" /><tag k="public_transport" v="platform" /><tag k="bus" v="yes" /><tag k="name" v="쇄운교(대동.북평방면)" /><tag k="addr:full" v="강원도 동해시 쇄운동 617-5" /><tag k="source" v="공공데이터포털" /><tag k="source:date" v="2020-11-24" /></node><node id="-200214" action="modify" visible="true" lat="37.48236" lon="129.08232"><tag k="highway" v="bus_stop" /><tag k="public_transport" v="platform" /><tag k="bus" v="yes" /><tag k="name" v="쇄운동(대동.북평방면)" /><tag k="addr:full" v="강원도 동해시 쇄운동 690-3" /><tag k="source" v="공공데이터포털" /><tag k="source:date" v="2020-11-24" /></node><node id="-200215" action="modify" visible="true" lat="37.48248" lon="129.08177"><tag k="highway" v="bus_stop" /><tag k="public_transport" v="platform" /><tag k="bus" v="yes" /><tag k="name" v="쇄운주유소앞(무릉.신흥방면)" /><tag k="addr:full" v="강원도 동해시 쇄운동 686-14" /><tag k="source" v="공공데이터포털" /><tag k="source:date" v="2020-11-24" /></node><node id="-200216" action="modify" visible="true" lat="37.53909" lon="129.07479"><tag k="highway" v="bus_stop" /><tag k="public_transport" v="platform" /><tag k="bus" v="yes" /><tag k="name" v="승지골(발한방면)" /><tag k="addr:full" v="강원도 동해시 부곡동 368-1" /><tag k="source" v="공공데이터포털" /><tag k="source:date" v="2020-11-24" /></node><node id="-200217" action="modify" visible="true" lat="37.51594" lon="129.10669"><tag k="highway" v="bus_stop" /><tag k="public_transport" v="platform" /><tag k="bus" v="yes" /><tag k="name" v="주공5차아파트(시청.발한방면)" /><tag k="addr:full" v="강원도 동해시 천곡동 1005-1" /><tag k="source" v="공공데이터포털" /><tag k="source:date" v="2020-11-24" /></node><node id="-200218" action="modify" visible="true" lat="37.51622" lon="129.10682"><tag k="highway" v="bus_stop" /><tag k="public_transport" v="platform" /><tag k="bus" v="yes" /><tag k="name" v="주공5차아파트(북평.삼척방면)" /><tag k="addr:full" v="강원도 동해시 천곡동 372-4" /><tag k="source" v="공공데이터포털" /><tag k="source:date" v="2020-11-24" /></node><node id="-200219" action="modify" visible="true" lat="37.48003" lon="129.05381"><tag k="highway" v="bus_stop" /><tag k="public_transport" v="platform" /><tag k="bus" v="yes" /><tag k="name" v="쌍용양회후문(대동.북평방면)" /><tag k="addr:full" v="강원도 동해시 삼화동 60-22" /><tag k="source" v="공공데이터포털" /><tag k="source:date" v="2020-11-24" /></node><node id="-200220" action="modify" visible="true" lat="37.48014" lon="129.0538"><tag k="highway" v="bus_stop" /><tag k="public_transport" v="platform" /><tag k="bus" v="yes" /><tag k="name" v="쌍용양회후문(무릉방면)" /><tag k="addr:full" v="강원도 동해시 삼화동 60-10" /><tag k="source" v="공공데이터포털" /><tag k="source:date" v="2020-11-24" /></node><node id="-200221" action="modify" visible="true" lat="37.52359" lon="129.11466"><tag k="highway" v="bus_stop" /><tag k="public_transport" v="platform" /><tag k="bus" v="yes" /><tag k="name" v="동해시청앞(북평.대동방면)" /><tag k="addr:full" v="강원도 동해시 천곡동 847" /><tag k="source" v="공공데이터포털" /><tag k="source:date" v="2020-11-24" /></node><node id="-200222" action="modify" visible="true" lat="37.52398" lon="129.11485"><tag k="highway" v="bus_stop" /><tag k="public_transport" v="platform" /><tag k="bus" v="yes" /><tag k="name" v="시청(발한.옥계방면)" /><tag k="addr:full" v="강원도 동해시 천곡동 847" /><tag k="source" v="공공데이터포털" /><tag k="source:date" v="2020-11-24" /></node><node id="-200223" action="modify" visible="true" lat="37.52449" lon="129.01465"><tag k="highway" v="bus_stop" /><tag k="public_transport" v="platform" /><tag k="bus" v="yes" /><tag k="name" v="신흥(신흥종점)" /><tag k="addr:full" v="강원도 동해시 신흥동 277-9" /><tag k="source" v="공공데이터포털" /><tag k="source:date" v="2020-11-24" /></node><node id="-200224" action="modify" visible="true" lat="37.52441" lon="129.01461"><tag k="highway" v="bus_stop" /><tag k="public_transport" v="platform" /><tag k="bus" v="yes" /><tag k="name" v="신흥(대동.북평방면)" /><tag k="addr:full" v="강원도 동해시 신흥동 294-2" /><tag k="source" v="공공데이터포털" /><tag k="source:date" v="2020-11-24" /></node><node id="-200225" action="modify" visible="true" lat="37.52362" lon="129.01656"><tag k="highway" v="bus_stop" /><tag k="public_transport" v="platform" /><tag k="bus" v="yes" /><tag k="name" v="신흥간촌(신흥방면)" /><tag k="addr:full" v="강원도 동해시 신흥동 244-1" /><tag k="source" v="공공데이터포털" /><tag k="source:date" v="2020-11-24" /></node><node id="-200226" action="modify" visible="true" lat="37.52353" lon="129.01652"><tag k="highway" v="bus_stop" /><tag k="public_transport" v="platform" /><tag k="bus" v="yes" /><tag k="name" v="신흥간촌(대동.북평방면)" /><tag k="addr:full" v="강원도 동해시 신흥동 244-1" /><tag k="source" v="공공데이터포털" /><tag k="source:date" v="2020-11-24" /></node><node id="-200227" action="modify" visible="true" lat="37.57798" lon="129.08755"><tag k="highway" v="bus_stop" /><tag k="public_transport" v="platform" /><tag k="bus" v="yes" /><tag k="name" v="심곡(발한.시청방면)" /><tag k="addr:full" v="강원도 동해시 심곡동 652-1" /><tag k="source" v="공공데이터포털" /><tag k="source:date" v="2020-11-24" /></node><node id="-200228" action="modify" visible="true" lat="37.57801" lon="129.08748"><tag k="highway" v="bus_stop" /><tag k="public_transport" v="platform" /><tag k="bus" v="yes" /><tag k="name" v="심곡(만우방면)" /><tag k="addr:full" v="강원도 동해시 심곡동 652-1" /><tag k="source" v="공공데이터포털" /><tag k="source:date" v="2020-11-24" /></node><node id="-200229" action="modify" visible="true" lat="37.57671" lon="129.08448"><tag k="highway" v="bus_stop" /><tag k="public_transport" v="platform" /><tag k="bus" v="yes" /><tag k="name" v="심곡동마을회관앞(발한.시청방면)" /><tag k="addr:full" v="강원도 동해시 심곡동 207-10" /><tag k="source" v="공공데이터포털" /><tag k="source:date" v="2020-11-24" /></node><node id="-200230" action="modify" visible="true" lat="37.57676" lon="129.08446"><tag k="highway" v="bus_stop" /><tag k="public_transport" v="platform" /><tag k="bus" v="yes" /><tag k="name" v="심곡동마을회관앞(만우방면)" /><tag k="addr:full" v="강원도 동해시 심곡동 207-10" /><tag k="source" v="공공데이터포털" /><tag k="source:date" v="2020-11-24" /></node><node id="-200231" action="modify" visible="true" lat="37.48467" lon="129.06447"><tag k="highway" v="bus_stop" /><tag k="public_transport" v="platform" /><tag k="bus" v="yes" /><tag k="name" v="쌍용아파트(무릉방면)" /><tag k="addr:full" v="강원도 동해시 이로동 31-3" /><tag k="source" v="공공데이터포털" /><tag k="source:date" v="2020-11-24" /></node><node id="-200232" action="modify" visible="true" lat="37.48469" lon="129.06497"><tag k="highway" v="bus_stop" /><tag k="public_transport" v="platform" /><tag k="bus" v="yes" /><tag k="name" v="쌍용아파트(대동.북평방면)" /><tag k="addr:full" v="강원도 동해시 이로동 29-17" /><tag k="source" v="공공데이터포털" /><tag k="source:date" v="2020-11-24" /></node><node id="-200233" action="modify" visible="true" lat="37.47873" lon="129.05033"><tag k="highway" v="bus_stop" /><tag k="public_transport" v="platform" /><tag k="bus" v="yes" /><tag k="name" v="쌍용자원개발본사입구(무릉방면)" /><tag k="addr:full" v="강원도 동해시 삼화동 430-1" /><tag k="source" v="공공데이터포털" /><tag k="source:date" v="2020-11-24" /></node><node id="-200234" action="modify" visible="true" lat="37.47869" lon="129.05045"><tag k="highway" v="bus_stop" /><tag k="public_transport" v="platform" /><tag k="bus" v="yes" /><tag k="name" v="쌍용자원개발본사입구(대동.북평방면)" /><tag k="addr:full" v="강원도 동해시 삼화동 430-1" /><tag k="source" v="공공데이터포털" /><tag k="source:date" v="2020-11-24" /></node><node id="-200235" action="modify" visible="true" lat="37.4695" lon="129.03637"><tag k="highway" v="bus_stop" /><tag k="public_transport" v="platform" /><tag k="bus" v="yes" /><tag k="name" v="쌍용자원개발입구(무릉방면)" /><tag k="addr:full" v="강원도 동해시 삼화동 635-9" /><tag k="source" v="공공데이터포털" /><tag k="source:date" v="2020-11-24" /></node><node id="-200236" action="modify" visible="true" lat="37.46954" lon="129.03669"><tag k="highway" v="bus_stop" /><tag k="public_transport" v="platform" /><tag k="bus" v="yes" /><tag k="name" v="쌍용자원개발입구(대동.북평방면)" /><tag k="addr:full" v="강원도 동해시 삼화동 633-2" /><tag k="source" v="공공데이터포털" /><tag k="source:date" v="2020-11-24" /></node><node id="-200237" action="modify" visible="true" lat="37.5811" lon="129.08336"><tag k="highway" v="bus_stop" /><tag k="public_transport" v="platform" /><tag k="bus" v="yes" /><tag k="name" v="약천마을(만우방면)" /><tag k="addr:full" v="강원도 동해시 심곡동 712" /><tag k="source" v="공공데이터포털" /><tag k="source:date" v="2020-11-24" /></node><node id="-200238" action="modify" visible="true" lat="37.56153" lon="129.11953"><tag k="highway" v="bus_stop" /><tag k="public_transport" v="platform" /><tag k="bus" v="yes" /><tag k="name" v="해변으로앞(발한.시청방면)" /><tag k="addr:full" v="강원도 동해시 어달동 9-5" /><tag k="source" v="공공데이터포털" /><tag k="source:date" v="2020-11-24" /></node><node id="-200239" action="modify" visible="true" lat="37.56207" lon="129.1198"><tag k="highway" v="bus_stop" /><tag k="public_transport" v="platform" /><tag k="bus" v="yes" /><tag k="name" v="어달항회센터(대진방면)" /><tag k="addr:full" v="강원도 동해시 어달동 9-1" /><tag k="source" v="공공데이터포털" /><tag k="source:date" v="2020-11-24" /></node><node id="-200240" action="modify" visible="true" lat="37.56689" lon="129.11908"><tag k="highway" v="bus_stop" /><tag k="public_transport" v="platform" /><tag k="bus" v="yes" /><tag k="name" v="어달해수욕장(발한.시청방면)" /><tag k="addr:full" v="강원도 동해시 어달동 188-2" /><tag k="source" v="공공데이터포털" /><tag k="source:date" v="2020-11-24" /></node><node id="-200241" action="modify" visible="true" lat="37.56708" lon="129.1191"><tag k="highway" v="bus_stop" /><tag k="public_transport" v="platform" /><tag k="bus" v="yes" /><tag k="name" v="어달해변(대진방면)" /><tag k="addr:full" v="강원도 동해시 어달동 184-22" /><tag k="source" v="공공데이터포털" /><tag k="source:date" v="2020-11-24" /></node><node id="-200242" action="modify" visible="true" lat="37.5319" lon="129.1127"><tag k="highway" v="bus_stop" /><tag k="public_transport" v="platform" /><tag k="bus" v="yes" /><tag k="name" v="다이소앞(시청.북평방면)" /><tag k="addr:full" v="강원도 동해시 평릉동 143" /><tag k="source" v="공공데이터포털" /><tag k="source:date" v="2020-11-24" /></node><node id="-200243" action="modify" visible="true" lat="37.53175" lon="129.11265"><tag k="highway" v="bus_stop" /><tag k="public_transport" v="platform" /><tag k="bus" v="yes" /><tag k="name" v="엘리시아아파트(발한.망상방면)" /><tag k="addr:full" v="강원도 동해시 평릉동 142" /><tag k="source" v="공공데이터포털" /><tag k="source:date" v="2020-11-24" /></node><node id="-200244" action="modify" visible="true" lat="37.48853" lon="129.0977"><tag k="highway" v="bus_stop" /><tag k="public_transport" v="platform" /><tag k="bus" v="yes" /><tag k="name" v="용산빌라(무릉.신흥방면)" /><tag k="addr:full" v="강원도 동해시 쇄운동 207-8" /><tag k="source" v="공공데이터포털" /><tag k="source:date" v="2020-11-24" /></node><node id="-200245" action="modify" visible="true" lat="37.48829" lon="129.09791"><tag k="highway" v="bus_stop" /><tag k="public_transport" v="platform" /><tag k="bus" v="yes" /><tag k="name" v="용산빌라(대동.북평방면)" /><tag k="addr:full" v="강원도 동해시 쇄운동 197" /><tag k="source" v="공공데이터포털" /><tag k="source:date" v="2020-11-24" /></node><node id="-200246" action="modify" visible="true" lat="37.48511" lon="129.01974"><tag k="highway" v="bus_stop" /><tag k="public_transport" v="platform" /><tag k="bus" v="yes" /><tag k="name" v="석현사(대동.북평방면)" /><tag k="addr:full" v="강원도 동해시 이기동 17" /><tag k="source" v="공공데이터포털" /><tag k="source:date" v="2020-11-24" /></node><node id="-200247" action="modify" visible="true" lat="37.4809" lon="129.11246"><tag k="highway" v="bus_stop" /><tag k="public_transport" v="platform" /><tag k="bus" v="yes" /><tag k="name" v="이도동(북평.시청방면)" /><tag k="addr:full" v="강원도 동해시 이도동 726-10" /><tag k="source" v="공공데이터포털" /><tag k="source:date" v="2020-11-24" /></node><node id="-200248" action="modify" visible="true" lat="37.48053" lon="129.11231"><tag k="highway" v="bus_stop" /><tag k="public_transport" v="platform" /><tag k="bus" v="yes" /><tag k="name" v="이도현대아파트(삼화.무릉방면)" /><tag k="addr:full" v="강원도 동해시 이도동 293-19" /><tag k="source" v="공공데이터포털" /><tag k="source:date" v="2020-11-24" /></node><node id="-200249" action="modify" visible="true" lat="37.48055" lon="129.11297"><tag k="highway" v="bus_stop" /><tag k="public_transport" v="platform" /><tag k="bus" v="yes" /><tag k="name" v="이도사거리(대동.무릉방면)" /><tag k="addr:full" v="강원도 동해시 이도동 293-8" /><tag k="source" v="공공데이터포털" /><tag k="source:date" v="2020-11-24" /></node><node id="-200250" action="modify" visible="true" lat="37.47994" lon="129.10415"><tag k="highway" v="bus_stop" /><tag k="public_transport" v="platform" /><tag k="bus" v="yes" /><tag k="name" v="청운교(대동방면)" /><tag k="addr:full" v="강원도 동해시 이도동 383-10" /><tag k="source" v="공공데이터포털" /><tag k="source:date" v="2020-11-24" /></node><node id="-200251" action="modify" visible="true" lat="37.47782" lon="129.10013"><tag k="highway" v="bus_stop" /><tag k="public_transport" v="platform" /><tag k="bus" v="yes" /><tag k="name" v="금영펌프카(북평.시청방면)" /><tag k="addr:full" v="강원도 동해시 이도동 559-1" /><tag k="source" v="공공데이터포털" /><tag k="source:date" v="2020-11-24" /></node><node id="-200252" action="modify" visible="true" lat="37.47786" lon="129.10009"><tag k="highway" v="bus_stop" /><tag k="public_transport" v="platform" /><tag k="bus" v="yes" /><tag k="name" v="금영펌프카(삼화방면)" /><tag k="addr:full" v="강원도 동해시 이도동 559-1" /><tag k="source" v="공공데이터포털" /><tag k="source:date" v="2020-11-24" /></node><node id="-200253" action="modify" visible="true" lat="37.47899" lon="129.12977"><tag k="highway" v="bus_stop" /><tag k="public_transport" v="platform" /><tag k="bus" v="yes" /><tag k="name" v="구미택지(북평.삼척방면)" /><tag k="addr:full" v="강원도 동해시 구미동 594-1" /><tag k="source" v="공공데이터포털" /><tag k="source:date" v="2020-11-24" /></node><node id="-200254" action="modify" visible="true" lat="37.47905" lon="129.13007"><tag k="highway" v="bus_stop" /><tag k="public_transport" v="platform" /><tag k="bus" v="yes" /><tag k="name" v="구미택지(북평.시청방면)" /><tag k="addr:full" v="강원도 동해시 구미동 535-1" /><tag k="source" v="공공데이터포털" /><tag k="source:date" v="2020-11-24" /></node><node id="-200255" action="modify" visible="true" lat="37.57184" lon="129.07522"><tag k="highway" v="bus_stop" /><tag k="public_transport" v="platform" /><tag k="bus" v="yes" /><tag k="name" v="장밭삼거리(발한.시청방면)" /><tag k="addr:full" v="강원도 동해시 만우동 90-9" /><tag k="source" v="공공데이터포털" /><tag k="source:date" v="2020-11-24" /></node><node id="-200256" action="modify" visible="true" lat="37.57183" lon="129.07516"><tag k="highway" v="bus_stop" /><tag k="public_transport" v="platform" /><tag k="bus" v="yes" /><tag k="name" v="장밭삼거리(만우방면)" /><tag k="addr:full" v="강원도 동해시 만우동 90-9" /><tag k="source" v="공공데이터포털" /><tag k="source:date" v="2020-11-24" /></node><node id="-200257" action="modify" visible="true" lat="37.47411" lon="129.11832"><tag k="highway" v="bus_stop" /><tag k="public_transport" v="platform" /><tag k="bus" v="yes" /><tag k="name" v="단실회관(단봉방면)" /><tag k="addr:full" v="강원도 동해시 단봉동 596-1" /><tag k="source" v="공공데이터포털" /><tag k="source:date" v="2020-11-24" /></node><node id="-200258" action="modify" visible="true" lat="37.47428" lon="129.11857"><tag k="highway" v="bus_stop" /><tag k="public_transport" v="platform" /><tag k="bus" v="yes" /><tag k="name" v="단실회관(추암방면)" /><tag k="addr:full" v="강원도 동해시 단봉동 574-1" /><tag k="source" v="공공데이터포털" /><tag k="source:date" v="2020-11-24" /></node><node id="-200259" action="modify" visible="true" lat="37.51432" lon="129.10378"><tag k="highway" v="bus_stop" /><tag k="public_transport" v="platform" /><tag k="bus" v="yes" /><tag k="name" v="종합운동장(북평.삼척방면)" /><tag k="addr:full" v="강원도 동해시 천곡동 361-2" /><tag k="source" v="공공데이터포털" /><tag k="source:date" v="2020-11-24" /></node><node id="-200260" action="modify" visible="true" lat="37.51602" lon="129.10445"><tag k="highway" v="bus_stop" /><tag k="public_transport" v="platform" /><tag k="bus" v="yes" /><tag k="name" v="주공5차아파트(시청.발한방면)" /><tag k="addr:full" v="강원도 동해시 천곡동 산98-3" /><tag k="source" v="공공데이터포털" /><tag k="source:date" v="2020-11-24" /></node><node id="-200261" action="modify" visible="true" lat="37.47031" lon="129.11549"><tag k="highway" v="bus_stop" /><tag k="public_transport" v="platform" /><tag k="bus" v="yes" /><tag k="name" v="벽오마을(단봉방면)" /><tag k="addr:full" v="강원도 동해시 단봉동 512" /><tag k="source" v="공공데이터포털" /><tag k="source:date" v="2020-11-24" /></node><node id="-200262" action="modify" visible="true" lat="37.47027" lon="129.11562"><tag k="highway" v="bus_stop" /><tag k="public_transport" v="platform" /><tag k="bus" v="yes" /><tag k="name" v="벽오마을(추암방면)" /><tag k="addr:full" v="강원도 동해시 단봉동 505" /><tag k="source" v="공공데이터포털" /><tag k="source:date" v="2020-11-24" /></node><node id="-200263" action="modify" visible="true" lat="37.51968" lon="129.10585"><tag k="highway" v="bus_stop" /><tag k="public_transport" v="platform" /><tag k="bus" v="yes" /><tag k="name" v="현대아파트(시청.발한방면)" /><tag k="addr:full" v="강원도 동해시 천곡동 1045-4" /><tag k="source" v="공공데이터포털" /><tag k="source:date" v="2020-11-24" /></node><node id="-200264" action="modify" visible="true" lat="37.51984" lon="129.10548"><tag k="highway" v="bus_stop" /><tag k="public_transport" v="platform" /><tag k="bus" v="yes" /><tag k="name" v="주공4차아파트(북평.삼척방면)" /><tag k="addr:full" v="강원도 동해시 천곡동 1052-20" /><tag k="source" v="공공데이터포털" /><tag k="source:date" v="2020-11-24" /></node><node id="-200265" action="modify" visible="true" lat="37.53556" lon="129.10515"><tag k="highway" v="bus_stop" /><tag k="public_transport" v="platform" /><tag k="bus" v="yes" /><tag k="name" v="부곡(시청.북평방면)" /><tag k="addr:full" v="강원도 동해시 부곡동 91-2" /><tag k="source" v="공공데이터포털" /><tag k="source:date" v="2020-11-24" /></node><node id="-200266" action="modify" visible="true" lat="37.53565" lon="129.10637"><tag k="highway" v="bus_stop" /><tag k="public_transport" v="platform" /><tag k="bus" v="yes" /><tag k="name" v="부곡(발한.망상방면)" /><tag k="addr:full" v="강원도 동해시 부곡동 134-2" /><tag k="source" v="공공데이터포털" /><tag k="source:date" v="2020-11-24" /></node><node id="-200267" action="modify" visible="true" lat="37.52855" lon="129.10138"><tag k="highway" v="bus_stop" /><tag k="public_transport" v="platform" /><tag k="bus" v="yes" /><tag k="name" v="주공6차아파트(시청.북평방면)" /><tag k="addr:full" v="강원도 동해시 평릉동 318-9" /><tag k="source" v="공공데이터포털" /><tag k="source:date" v="2020-11-24" /></node><node id="-200268" action="modify" visible="true" lat="37.52868" lon="129.10166"><tag k="highway" v="bus_stop" /><tag k="public_transport" v="platform" /><tag k="bus" v="yes" /><tag k="name" v="주공6차아파트(발한.옥계방면)" /><tag k="addr:full" v="강원도 동해시 평릉동 318-1" /><tag k="source" v="공공데이터포털" /><tag k="source:date" v="2020-11-24" /></node><node id="-200269" action="modify" visible="true" lat="37.57573" lon="129.08192"><tag k="highway" v="bus_stop" /><tag k="public_transport" v="platform" /><tag k="bus" v="yes" /><tag k="name" v="구암교(발한.시청방면)" /><tag k="addr:full" v="강원도 동해시 심곡동 671" /><tag k="source" v="공공데이터포털" /><tag k="source:date" v="2020-11-24" /></node><node id="-200270" action="modify" visible="true" lat="37.57579" lon="129.08193"><tag k="highway" v="bus_stop" /><tag k="public_transport" v="platform" /><tag k="bus" v="yes" /><tag k="name" v="구암교(만우방면)" /><tag k="addr:full" v="강원도 동해시 심곡동 671" /><tag k="source" v="공공데이터포털" /><tag k="source:date" v="2020-11-24" /></node><node id="-200271" action="modify" visible="true" lat="37.54995" lon="129.10794"><tag k="highway" v="bus_stop" /><tag k="public_transport" v="platform" /><tag k="bus" v="yes" /><tag k="name" v="농협묵호지점(발한.시청방면)" /><tag k="addr:full" v="강원도 동해시 발한동 735" /><tag k="source" v="공공데이터포털" /><tag k="source:date" v="2020-11-24" /></node><node id="-200272" action="modify" visible="true" lat="37.55052" lon="129.10754"><tag k="highway" v="bus_stop" /><tag k="public_transport" v="platform" /><tag k="bus" v="yes" /><tag k="name" v="새마을금고앞(옥계방면)" /><tag k="addr:full" v="강원도 동해시 발한동 297-18" /><tag k="source" v="공공데이터포털" /><tag k="source:date" v="2020-11-24" /></node><node id="-200273" action="modify" visible="true" lat="37.49654" lon="129.12635"><tag k="highway" v="bus_stop" /><tag k="public_transport" v="platform" /><tag k="bus" v="yes" /><tag k="name" v="우리들연합의원(북평.대동방면)" /><tag k="addr:full" v="강원도 동해시 송정동 826-3" /><tag k="source" v="공공데이터포털" /><tag k="source:date" v="2020-11-24" /></node><node id="-200274" action="modify" visible="true" lat="37.4968" lon="129.12652"><tag k="highway" v="bus_stop" /><tag k="public_transport" v="platform" /><tag k="bus" v="yes" /><tag k="name" v="우리들연합의원(시청.발한방면)" /><tag k="addr:full" v="강원도 동해시 송정동 826-2" /><tag k="source" v="공공데이터포털" /><tag k="source:date" v="2020-11-24" /></node><node id="-200275" action="modify" visible="true" lat="37.52413" lon="129.11006"><tag k="highway" v="bus_stop" /><tag k="public_transport" v="platform" /><tag k="bus" v="yes" /><tag k="name" v="중앙초교앞(시청.북평방면)" /><tag k="addr:full" v="강원도 동해시 천곡동 1079-7" /><tag k="source" v="공공데이터포털" /><tag k="source:date" v="2020-11-24" /></node><node id="-200276" action="modify" visible="true" lat="37.52474" lon="129.10897"><tag k="highway" v="bus_stop" /><tag k="public_transport" v="platform" /><tag k="bus" v="yes" /><tag k="name" v="중앙초등학교앞(발한.옥계방면)" /><tag k="addr:full" v="강원도 동해시 천곡동 1090-3" /><tag k="source" v="공공데이터포털" /><tag k="source:date" v="2020-11-24" /></node><node id="-200277" action="modify" visible="true" lat="37.46825" lon="129.10638"><tag k="highway" v="bus_stop" /><tag k="public_transport" v="platform" /><tag k="bus" v="yes" /><tag k="name" v="지가동(북평.시청방면)" /><tag k="addr:full" v="강원도 동해시 지가동 264-2" /><tag k="source" v="공공데이터포털" /><tag k="source:date" v="2020-11-24" /></node><node id="-200278" action="modify" visible="true" lat="37.4683" lon="129.10636"><tag k="highway" v="bus_stop" /><tag k="public_transport" v="platform" /><tag k="bus" v="yes" /><tag k="name" v="지가동(지가동방면)" /><tag k="addr:full" v="강원도 동해시 지가동 264-2" /><tag k="source" v="공공데이터포털" /><tag k="source:date" v="2020-11-24" /></node><node id="-200279" action="modify" visible="true" lat="37.46689" lon="129.10537"><tag k="highway" v="bus_stop" /><tag k="public_transport" v="platform" /><tag k="bus" v="yes" /><tag k="name" v="지가동종점(북평.시청방면)" /><tag k="addr:full" v="강원도 동해시 지가동 385-2" /><tag k="source" v="공공데이터포털" /><tag k="source:date" v="2020-11-24" /></node><node id="-200280" action="modify" visible="true" lat="37.47711" lon="129.10522"><tag k="highway" v="bus_stop" /><tag k="public_transport" v="platform" /><tag k="bus" v="yes" /><tag k="name" v="지가동입구(지가동방면)" /><tag k="addr:full" v="강원도 동해시 이도동 398-1" /><tag k="source" v="공공데이터포털" /><tag k="source:date" v="2020-11-24" /></node><node id="-200281" action="modify" visible="true" lat="37.47711" lon="129.10532"><tag k="highway" v="bus_stop" /><tag k="public_transport" v="platform" /><tag k="bus" v="yes" /><tag k="name" v="지가동입구(북평.시청방면)" /><tag k="addr:full" v="강원도 동해시 이도동 401-2" /><tag k="source" v="공공데이터포털" /><tag k="source:date" v="2020-11-24" /></node><node id="-200282" action="modify" visible="true" lat="37.4989" lon="129.09676"><tag k="highway" v="bus_stop" /><tag k="public_transport" v="platform" /><tag k="bus" v="yes" /><tag k="name" v="지양골(한중대방면)" /><tag k="addr:full" v="강원도 동해시 지흥동 504-25" /><tag k="source" v="공공데이터포털" /><tag k="source:date" v="2020-11-24" /></node><node id="-200283" action="modify" visible="true" lat="37.55786" lon="129.10956"><tag k="highway" v="bus_stop" /><tag k="public_transport" v="platform" /><tag k="bus" v="yes" /><tag k="name" v="산제골경로당(발한.시청방면)" /><tag k="addr:full" v="강원도 동해시 묵호진동 85-40" /><tag k="source" v="공공데이터포털" /><tag k="source:date" v="2020-11-24" /></node><node id="-200284" action="modify" visible="true" lat="37.5579" lon="129.10965"><tag k="highway" v="bus_stop" /><tag k="public_transport" v="platform" /><tag k="bus" v="yes" /><tag k="name" v="산제골경로당(묵호등대방면)" /><tag k="addr:full" v="강원도 동해시 묵호진동 85-224" /><tag k="source" v="공공데이터포털" /><tag k="source:date" v="2020-11-24" /></node><node id="-200285" action="modify" visible="true" lat="37.51783" lon="129.11144"><tag k="highway" v="bus_stop" /><tag k="public_transport" v="platform" /><tag k="bus" v="yes" /><tag k="name" v="돌리네탐방로(북평.대동방면)" /><tag k="addr:full" v="강원도 동해시 천곡동 1008-12" /><tag k="source" v="공공데이터포털" /><tag k="source:date" v="2020-11-24" /></node><node id="-200286" action="modify" visible="true" lat="37.51829" lon="129.11084"><tag k="highway" v="bus_stop" /><tag k="public_transport" v="platform" /><tag k="bus" v="yes" /><tag k="name" v="북평여고(시청.발한방면)" /><tag k="addr:full" v="강원도 동해시 천곡동 1008-16" /><tag k="source" v="공공데이터포털" /><tag k="source:date" v="2020-11-24" /></node><node id="-200287" action="modify" visible="true" lat="37.5288" lon="129.10475"><tag k="highway" v="bus_stop" /><tag k="public_transport" v="platform" /><tag k="bus" v="yes" /><tag k="name" v="동해시종합버스터미널(시청.북평방면)" /><tag k="addr:full" v="강원도 동해시 평릉동 159-4" /><tag k="source" v="공공데이터포털" /><tag k="source:date" v="2020-11-24" /></node><node id="-200288" action="modify" visible="true" lat="37.52732" lon="129.10538"><tag k="highway" v="bus_stop" /><tag k="public_transport" v="platform" /><tag k="bus" v="yes" /><tag k="name" v="동해시종합버스터미널(발한.대진방면)" /><tag k="addr:full" v="강원도 동해시 평릉동 162-4" /><tag k="source" v="공공데이터포털" /><tag k="source:date" v="2020-11-24" /></node><node id="-200289" action="modify" visible="true" lat="37.52532" lon="129.10648"><tag k="highway" v="bus_stop" /><tag k="public_transport" v="platform" /><tag k="bus" v="yes" /><tag k="name" v="천곡지구대(시청.북평방면)" /><tag k="addr:full" v="강원도 동해시 천곡동 1085-1" /><tag k="source" v="공공데이터포털" /><tag k="source:date" v="2020-11-24" /></node><node id="-200290" action="modify" visible="true" lat="37.52557" lon="129.10661"><tag k="highway" v="bus_stop" /><tag k="public_transport" v="platform" /><tag k="bus" v="yes" /><tag k="name" v="한양아파트(발한.옥계방면)" /><tag k="addr:full" v="강원도 동해시 천곡동 1090-58" /><tag k="source" v="공공데이터포털" /><tag k="source:date" v="2020-11-24" /></node><node id="-200291" action="modify" visible="true" lat="37.5177" lon="129.10995"><tag k="highway" v="bus_stop" /><tag k="public_transport" v="platform" /><tag k="bus" v="yes" /><tag k="name" v="북평여고(북평.삼척방면)" /><tag k="addr:full" v="강원도 동해시 천곡동 1003" /><tag k="source" v="공공데이터포털" /><tag k="source:date" v="2020-11-24" /></node><node id="-200292" action="modify" visible="true" lat="37.51756" lon="129.11011"><tag k="highway" v="bus_stop" /><tag k="public_transport" v="platform" /><tag k="bus" v="yes" /><tag k="name" v="천곡천연동굴(시청.발한방면)" /><tag k="addr:full" v="강원도 동해시 천곡동 1003" /><tag k="source" v="공공데이터포털" /><tag k="source:date" v="2020-11-24" /></node><node id="-200293" action="modify" visible="true" lat="37.5167" lon="129.10828"><tag k="highway" v="bus_stop" /><tag k="public_transport" v="platform" /><tag k="bus" v="yes" /><tag k="name" v="시영아파트(시청.발한방면)" /><tag k="addr:full" v="강원도 동해시 천곡동 1004-12" /><tag k="source" v="공공데이터포털" /><tag k="source:date" v="2020-11-24" /></node><node id="-200294" action="modify" visible="true" lat="37.4939" lon="129.12631"><tag k="highway" v="bus_stop" /><tag k="public_transport" v="platform" /><tag k="bus" v="yes" /><tag k="name" v="천일화물앞(북평.대동방면)" /><tag k="addr:full" v="강원도 동해시 송정동 354" /><tag k="source" v="공공데이터포털" /><tag k="source:date" v="2020-11-24" /></node><node id="-200295" action="modify" visible="true" lat="37.49419" lon="129.12654"><tag k="highway" v="bus_stop" /><tag k="public_transport" v="platform" /><tag k="bus" v="yes" /><tag k="name" v="천일화물앞(시청.발한방면)" /><tag k="addr:full" v="강원도 동해시 송정동 357-4" /><tag k="source" v="공공데이터포털" /><tag k="source:date" v="2020-11-24" /></node><node id="-200296" action="modify" visible="true" lat="37.49066" lon="129.06737"><tag k="highway" v="bus_stop" /><tag k="public_transport" v="platform" /><tag k="bus" v="yes" /><tag k="name" v="삼화천주교앞(비천.신흥방면)" /><tag k="addr:full" v="강원도 동해시 이로동 132-11" /><tag k="source" v="공공데이터포털" /><tag k="source:date" v="2020-11-24" /></node><node id="-200297" action="modify" visible="true" lat="37.49012" lon="129.06761"><tag k="highway" v="bus_stop" /><tag k="public_transport" v="platform" /><tag k="bus" v="yes" /><tag k="name" v="천주교앞(대동.북평방면)" /><tag k="addr:full" v="강원도 동해시 이로동 130-1" /><tag k="source" v="공공데이터포털" /><tag k="source:date" v="2020-11-24" /></node><node id="-200298" action="modify" visible="true" lat="37.54369" lon="129.10848"><tag k="highway" v="bus_stop" /><tag k="public_transport" v="platform" /><tag k="bus" v="yes" /><tag k="name" v="청소년문화의집(시청.삼척방면)" /><tag k="addr:full" v="강원도 동해시 발한동 160-6" /><tag k="source" v="공공데이터포털" /><tag k="source:date" v="2020-11-24" /></node><node id="-200299" action="modify" visible="true" lat="37.54402" lon="129.10858"><tag k="highway" v="bus_stop" /><tag k="public_transport" v="platform" /><tag k="bus" v="yes" /><tag k="name" v="청소년문화의집(발한.대진방면)" /><tag k="addr:full" v="강원도 동해시 발한동 69-29" /><tag k="source" v="공공데이터포털" /><tag k="source:date" v="2020-11-24" /></node><node id="-200300" action="modify" visible="true" lat="37.48578" lon="129.10319"><tag k="highway" v="bus_stop" /><tag k="public_transport" v="platform" /><tag k="bus" v="yes" /><tag k="name" v="청운초등학교(대동방면)" /><tag k="addr:full" v="강원도 동해시 쇄운동 79-2" /><tag k="source" v="공공데이터포털" /><tag k="source:date" v="2020-11-24" /></node><node id="-200301" action="modify" visible="true" lat="37.57653" lon="129.097"><tag k="highway" v="bus_stop" /><tag k="public_transport" v="platform" /><tag k="bus" v="yes" /><tag k="name" v="초구입구(발한.시청방면)" /><tag k="addr:full" v="강원도 동해시 초구동 1-3" /><tag k="source" v="공공데이터포털" /><tag k="source:date" v="2020-11-24" /></node><node id="-200302" action="modify" visible="true" lat="37.57661" lon="129.09729"><tag k="highway" v="bus_stop" /><tag k="public_transport" v="platform" /><tag k="bus" v="yes" /><tag k="name" v="초구입구(옥계방면)" /><tag k="addr:full" v="강원도 동해시 초구동 1-2" /><tag k="source" v="공공데이터포털" /><tag k="source:date" v="2020-11-24" /></node><node id="-200303" action="modify" visible="true" lat="37.46885" lon="129.14241"><tag k="highway" v="bus_stop" /><tag k="public_transport" v="platform" /><tag k="bus" v="yes" /><tag k="name" v="추암입구(삼척방면)" /><tag k="addr:full" v="강원도 동해시 대구동 35-1" /><tag k="source" v="공공데이터포털" /><tag k="source:date" v="2020-11-24" /></node><node id="-200304" action="modify" visible="true" lat="37.46899" lon="129.14255"><tag k="highway" v="bus_stop" /><tag k="public_transport" v="platform" /><tag k="bus" v="yes" /><tag k="name" v="추암입구(북평.시청방면)" /><tag k="addr:full" v="강원도 동해시 대구동 35-1" /><tag k="source" v="공공데이터포털" /><tag k="source:date" v="2020-11-24" /></node><node id="-200305" action="modify" visible="true" lat="37.47853" lon="129.15684"><tag k="highway" v="bus_stop" /><tag k="public_transport" v="platform" /><tag k="bus" v="yes" /><tag k="name" v="추암해변(북평.시청방면)" /><tag k="addr:full" v="강원도 동해시 추암동 631-2" /><tag k="source" v="공공데이터포털" /><tag k="source:date" v="2020-11-24" /></node><node id="-200306" action="modify" visible="true" lat="37.51995" lon="129.01961"><tag k="highway" v="bus_stop" /><tag k="public_transport" v="platform" /><tag k="bus" v="yes" /><tag k="name" v="관촌쉼터(신흥방면)" /><tag k="addr:full" v="강원도 동해시 신흥동 216-3" /><tag k="source" v="공공데이터포털" /><tag k="source:date" v="2020-11-24" /></node><node id="-200307" action="modify" visible="true" lat="37.52009" lon="129.01935"><tag k="highway" v="bus_stop" /><tag k="public_transport" v="platform" /><tag k="bus" v="yes" /><tag k="name" v="관촌(대동.북평방면)" /><tag k="addr:full" v="강원도 동해시 신흥동 214-2" /><tag k="source" v="공공데이터포털" /><tag k="source:date" v="2020-11-24" /></node><node id="-200308" action="modify" visible="true" lat="37.55266" lon="129.10546"><tag k="highway" v="bus_stop" /><tag k="public_transport" v="platform" /><tag k="bus" v="yes" /><tag k="name" v="풍물시장앞(발한.시청방면)" /><tag k="addr:full" v="강원도 동해시 발한동 330-38" /><tag k="source" v="공공데이터포털" /><tag k="source:date" v="2020-11-24" /></node><node id="-200309" action="modify" visible="true" lat="37.55268" lon="129.1057"><tag k="highway" v="bus_stop" /><tag k="public_transport" v="platform" /><tag k="bus" v="yes" /><tag k="name" v="발한중앙시장(옥계방면)" /><tag k="addr:full" v="강원도 동해시 발한동 330-18" /><tag k="source" v="공공데이터포털" /><tag k="source:date" v="2020-11-24" /></node><node id="-200310" action="modify" visible="true" lat="37.5339" lon="129.1156"><tag k="highway" v="bus_stop" /><tag k="public_transport" v="platform" /><tag k="bus" v="yes" /><tag k="name" v="하평마을(발한.망상방면)" /><tag k="addr:full" v="강원도 동해시 평릉동 85-1" /><tag k="source" v="공공데이터포털" /><tag k="source:date" v="2020-11-24" /></node><node id="-200311" action="modify" visible="true" lat="37.5033" lon="129.09161"><tag k="highway" v="bus_stop" /><tag k="public_transport" v="platform" /><tag k="bus" v="yes" /><tag k="name" v="한중대학교(북평.시청방면)" /><tag k="addr:full" v="강원도 동해시 지흥동 348" /><tag k="source" v="공공데이터포털" /><tag k="source:date" v="2020-11-24" /></node><node id="-200312" action="modify" visible="true" lat="37.5034" lon="129.12732"><tag k="highway" v="bus_stop" /><tag k="public_transport" v="platform" /><tag k="bus" v="yes" /><tag k="name" v="해군부대(북평.대동방면)" /><tag k="addr:full" v="강원도 동해시 용정동 66-5" /><tag k="source" v="공공데이터포털" /><tag k="source:date" v="2020-11-24" /></node><node id="-200313" action="modify" visible="true" lat="37.50418" lon="129.12777"><tag k="highway" v="bus_stop" /><tag k="public_transport" v="platform" /><tag k="bus" v="yes" /><tag k="name" v="해군부대(시청.발한방면)" /><tag k="addr:full" v="강원도 동해시 용정동 64-1" /><tag k="source" v="공공데이터포털" /><tag k="source:date" v="2020-11-24" /></node><node id="-200314" action="modify" visible="true" lat="37.55538" lon="129.11105"><tag k="highway" v="bus_stop" /><tag k="public_transport" v="platform" /><tag k="bus" v="yes" /><tag k="name" v="해돋이마을(발한.시청방면)" /><tag k="addr:full" v="강원도 동해시 묵호진동 산56-35" /><tag k="source" v="공공데이터포털" /><tag k="source:date" v="2020-11-24" /></node><node id="-200315" action="modify" visible="true" lat="37.55535" lon="129.11117"><tag k="highway" v="bus_stop" /><tag k="public_transport" v="platform" /><tag k="bus" v="yes" /><tag k="name" v="해돋이마을(묵호등대방면)" /><tag k="addr:full" v="강원도 동해시 묵호진동 산56-35" /><tag k="source" v="공공데이터포털" /><tag k="source:date" v="2020-11-24" /></node><node id="-200316" action="modify" visible="true" lat="37.51717" lon="129.11669"><tag k="highway" v="bus_stop" /><tag k="public_transport" v="platform" /><tag k="bus" v="yes" /><tag k="name" v="현충탑(북평.대동방면)" /><tag k="addr:full" v="강원도 동해시 천곡동 1001-8" /><tag k="source" v="공공데이터포털" /><tag k="source:date" v="2020-11-24" /></node><node id="-200317" action="modify" visible="true" lat="37.51699" lon="129.11725"><tag k="highway" v="bus_stop" /><tag k="public_transport" v="platform" /><tag k="bus" v="yes" /><tag k="name" v="현충탑(시청.발한방면)" /><tag k="addr:full" v="강원도 동해시 천곡동 964-1" /><tag k="source" v="공공데이터포털" /><tag k="source:date" v="2020-11-24" /></node><node id="-200318" action="modify" visible="true" lat="37.46579" lon="129.12906"><tag k="highway" v="bus_stop" /><tag k="public_transport" v="platform" /><tag k="bus" v="yes" /><tag k="name" v="호현마을( )" /><tag k="addr:full" v="강원도 동해시 호현동 81" /><tag k="source" v="공공데이터포털" /><tag k="source:date" v="2020-11-24" /></node><node id="-200319" action="modify" visible="true" lat="37.47419" lon="129.10666"><tag k="highway" v="bus_stop" /><tag k="public_transport" v="platform" /><tag k="bus" v="yes" /><tag k="name" v="가원습지(지가동방면)" /><tag k="addr:full" v="강원도 동해시 지가동 99-1" /><tag k="source" v="공공데이터포털" /><tag k="source:date" v="2020-11-24" /></node><node id="-200320" action="modify" visible="true" lat="37.47425" lon="129.10673"><tag k="highway" v="bus_stop" /><tag k="public_transport" v="platform" /><tag k="bus" v="yes" /><tag k="name" v="가원습지(북평.시청방면)" /><tag k="addr:full" v="강원도 동해시 지가동 산71-2" /><tag k="source" v="공공데이터포털" /><tag k="source:date" v="2020-11-24" /></node><node id="-200321" action="modify" visible="true" lat="37.49422" lon="129.11051"><tag k="highway" v="bus_stop" /><tag k="public_transport" v="platform" /><tag k="bus" v="yes" /><tag k="name" v="효가광장(북평.삼척방면)" /><tag k="addr:full" v="강원도 동해시 효가동 176-6" /><tag k="source" v="공공데이터포털" /><tag k="source:date" v="2020-11-24" /></node><node id="-200322" action="modify" visible="true" lat="37.49368" lon="129.11079"><tag k="highway" v="bus_stop" /><tag k="public_transport" v="platform" /><tag k="bus" v="yes" /><tag k="name" v="효가사거리(시청.발한방면)" /><tag k="addr:full" v="강원도 동해시 효가동 118-7" /><tag k="source" v="공공데이터포털" /><tag k="source:date" v="2020-11-24" /></node><node id="-200323" action="modify" visible="true" lat="37.56822" lon="129.11764"><tag k="highway" v="bus_stop" /><tag k="public_transport" v="platform" /><tag k="bus" v="yes" /><tag k="name" v="구어달동사무소(발한.시청방면)" /><tag k="addr:full" v="강원도 동해시 어달동 184-9" /><tag k="source" v="공공데이터포털" /><tag k="source:date" v="2020-11-24" /></node><node id="-200324" action="modify" visible="true" lat="37.56837" lon="129.11768"><tag k="highway" v="bus_stop" /><tag k="public_transport" v="platform" /><tag k="bus" v="yes" /><tag k="name" v="구어달동사무소(대진방면)" /><tag k="addr:full" v="강원도 동해시 어달동 192-1" /><tag k="source" v="공공데이터포털" /><tag k="source:date" v="2020-11-24" /></node><node id="-200325" action="modify" visible="true" lat="37.50328" lon="129.1079"><tag k="highway" v="bus_stop" /><tag k="public_transport" v="platform" /><tag k="bus" v="yes" /><tag k="name" v="양지마을(북평.삼척방면)" /><tag k="addr:full" v="강원도 동해시 효가동 360-3" /><tag k="source" v="공공데이터포털" /><tag k="source:date" v="2020-11-24" /></node><node id="-200326" action="modify" visible="true" lat="37.50389" lon="129.10681"><tag k="highway" v="bus_stop" /><tag k="public_transport" v="platform" /><tag k="bus" v="yes" /><tag k="name" v="양지마을(시청.발한방면)" /><tag k="addr:full" v="강원도 동해시 효가동 362-122" /><tag k="source" v="공공데이터포털" /><tag k="source:date" v="2020-11-24" /></node><node id="-200327" action="modify" visible="true" lat="37.51922" lon="129.12067"><tag k="highway" v="bus_stop" /><tag k="public_transport" v="platform" /><tag k="bus" v="yes" /><tag k="name" v="쌍용아파트(북평.대동방면)" /><tag k="addr:full" v="강원도 동해시 천곡동 958-8" /><tag k="source" v="공공데이터포털" /><tag k="source:date" v="2020-11-24" /></node><node id="-200328" action="modify" visible="true" lat="37.51942" lon="129.1204"><tag k="highway" v="bus_stop" /><tag k="public_transport" v="platform" /><tag k="bus" v="yes" /><tag k="name" v="쌍용아파트(시청.발한방면)" /><tag k="addr:full" v="강원도 동해시 천곡동 958-7" /><tag k="source" v="공공데이터포털" /><tag k="source:date" v="2020-11-24" /></node><node id="-200329" action="modify" visible="true" lat="37.53301" lon="129.11268"><tag k="highway" v="bus_stop" /><tag k="public_transport" v="platform" /><tag k="bus" v="yes" /><tag k="name" v="엘리시아앞(시청.북평방면)" /><tag k="addr:full" v="강원도 동해시 평릉동 113-3" /><tag k="source" v="공공데이터포털" /><tag k="source:date" v="2020-11-24" /></node><node id="-200330" action="modify" visible="true" lat="37.53309" lon="129.11279"><tag k="highway" v="bus_stop" /><tag k="public_transport" v="platform" /><tag k="bus" v="yes" /><tag k="name" v="부영아파트(발한.망상방면)" /><tag k="addr:full" v="강원도 동해시 평릉동 113-3" /><tag k="source" v="공공데이터포털" /><tag k="source:date" v="2020-11-24" /></node><node id="-200331" action="modify" visible="true" lat="37.49479" lon="129.05633"><tag k="highway" v="bus_stop" /><tag k="public_transport" v="platform" /><tag k="bus" v="yes" /><tag k="name" v="쌍용아파트(비천.신흥방면)" /><tag k="addr:full" v="강원도 동해시 이로동 683-2" /><tag k="source" v="공공데이터포털" /><tag k="source:date" v="2020-11-24" /></node><node id="-200332" action="modify" visible="true" lat="37.49467" lon="129.05637"><tag k="highway" v="bus_stop" /><tag k="public_transport" v="platform" /><tag k="bus" v="yes" /><tag k="name" v="쌍용아파트(대동.북평방면)" /><tag k="addr:full" v="강원도 동해시 이로동 424" /><tag k="source" v="공공데이터포털" /><tag k="source:date" v="2020-11-24" /></node><node id="-200333" action="modify" visible="true" lat="37.47305" lon="129.10964"><tag k="highway" v="bus_stop" /><tag k="public_transport" v="platform" /><tag k="bus" v="yes" /><tag k="name" v="지상사입구(지가동방면)" /><tag k="addr:full" v="강원도 동해시 지가동 20-4" /><tag k="source" v="공공데이터포털" /><tag k="source:date" v="2020-11-24" /></node><node id="-200334" action="modify" visible="true" lat="37.47312" lon="129.10958"><tag k="highway" v="bus_stop" /><tag k="public_transport" v="platform" /><tag k="bus" v="yes" /><tag k="name" v="지상사입구(북평.시청방면)" /><tag k="addr:full" v="강원도 동해시 지가동 58-3" /><tag k="source" v="공공데이터포털" /><tag k="source:date" v="2020-11-24" /></node><node id="-200335" action="modify" visible="true" lat="37.4719" lon="129.10924"><tag k="highway" v="bus_stop" /><tag k="public_transport" v="platform" /><tag k="bus" v="yes" /><tag k="name" v="지가동(지가동방면)" /><tag k="addr:full" v="강원도 동해시 지가동 148-1" /><tag k="source" v="공공데이터포털" /><tag k="source:date" v="2020-11-24" /></node><node id="-200336" action="modify" visible="true" lat="37.47187" lon="129.10928"><tag k="highway" v="bus_stop" /><tag k="public_transport" v="platform" /><tag k="bus" v="yes" /><tag k="name" v="지가동(북평.시청방면)" /><tag k="addr:full" v="강원도 동해시 지가동 148-1" /><tag k="source" v="공공데이터포털" /><tag k="source:date" v="2020-11-24" /></node><node id="-200337" action="modify" visible="true" lat="37.52922" lon="129.10407"><tag k="highway" v="bus_stop" /><tag k="public_transport" v="platform" /><tag k="bus" v="yes" /><tag k="name" v="동해감리교회(시청.북평방면)" /><tag k="addr:full" v="강원도 동해시 평릉동 171-16" /><tag k="source" v="공공데이터포털" /><tag k="source:date" v="2020-11-24" /></node><node id="-200338" action="modify" visible="true" lat="37.529" lon="129.10419"><tag k="highway" v="bus_stop" /><tag k="public_transport" v="platform" /><tag k="bus" v="yes" /><tag k="name" v="동해감리교회(발한.옥계방면)" /><tag k="addr:full" v="강원도 동해시 평릉동 401-34" /><tag k="source" v="공공데이터포털" /><tag k="source:date" v="2020-11-24" /></node><node id="-200339" action="modify" visible="true" lat="37.4984" lon="129.09791"><tag k="highway" v="bus_stop" /><tag k="public_transport" v="platform" /><tag k="bus" v="yes" /><tag k="name" v="지양길118(대동.시청방면)" /><tag k="addr:full" v="강원도 동해시 지흥동 147-2" /><tag k="source" v="공공데이터포털" /><tag k="source:date" v="2020-11-24" /></node><node id="-200340" action="modify" visible="true" lat="37.4908" lon="129.11109"><tag k="highway" v="bus_stop" /><tag k="public_transport" v="platform" /><tag k="bus" v="yes" /><tag k="name" v="동일제일교회앞(무릉.신흥방면)" /><tag k="addr:full" v="강원도 동해시 효가동 84-4" /><tag k="source" v="공공데이터포털" /><tag k="source:date" v="2020-11-24" /></node><node id="-200341" action="modify" visible="true" lat="37.49084" lon="129.11086"><tag k="highway" v="bus_stop" /><tag k="public_transport" v="platform" /><tag k="bus" v="yes" /><tag k="name" v="동해현대주유소앞(북평.시청방면)" /><tag k="addr:full" v="강원도 동해시 효가동 83-6" /><tag k="source" v="공공데이터포털" /><tag k="source:date" v="2020-11-24" /></node><node id="-200342" action="modify" visible="true" lat="37.53114" lon="129.10642"><tag k="highway" v="bus_stop" /><tag k="public_transport" v="platform" /><tag k="bus" v="yes" /><tag k="name" v="동해병원.동인병원(시청.북평방면)" /><tag k="addr:full" v="강원도 동해시 평릉동 401-7" /><tag k="source" v="공공데이터포털" /><tag k="source:date" v="2020-11-24" /></node><node id="-200343" action="modify" visible="true" lat="37.53103" lon="129.10668"><tag k="highway" v="bus_stop" /><tag k="public_transport" v="platform" /><tag k="bus" v="yes" /><tag k="name" v="동해병원.동인병원(발한.망상방면)" /><tag k="addr:full" v="강원도 동해시 평릉동 401-7" /><tag k="source" v="공공데이터포털" /><tag k="source:date" v="2020-11-24" /></node><node id="-200344" action="modify" visible="true" lat="37.55387" lon="129.10773"><tag k="highway" v="bus_stop" /><tag k="public_transport" v="platform" /><tag k="bus" v="yes" /><tag k="name" v="동문산(묵호등대방면)" /><tag k="addr:full" v="강원도 동해시 발한동 329-38" /><tag k="source" v="공공데이터포털" /><tag k="source:date" v="2020-11-24" /></node><node id="-200345" action="modify" visible="true" lat="37.55393" lon="129.10783"><tag k="highway" v="bus_stop" /><tag k="public_transport" v="platform" /><tag k="bus" v="yes" /><tag k="name" v="동문산(발한.시청방면)" /><tag k="addr:full" v="강원도 동해시 발한동 329-38" /><tag k="source" v="공공데이터포털" /><tag k="source:date" v="2020-11-24" /></node><node id="-200346" action="modify" visible="true" lat="37.52721" lon="129.10279"><tag k="highway" v="bus_stop" /><tag k="public_transport" v="platform" /><tag k="bus" v="yes" /><tag k="name" v="종합버스터미널(뉴동해관광호텔옆)" /><tag k="addr:full" v="강원도 동해시 천곡동 755-3" /><tag k="source" v="공공데이터포털" /><tag k="source:date" v="2020-11-24" /></node><node id="-200347" action="modify" visible="true" lat="37.52739" lon="129.10297"><tag k="highway" v="bus_stop" /><tag k="public_transport" v="platform" /><tag k="bus" v="yes" /><tag k="name" v="종합버스터미널(금호어울림아파트옆)" /><tag k="addr:full" v="강원도 동해시 평릉동 505" /><tag k="source" v="공공데이터포털" /><tag k="source:date" v="2020-11-24" /></node><node id="-200348" action="modify" visible="true" lat="37.58812" lon="129.09533"><tag k="highway" v="bus_stop" /><tag k="public_transport" v="platform" /><tag k="bus" v="yes" /><tag k="name" v="망상삼거리(발한.시청방면)" /><tag k="addr:full" v="강원도 동해시 망상동 193-4" /><tag k="source" v="공공데이터포털" /><tag k="source:date" v="2020-11-24" /></node><node id="-200349" action="modify" visible="true" lat="37.58829" lon="129.09544"><tag k="highway" v="bus_stop" /><tag k="public_transport" v="platform" /><tag k="bus" v="yes" /><tag k="name" v="망상삼거리(옥계방면)" /><tag k="addr:full" v="강원도 동해시 망상동 194-6" /><tag k="source" v="공공데이터포털" /><tag k="source:date" v="2020-11-24" /></node><node id="-200350" action="modify" visible="true" lat="37.47153" lon="129.04114"><tag k="highway" v="bus_stop" /><tag k="public_transport" v="platform" /><tag k="bus" v="yes" /><tag k="name" v="진주강씨세효열비(무릉방면)" /><tag k="addr:full" v="강원도 동해시 삼화동 586-1" /><tag k="source" v="공공데이터포털" /><tag k="source:date" v="2020-11-24" /></node><node id="-200351" action="modify" visible="true" lat="37.47152" lon="129.04127"><tag k="highway" v="bus_stop" /><tag k="public_transport" v="platform" /><tag k="bus" v="yes" /><tag k="name" v="진주강씨세효열비(대동.북평방면)" /><tag k="addr:full" v="강원도 동해시 삼화동 586-1" /><tag k="source" v="공공데이터포털" /><tag k="source:date" v="2020-11-24" /></node><node id="-200352" action="modify" visible="true" lat="37.46605" lon="129.03047"><tag k="highway" v="bus_stop" /><tag k="public_transport" v="platform" /><tag k="bus" v="yes" /><tag k="name" v="동해무릉건강숲(무릉방면)" /><tag k="addr:full" v="강원도 동해시 삼화동 714" /><tag k="source" v="공공데이터포털" /><tag k="source:date" v="2020-11-24" /></node><node id="-200353" action="modify" visible="true" lat="37.46584" lon="129.03052"><tag k="highway" v="bus_stop" /><tag k="public_transport" v="platform" /><tag k="bus" v="yes" /><tag k="name" v="동해무릉건강숲(대동.북평방면)" /><tag k="addr:full" v="강원도 동해시 삼화동 산180-10" /><tag k="source" v="공공데이터포털" /><tag k="source:date" v="2020-11-24" /></node><node id="-200354" action="modify" visible="true" lat="37.57092" lon="129.07002"><tag k="highway" v="bus_stop" /><tag k="public_transport" v="platform" /><tag k="bus" v="yes" /><tag k="name" v="괴란(만우방면)" /><tag k="addr:full" v="강원도 동해시 괴란동 23-1" /><tag k="source" v="공공데이터포털" /><tag k="source:date" v="2020-11-24" /></node><node id="-200355" action="modify" visible="true" lat="37.5388" lon="129.09562"><tag k="highway" v="bus_stop" /><tag k="public_transport" v="platform" /><tag k="bus" v="yes" /><tag k="name" v="묵호고등학교(승지방면)" /><tag k="addr:full" v="강원도 동해시 부곡동 224-11" /><tag k="source" v="공공데이터포털" /><tag k="source:date" v="2020-11-24" /></node><node id="-200356" action="modify" visible="true" lat="37.53864" lon="129.09579"><tag k="highway" v="bus_stop" /><tag k="public_transport" v="platform" /><tag k="bus" v="yes" /><tag k="name" v="묵호고등학교(발한방면)" /><tag k="addr:full" v="강원도 동해시 부곡동 224-10" /><tag k="source" v="공공데이터포털" /><tag k="source:date" v="2020-11-24" /></node><node id="-200357" action="modify" visible="true" lat="37.53934" lon="129.09037"><tag k="highway" v="bus_stop" /><tag k="public_transport" v="platform" /><tag k="bus" v="yes" /><tag k="name" v="동해향교(승지방면)" /><tag k="addr:full" v="강원도 동해시 부곡동 산166-3" /><tag k="source" v="공공데이터포털" /><tag k="source:date" v="2020-11-24" /></node><node id="-200358" action="modify" visible="true" lat="37.53925" lon="129.09037"><tag k="highway" v="bus_stop" /><tag k="public_transport" v="platform" /><tag k="bus" v="yes" /><tag k="name" v="동해향교(발한방면)" /><tag k="addr:full" v="강원도 동해시 부곡동 산166-3" /><tag k="source" v="공공데이터포털" /><tag k="source:date" v="2020-11-24" /></node><node id="-200359" action="modify" visible="true" lat="37.53865" lon="129.07697"><tag k="highway" v="bus_stop" /><tag k="public_transport" v="platform" /><tag k="bus" v="yes" /><tag k="name" v="청풍가든(승지방면)" /><tag k="addr:full" v="강원도 동해시 부곡동 산144-1" /><tag k="source" v="공공데이터포털" /><tag k="source:date" v="2020-11-24" /></node><node id="-200360" action="modify" visible="true" lat="37.53861" lon="129.0774"><tag k="highway" v="bus_stop" /><tag k="public_transport" v="platform" /><tag k="bus" v="yes" /><tag k="name" v="청풍가든(발한방면)" /><tag k="addr:full" v="강원도 동해시 부곡동 333-1" /><tag k="source" v="공공데이터포털" /><tag k="source:date" v="2020-11-24" /></node><node id="-200361" action="modify" visible="true" lat="37.47466" lon="129.14744"><tag k="highway" v="bus_stop" /><tag k="public_transport" v="platform" /><tag k="bus" v="yes" /><tag k="name" v="GS화력(추암방면)" /><tag k="addr:full" v="강원도 동해시 구호동 250" /><tag k="source" v="공공데이터포털" /><tag k="source:date" v="2020-11-24" /></node><node id="-200362" action="modify" visible="true" lat="37.47486" lon="129.147"><tag k="highway" v="bus_stop" /><tag k="public_transport" v="platform" /><tag k="bus" v="yes" /><tag k="name" v="GS화력(북평.시청방면)" /><tag k="addr:full" v="강원도 동해시 구호동 250" /><tag k="source" v="공공데이터포털" /><tag k="source:date" v="2020-11-24" /></node><node id="-200363" action="modify" visible="true" lat="37.49349" lon="129.10661"><tag k="highway" v="bus_stop" /><tag k="public_transport" v="platform" /><tag k="bus" v="yes" /><tag k="name" v="지양길19(대동.시청방면)" /><tag k="addr:full" v="강원도 동해시 동회동 213-8" /><tag k="source" v="공공데이터포털" /><tag k="source:date" v="2020-11-24" /></node><node id="-200364" action="modify" visible="true" lat="37.49387" lon="129.10629"><tag k="highway" v="bus_stop" /><tag k="public_transport" v="platform" /><tag k="bus" v="yes" /><tag k="name" v="지양길26(한중대방면)" /><tag k="addr:full" v="강원도 동해시 효가동 465-16" /><tag k="source" v="공공데이터포털" /><tag k="source:date" v="2020-11-24" /></node><node id="-200365" action="modify" visible="true" lat="37.49999" lon="129.09543"><tag k="highway" v="bus_stop" /><tag k="public_transport" v="platform" /><tag k="bus" v="yes" /><tag k="name" v="해태음료(한중대방면)" /><tag k="addr:full" v="강원도 동해시 지흥동 400" /><tag k="source" v="공공데이터포털" /><tag k="source:date" v="2020-11-24" /></node><node id="-200366" action="modify" visible="true" lat="37.46733" lon="129.13804"><tag k="highway" v="bus_stop" /><tag k="public_transport" v="platform" /><tag k="bus" v="yes" /><tag k="name" v="대구마을회관" /><tag k="addr:full" v="강원도 동해시 대구동 97-3" /><tag k="source" v="공공데이터포털" /><tag k="source:date" v="2020-11-24" /></node><node id="-200367" action="modify" visible="true" lat="37.46729" lon="129.13805"><tag k="highway" v="bus_stop" /><tag k="public_transport" v="platform" /><tag k="bus" v="yes" /><tag k="name" v="대구마을회관" /><tag k="addr:full" v="강원도 동해시 대구동 128-1" /><tag k="source" v="공공데이터포털" /><tag k="source:date" v="2020-11-24" /></node><node id="-200368" action="modify" visible="true" lat="37.46836" lon="129.1389"><tag k="highway" v="bus_stop" /><tag k="public_transport" v="platform" /><tag k="bus" v="yes" /><tag k="name" v="대구동마을창고" /><tag k="addr:full" v="강원도 동해시 대구동 74-3" /><tag k="source" v="공공데이터포털" /><tag k="source:date" v="2020-11-24" /></node><node id="-200369" action="modify" visible="true" lat="37.46833" lon="129.13894"><tag k="highway" v="bus_stop" /><tag k="public_transport" v="platform" /><tag k="bus" v="yes" /><tag k="name" v="대구동마을창고" /><tag k="addr:full" v="강원도 동해시 대구동 74-3" /><tag k="source" v="공공데이터포털" /><tag k="source:date" v="2020-11-24" /></node><node id="-200370" action="modify" visible="true" lat="37.53811" lon="129.09911"><tag k="highway" v="bus_stop" /><tag k="public_transport" v="platform" /><tag k="bus" v="yes" /><tag k="name" v="부곡자율방범대앞(승지방면)" /><tag k="addr:full" v="강원도 동해시 부곡동 67-26" /><tag k="source" v="공공데이터포털" /><tag k="source:date" v="2020-11-24" /></node><node id="-200371" action="modify" visible="true" lat="37.54009" lon="129.08554"><tag k="highway" v="bus_stop" /><tag k="public_transport" v="platform" /><tag k="bus" v="yes" /><tag k="name" v="미타사앞(발한방면)" /><tag k="addr:full" v="강원도 동해시 부곡동 285-4" /><tag k="source" v="공공데이터포털" /><tag k="source:date" v="2020-11-24" /></node><node id="-200372" action="modify" visible="true" lat="37.54017" lon="129.08553"><tag k="highway" v="bus_stop" /><tag k="public_transport" v="platform" /><tag k="bus" v="yes" /><tag k="name" v="미타사앞(승지방면)" /><tag k="addr:full" v="강원도 동해시 부곡동 285-4" /><tag k="source" v="공공데이터포털" /><tag k="source:date" v="2020-11-24" /></node></osm>