<?xml version='1.0' encoding='utf-8'?>
<osm version="0.6" generator="JOSM"><node id="-200001" action="modify" visible="true" lat="35.47795556" lon="128.7642722"><tag k="name" v="KT&amp;G" /><tag k="name:ko" v="KT&amp;G" /><tag k="note" v="1-2가곡,1-2금동,1-2번,1-2부산대,1가곡,1금동,1번,1부산대,1서가정,1용성,1초동,1칠성,2가곡,2금동,2번,2부산대,2용성,2초동,2칠성,3-1번,3-1부산대,3금곡,3번,3상동,4-2번,5번,6-1번,6번,6부산대,6상동,6상동1,6상동2,6엄광,6활성,6활성1,7-1번,7롯데,7번,7삼랑,7지동,가곡,수산2,화봉1" /><tag k="highway" v="bus_stop" /><tag k="public_transport" v="platform" /></node><node id="-200002" action="modify" visible="true" lat="35.47534167" lon="128.7672278"><tag k="name" v="가곡삼거리" /><tag k="name:ko" v="가곡삼거리" /><tag k="note" v="1-2가곡,1-2금동,1-2번,1-2부산대,1가곡,1금동,1번,1부산대,1서가정,1용성,1초동,1칠성,2가곡,2금동,2번,2부산대,2용성,2청운,2초동,2칠성,3-1번,3-1부산대,3금곡,3번,3상동,4-2번,5번,6-1번,6번,6부산대,6상동,6상동1,6상동2,6엄광,6활성,6활성1,7-1번,7롯데,7번,7삼랑,7지동,가곡,수산2,화봉1" /><tag k="highway" v="bus_stop" /><tag k="public_transport" v="platform" /></node><node id="-200003" action="modify" visible="true" lat="35.47501667" lon="128.7671806"><tag k="name" v="가곡삼거리" /><tag k="name:ko" v="가곡삼거리" /><tag k="note" v="1-2금동,1금동,4-1롯데,4-1번,4-1번.,4-1용성,4-1청운,4구기,4대항1,4대항2,4대항3,4대항4,4대항5,4대항6,4대항7,4대항8,4대항9,4번,4초동,4퇴로1,4퇴로2,4퇴로3,4퇴로4,4퇴로5,4퇴로6,4퇴로7,4퇴로8,5금동,5밀성고,5번,5시청,9롯데,9번,남산1,대흥동2,삼랑진,해동1" /><tag k="highway" v="bus_stop" /><tag k="public_transport" v="platform" /></node><node id="-200004" action="modify" visible="true" lat="35.47493889" lon="128.7677"><tag k="name" v="가곡삼거리" /><tag k="name:ko" v="가곡삼거리" /><tag k="note" v="1-2가곡,1-2금동,1-2번,1-2부산대,1가곡,1금동,1번,1부산대,1서가정,1용성,1칠성,1칠성.,2가곡,2금동,2번,2부산대,2용성,2초동,2초동.,2칠성,3-1번,3-1부산대,3금곡,3번,3상동,4-1롯데,4-1번,4-1번.,4-1용성,4-1청운,4-2번,4구기,4대항1,4대항2,4대항3,4대항4,4대항5,4대항6,4대항7,4대항8,4대항9,4부산대,4퇴로1,4퇴로2,4퇴로3,4퇴로4,4퇴로5,4퇴로6,4퇴로7,4퇴로8,5금동,5밀성고,5밀성고,5번,5번,5시청,5시청,6-1번,6번,6부산대,6상동,6상동2,6엄광,6활성,7-1번,7롯데,7번,7삼랑,7지동,9롯데,9번,가곡,금동1,금동1-2,금동2,금동4,금동7-1,남산1,대흥동2,삼랑진,용성1,해동1,화봉1" /><tag k="highway" v="bus_stop" /><tag k="public_transport" v="platform" /></node><node id="-200005" action="modify" visible="true" lat="35.47638611" lon="128.7655472"><tag k="name" v="가곡시장" /><tag k="name:ko" v="가곡시장" /><tag k="note" v="1-2가곡,1-2금동,1-2번,1-2부산대,1가곡,1금동,1번,1부산대,1서가정,1용성,1칠성,1칠성.,2가곡,2번,2부산대,2용성,2초동,2초동.,2칠성,3-1번,3-1부산대,3금곡,3번,3상동,4-1롯데,4-1번,4-1번.,4-1용성,4-1청운,4-2번,4구기,4대항1,4대항2,4대항3,4대항4,4대항5,4대항6,4대항7,4대항8,4대항9,4부산대,4퇴로1,4퇴로2,4퇴로3,4퇴로4,4퇴로5,4퇴로6,4퇴로7,4퇴로8,5금동,5밀성고,5번,5시청,6-1번,6번,6부산대,6상동,6상동2,6엄광,6활성,가곡,용성1,화봉1" /><tag k="highway" v="bus_stop" /><tag k="public_transport" v="platform" /></node><node id="-200006" action="modify" visible="true" lat="35.47690833" lon="128.7652389"><tag k="name" v="가곡시장" /><tag k="name:ko" v="가곡시장" /><tag k="note" v="1-2가곡,1-2금동,1-2번,1-2부산대,1가곡,1금동,1번,1부산대,1서가정,1용성,1초동,1칠성,2가곡,2금동,2번,2부산대,2용성,2청운,2초동,2칠성,3-1번,3-1부산대,3금곡,3번,3상동,4-2번,5번,6-1번,6번,6부산대,6상동,6상동1,6상동2,6엄광,6활성,6활성1,7-1번,7롯데,7번,7삼랑,7지동,가곡,수산2,화봉1" /><tag k="highway" v="bus_stop" /><tag k="public_transport" v="platform" /></node><node id="-200007" action="modify" visible="true" lat="35.56741944" lon="128.603175"><tag k="name" v="가곡종점" /><tag k="name:ko" v="가곡종점" /><tag k="note" v="두곡" /><tag k="highway" v="bus_stop" /><tag k="public_transport" v="platform" /></node><node id="-200008" action="modify" visible="true" lat="35.47291111" lon="128.7723139"><tag k="name" v="가곡주공아파트" /><tag k="name:ko" v="가곡주공아파트" /><tag k="note" v="1-2가곡,1-2금동,1-2번,1-2부산대,1가곡,1금동,1번,1부산대,1서가정,1용성,1칠성,1칠성.,2가곡,2금동,2번,2부산대,2용성,2초동,2초동.,2칠성,3-1번,3-1부산대,3금곡,3번,3상동,4-1롯데,4-1번,4-1번.,4-1용성,4-1청운,4-2번,4대항1,4대항2,4대항3,4대항4,4대항5,4대항6,4대항7,4대항8,4부산대,4퇴로1,4퇴로2,4퇴로3,4퇴로4,4퇴로5,4퇴로6,4퇴로8,5금동,5밀성고,5번,5번,5시청,6-1번,6번,6부산대,6상동2,6엄광,6활성,7-1번,7롯데,7번,7삼랑,7지동,9번,가곡,남산1,삼랑진,용성,용성1,칠성,해동1,화봉1" /><tag k="highway" v="bus_stop" /><tag k="public_transport" v="platform" /></node><node id="-200009" action="modify" visible="true" lat="35.48843056" lon="128.6002833"><tag k="name" v="가례" /><tag k="name:ko" v="가례" /><tag k="note" v="1서가정,서가정1,서가정2,서가정3,서가정4,서가정5,서가정6" /><tag k="highway" v="bus_stop" /><tag k="public_transport" v="platform" /></node><node id="-200010" action="modify" visible="true" lat="35.48834722" lon="128.6002194"><tag k="name" v="가례" /><tag k="name:ko" v="가례" /><tag k="note" v="1서가정,서가정1,서가정2,서가정3,서가정4,서가정5,서가정6" /><tag k="highway" v="bus_stop" /><tag k="public_transport" v="platform" /></node><node id="-200011" action="modify" visible="true" lat="35.49167222" lon="128.6931028"><tag k="name" v="가복" /><tag k="name:ko" v="가복" /><tag k="note" v="1서가정,2초동,구기3,대촌1,대촌2,두곡,서가정1,서가정2,서가정3,서가정4,서가정5,서가정6,소태,영신2,영신3,조천,조천1,초동2,초동3,초동공단,초동공단.,화봉1" /><tag k="highway" v="bus_stop" /><tag k="public_transport" v="platform" /></node><node id="-200012" action="modify" visible="true" lat="35.49168333" lon="128.6930472"><tag k="name" v="가복" /><tag k="name:ko" v="가복" /><tag k="note" v="1서가정,1초동,2초동,구기3,대촌1,대촌2,두곡,서가정1,서가정2,서가정3,서가정4,서가정5,서가정6,소태,영신2,영신3,조천,조천2,초동공단,초동면소,초동면소.,화봉1" /><tag k="highway" v="bus_stop" /><tag k="public_transport" v="platform" /></node><node id="-200013" action="modify" visible="true" lat="35.532225" lon="128.7012083"><tag k="name" v="가산" /><tag k="name:ko" v="가산" /><tag k="note" v="4구기,4대항1,4대항7,4대항8,4퇴로2,4퇴로8,구기1,조천2" /><tag k="highway" v="bus_stop" /><tag k="public_transport" v="platform" /></node><node id="-200014" action="modify" visible="true" lat="35.53235833" lon="128.7011917"><tag k="name" v="가산" /><tag k="name:ko" v="가산" /><tag k="note" v="4구기,4대항1,4대항2,4대항5,4대항6,4대항8,4대항9,구기1,조천1" /><tag k="highway" v="bus_stop" /><tag k="public_transport" v="platform" /></node><node id="-200015" action="modify" visible="true" lat="35.53071388" lon="128.7816944"><tag k="name" v="가실" /><tag k="name:ko" v="가실" /><tag k="note" v="3상동,6상동,6상동1,6상동2,도곡1,도곡2,도곡4,상동,신곡1,신곡3,신곡4,신곡5,신곡6,신곡7,옥산,옥산1,옥산2" /><tag k="highway" v="bus_stop" /><tag k="public_transport" v="platform" /></node><node id="-200016" action="modify" visible="true" lat="35.53083333" lon="128.7818444"><tag k="name" v="가실" /><tag k="name:ko" v="가실" /><tag k="note" v="3상동,6상동,6상동1,6상동2,도곡1,도곡2,도곡4,상동,신곡1,신곡3,신곡4,신곡5,신곡6,신곡7,옥산,옥산1,옥산2" /><tag k="highway" v="bus_stop" /><tag k="public_transport" v="platform" /></node><node id="-200017" action="modify" visible="true" lat="35.59869167" lon="128.9011722"><tag k="name" v="가인" /><tag k="name:ko" v="가인" /><tag k="note" v="얼음골,얼음골1,얼음골2,얼음골3" /><tag k="highway" v="bus_stop" /><tag k="public_transport" v="platform" /></node><node id="-200018" action="modify" visible="true" lat="35.59879444" lon="128.9011444"><tag k="name" v="가인" /><tag k="name:ko" v="가인" /><tag k="note" v="얼음골,얼음골1,얼음골2,얼음골3" /><tag k="highway" v="bus_stop" /><tag k="public_transport" v="platform" /></node><node id="-200019" action="modify" visible="true" lat="35.56837778" lon="128.7675528"><tag k="name" v="감마종점" /><tag k="name:ko" v="감마종점" /><tag k="note" v="옥산,옥산1,옥산2" /><tag k="highway" v="bus_stop" /><tag k="public_transport" v="platform" /></node><node id="-200020" action="modify" visible="true" lat="35.50981944" lon="128.845575"><tag k="name" v="감물리입구" /><tag k="name:ko" v="감물리입구" /><tag k="note" v="감물리,감물리1,감물리2,감물리3,감물리4,감물리5" /><tag k="highway" v="bus_stop" /><tag k="public_transport" v="platform" /></node><node id="-200021" action="modify" visible="true" lat="35.50975" lon="128.8456694"><tag k="name" v="감물리입구" /><tag k="name:ko" v="감물리입구" /><tag k="note" v="감물리,감물리1,감물리2,감물리3,감물리4,감물리5" /><tag k="highway" v="bus_stop" /><tag k="public_transport" v="platform" /></node><node id="-200022" action="modify" visible="true" lat="35.48148056" lon="128.7585806"><tag k="name" v="강변뚝길" /><tag k="name:ko" v="강변뚝길" /><tag k="note" v="9롯데" /><tag k="highway" v="bus_stop" /><tag k="public_transport" v="platform" /></node><node id="-200023" action="modify" visible="true" lat="35.39488889" lon="128.8134611"><tag k="name" v="거족" /><tag k="name:ko" v="거족" /><tag k="note" v="삼랑진" /><tag k="highway" v="bus_stop" /><tag k="public_transport" v="platform" /></node><node id="-200024" action="modify" visible="true" lat="35.39472777" lon="128.813525"><tag k="name" v="거족" /><tag k="name:ko" v="거족" /><tag k="note" v="삼랑진" /><tag k="highway" v="bus_stop" /><tag k="public_transport" v="platform" /></node><node id="-200025" action="modify" visible="true" lat="35.47310555" lon="128.7658889"><tag k="name" v="경남아파트" /><tag k="name:ko" v="경남아파트" /><tag k="note" v="2금동,5밀성고,5번,5시청,7-1번,7번,7지동,9번,금동1,금동1-2,금동2,금동4,금동7-1,남산1,대흥동2,삼랑진,해동1" /><tag k="highway" v="bus_stop" /><tag k="public_transport" v="platform" /></node><node id="-200026" action="modify" visible="true" lat="35.45908333" lon="128.7515722"><tag k="name" v="고노실" /><tag k="name:ko" v="고노실" /><tag k="note" v="1-2금동,1금동,5금동,5밀성고,5번,5시청,남산1,남산2,삼랑진,수산1,수산2,초동3,초동공단.,해동1" /><tag k="highway" v="bus_stop" /><tag k="public_transport" v="platform" /></node><node id="-200027" action="modify" visible="true" lat="35.45893889" lon="128.7516722"><tag k="name" v="고노실" /><tag k="name:ko" v="고노실" /><tag k="note" v="1초동,2금동,5밀성고,5번,5시청,금동1,금동1-2,금동2,금동4,금동7-1,남산1,남산2,삼랑진,수산1,수산2,초동면소,초동면소.,해동1" /><tag k="highway" v="bus_stop" /><tag k="public_transport" v="platform" /></node><node id="-200028" action="modify" visible="true" lat="35.56324722" lon="128.79785"><tag k="name" v="고답" /><tag k="name:ko" v="고답" /><tag k="note" v="도곡1,도곡2,신곡1,신곡3,신곡4,신곡5,신곡6" /><tag k="highway" v="bus_stop" /><tag k="public_transport" v="platform" /></node><node id="-200029" action="modify" visible="true" lat="35.56328333" lon="128.7979333"><tag k="name" v="고답" /><tag k="name:ko" v="고답" /><tag k="note" v="신곡3,신곡4,신곡5,신곡6" /><tag k="highway" v="bus_stop" /><tag k="public_transport" v="platform" /></node><node id="-200030" action="modify" visible="true" lat="35.49517778" lon="128.6045417"><tag k="name" v="고라" /><tag k="name:ko" v="고라" /><tag k="note" v="1서가정,서가정4,서가정5,서가정6" /><tag k="highway" v="bus_stop" /><tag k="public_transport" v="platform" /></node><node id="-200031" action="modify" visible="true" lat="35.49506944" lon="128.6043722"><tag k="name" v="고라" /><tag k="name:ko" v="고라" /><tag k="note" v="1서가정,서가정1,서가정1,서가정2,서가정2,서가정3,서가정3,서가정4,서가정5,서가정6,서가정7" /><tag k="highway" v="bus_stop" /><tag k="public_transport" v="platform" /></node><node id="-200032" action="modify" visible="true" lat="35.48728889" lon="128.9314722"><tag k="name" v="고례종점" /><tag k="name:ko" v="고례종점" /><tag k="note" v="고례1,고례2,고례3" /><tag k="highway" v="bus_stop" /><tag k="public_transport" v="platform" /></node><node id="-200033" action="modify" visible="true" lat="35.49220278" lon="128.9288306"><tag k="name" v="고례초등학교" /><tag k="name:ko" v="고례초등학교" /><tag k="note" v="고례1,고례2,고례3" /><tag k="highway" v="bus_stop" /><tag k="public_transport" v="platform" /></node><node id="-200034" action="modify" visible="true" lat="35.49216944" lon="128.9289222"><tag k="name" v="고례초등학교" /><tag k="name:ko" v="고례초등학교" /><tag k="note" v="고례1,고례2,고례3" /><tag k="highway" v="bus_stop" /><tag k="public_transport" v="platform" /></node><node id="-200035" action="modify" visible="true" lat="35.55236944" lon="128.6566194"><tag k="name" v="고법회관" /><tag k="name:ko" v="고법회관" /><tag k="note" v="대촌1,대촌2" /><tag k="highway" v="bus_stop" /><tag k="public_transport" v="platform" /></node><node id="-200036" action="modify" visible="true" lat="35.56413056" lon="128.7858778"><tag k="name" v="고정" /><tag k="name:ko" v="고정" /><tag k="note" v="도곡1,도곡2,도곡4,신곡1,신곡3,신곡4,신곡5,신곡6,신곡7" /><tag k="highway" v="bus_stop" /><tag k="public_transport" v="platform" /></node><node id="-200037" action="modify" visible="true" lat="35.56396388" lon="128.7858556"><tag k="name" v="고정" /><tag k="name:ko" v="고정" /><tag k="note" v="도곡1,도곡2,도곡4,신곡1,신곡3,신곡4,신곡5,신곡6,신곡7" /><tag k="highway" v="bus_stop" /><tag k="public_transport" v="platform" /></node><node id="-200038" action="modify" visible="true" lat="35.47437222" lon="128.5924056"><tag k="name" v="곰골" /><tag k="name:ko" v="곰골" /><tag k="note" v="서가정1" /><tag k="highway" v="bus_stop" /><tag k="public_transport" v="platform" /></node><node id="-200039" action="modify" visible="true" lat="35.47443889" lon="128.592475"><tag k="name" v="곰골" /><tag k="name:ko" v="곰골" /><tag k="note" v="서가정2,서가정3,서가정4,서가정5" /><tag k="highway" v="bus_stop" /><tag k="public_transport" v="platform" /></node><node id="-200040" action="modify" visible="true" lat="35.47353333" lon="128.6083972"><tag k="name" v="관동" /><tag k="name:ko" v="관동" /><tag k="note" v="서가정1" /><tag k="highway" v="bus_stop" /><tag k="public_transport" v="platform" /></node><node id="-200041" action="modify" visible="true" lat="35.47358889" lon="128.6084639"><tag k="name" v="관동" /><tag k="name:ko" v="관동" /><tag k="note" v="서가정2,서가정3,서가정4,서가정5" /><tag k="highway" v="bus_stop" /><tag k="public_transport" v="platform" /></node><node id="-200042" action="modify" visible="true" lat="35.41817222" lon="128.7400861"><tag k="name" v="관동" /><tag k="name:ko" v="관동" /><tag k="note" v="남산1" /><tag k="highway" v="bus_stop" /><tag k="public_transport" v="platform" /></node><node id="-200043" action="modify" visible="true" lat="35.41839167" lon="128.7398389"><tag k="name" v="관동" /><tag k="name:ko" v="관동" /><tag k="note" v="남산1" /><tag k="highway" v="bus_stop" /><tag k="public_transport" v="platform" /></node><node id="-200044" action="modify" visible="true" lat="35.53942778" lon="128.8482056"><tag k="name" v="괴곡" /><tag k="name:ko" v="괴곡" /><tag k="note" v="발례,발례1,발례2,얼음골,얼음골1,얼음골2,얼음골3" /><tag k="highway" v="bus_stop" /><tag k="public_transport" v="platform" /></node><node id="-200045" action="modify" visible="true" lat="35.53910495" lon="128.8482909"><tag k="name" v="괴곡" /><tag k="name:ko" v="괴곡" /><tag k="note" v="발례,발례1,발례2,얼음골,얼음골1,얼음골2,얼음골3" /><tag k="highway" v="bus_stop" /><tag k="public_transport" v="platform" /></node><node id="-200046" action="modify" visible="true" lat="35.50389444" lon="128.7546472"><tag k="name" v="교동사거리" /><tag k="name:ko" v="교동사거리" /><tag k="note" v="2가곡,2번,2부산대,2용성,2청운,2초동,2칠성,3-1번,3-1부산대,3금곡,3번,3상동,5금동,5번,6-1번,6번,6부산대,6상동,6상동1,6상동2,6엄광,6활성,6활성1,감물리,감물리1,감물리2,감물리3,감물리4,고례1,고례2,국전,국전1,국전2,국전4,도곡1,도곡4,발례,발례1,상동,신곡1,신곡3,신곡4,신곡5,신곡7,얼음골,얼음골1,얼음골2,엄광1,엄광2,옥산,옥산1,옥산2,청운.,초동공단.,초동면소,표충사,표충사1,표충사2" /><tag k="highway" v="bus_stop" /><tag k="public_transport" v="platform" /></node><node id="-200047" action="modify" visible="true" lat="35.50401036" lon="128.7525552"><tag k="name" v="교동사거리" /><tag k="name:ko" v="교동사거리" /><tag k="note" v="1-2가곡,1-2금동,1-2번,1-2부산대,1가곡,1금동,1번,1부산대,1서가정,1용성,1초동,1칠성,4-2번,9롯데,9번,가곡,화봉1" /><tag k="highway" v="bus_stop" /><tag k="public_transport" v="platform" /></node><node id="-200048" action="modify" visible="true" lat="35.50404976" lon="128.7523246"><tag k="name" v="교동사거리" /><tag k="name:ko" v="교동사거리" /><tag k="note" v="2가곡,2번,2부산대,2용성,2청운,2초동,2칠성,5금동,5밀성고,5번,청운.,초동공단.,초동면소" /><tag k="highway" v="bus_stop" /><tag k="public_transport" v="platform" /></node><node id="-200049" action="modify" visible="true" lat="35.51119134" lon="128.7566735"><tag k="name" v="교동행정복지센터" /><tag k="name:ko" v="교동행정복지센터" /><tag k="note" v="2가곡,2번,2부산대,2용성,2청운,2초동,2칠성,5금동,5밀성고,5번,청운.,초동공단.,초동면소" /><tag k="highway" v="bus_stop" /><tag k="public_transport" v="platform" /></node><node id="-200050" action="modify" visible="true" lat="35.51098743" lon="128.7567517"><tag k="name" v="교동행정복지센터" /><tag k="name:ko" v="교동행정복지센터" /><tag k="note" v="1-2가곡,1-2금동,1-2번,1-2부산대,1가곡,1금동,1번,1부산대,1서가정,1용성,1초동,1칠성,4-2번,5시청,9롯데,9번,가곡,화봉1" /><tag k="highway" v="bus_stop" /><tag k="public_transport" v="platform" /></node><node id="-200051" action="modify" visible="true" lat="35.51047195" lon="128.7578041"><tag k="name" v="교동행정복지센터" /><tag k="name:ko" v="교동행정복지센터" /><tag k="note" v="3-1번,3-1부산대,3금곡,3번,3상동,6-1번,6번,6부산대,6상동,6상동1,6상동2,6엄광,6활성,6활성1,감물리,감물리1,감물리2,감물리3,감물리4,감물리5,고례1,고례2,고례3,국전,국전1,국전2,국전3,국전4,도곡1,도곡2,도곡4,발례,발례1,발례2,상동,신곡1,신곡3,신곡4,신곡5,신곡6,신곡7,얼음골,얼음골1,얼음골2,얼음골3,엄광1,엄광2,옥산,옥산1,옥산2,표충사,표충사1,표충사2,표충사3" /><tag k="highway" v="bus_stop" /><tag k="public_transport" v="platform" /></node><node id="-200052" action="modify" visible="true" lat="35.51061641" lon="128.7574766"><tag k="name" v="교동행정복지센터" /><tag k="name:ko" v="교동행정복지센터" /><tag k="note" v="3-1번,3-1부산대,3금곡,3번,3상동,6-1번,6번,6부산대,6상동,6상동1,6상동2,6엄광,6활성,6활성1,감물리,감물리1,감물리2,감물리3,감물리4,감물리5,고례1,고례2,고례3,국전,국전1,국전2,국전3,국전4,도곡1,도곡2,도곡4,발례,발례1,발례2,상동,신곡1,신곡3,신곡4,신곡5,신곡6,신곡7,얼음골,얼음골1,얼음골2,얼음골3,엄광1,엄광2,옥산,옥산1,옥산2,표충사,표충사1,표충사2,표충사3" /><tag k="highway" v="bus_stop" /><tag k="public_transport" v="platform" /></node><node id="-200053" action="modify" visible="true" lat="35.54858889" lon="128.6260361"><tag k="name" v="구기" /><tag k="name:ko" v="구기" /><tag k="note" v="4구기,대촌2,두곡,소태,조천,조천1,조천2" /><tag k="highway" v="bus_stop" /><tag k="public_transport" v="platform" /></node><node id="-200054" action="modify" visible="true" lat="35.54847222" lon="128.6259278"><tag k="name" v="구기" /><tag k="name:ko" v="구기" /><tag k="note" v="구기1,구기3,대촌1,대촌1,두곡,소태,조천,조천1,조천2" /><tag k="highway" v="bus_stop" /><tag k="public_transport" v="platform" /></node><node id="-200055" action="modify" visible="true" lat="35.49387222" lon="128.83255"><tag k="name" v="구미" /><tag k="name:ko" v="구미" /><tag k="note" v="감물리,감물리1,감물리2,감물리3,감물리4,감물리5" /><tag k="highway" v="bus_stop" /><tag k="public_transport" v="platform" /></node><node id="-200056" action="modify" visible="true" lat="35.49091389" lon="128.7426639"><tag k="name" v="국립식량과학원" /><tag k="name:ko" v="국립식량과학원" /><tag k="note" v="서가정4,서가정5,초동2" /><tag k="highway" v="bus_stop" /><tag k="public_transport" v="platform" /></node><node id="-200057" action="modify" visible="true" lat="35.49111111" lon="128.7427111"><tag k="name" v="국립식량과학원" /><tag k="name:ko" v="국립식량과학원" /><tag k="note" v="서가정5,영신2" /><tag k="highway" v="bus_stop" /><tag k="public_transport" v="platform" /></node><node id="-200058" action="modify" visible="true" lat="35.45379722" lon="128.7522778"><tag k="name" v="국립종자관리원" /><tag k="name:ko" v="국립종자관리원" /><tag k="note" v="1-2금동,1금동,5금동,5밀성고,5번,5시청,남산1,남산2,삼랑진,수산1,수산2,초동3,초동공단.,해동1" /><tag k="highway" v="bus_stop" /><tag k="public_transport" v="platform" /></node><node id="-200059" action="modify" visible="true" lat="35.45379444" lon="128.7524222"><tag k="name" v="국립종자관리원" /><tag k="name:ko" v="국립종자관리원" /><tag k="note" v="1초동,2금동,5밀성고,5번,5시청,금동1,금동1-2,금동2,금동4,금동7-1,남산1,남산2,삼랑진,수산1,수산2,초동면소,초동면소.,해동1" /><tag k="highway" v="bus_stop" /><tag k="public_transport" v="platform" /></node><node id="-200060" action="modify" visible="true" lat="35.48366944" lon="128.8987972"><tag k="name" v="국서" /><tag k="name:ko" v="국서" /><tag k="note" v="국전,국전1,국전2,국전3,국전4" /><tag k="highway" v="bus_stop" /><tag k="public_transport" v="platform" /></node><node id="-200061" action="modify" visible="true" lat="35.48361111" lon="128.8988944"><tag k="name" v="국서" /><tag k="name:ko" v="국서" /><tag k="note" v="국전,국전1,국전2,국전3,국전4" /><tag k="highway" v="bus_stop" /><tag k="public_transport" v="platform" /></node><node id="-200062" action="modify" visible="true" lat="35.46483056" lon="128.89995"><tag k="name" v="국전저수지" /><tag k="name:ko" v="국전저수지" /><tag k="note" v="국전,국전1,국전2,국전3,국전4" /><tag k="highway" v="bus_stop" /><tag k="public_transport" v="platform" /></node><node id="-200063" action="modify" visible="true" lat="35.54382778" lon="128.6188556"><tag k="name" v="근기" /><tag k="name:ko" v="근기" /><tag k="note" v="조천,조천1,조천2" /><tag k="highway" v="bus_stop" /><tag k="public_transport" v="platform" /></node><node id="-200064" action="modify" visible="true" lat="35.54399444" lon="128.6189389"><tag k="name" v="근기" /><tag k="name:ko" v="근기" /><tag k="note" v="조천,조천1,조천2" /><tag k="highway" v="bus_stop" /><tag k="public_transport" v="platform" /></node><node id="-200065" action="modify" visible="true" lat="35.51105556" lon="128.8392889"><tag k="name" v="금곡" /><tag k="name:ko" v="금곡" /><tag k="note" v="3금곡,감물리,감물리1,감물리2,감물리3,감물리4,감물리5,고례1,고례2,고례3,국전,국전1,국전2,국전3,국전4,발례,발례1,발례2,얼음골,얼음골1,얼음골2,얼음골3,표충사,표충사1,표충사2,표충사3" /><tag k="highway" v="bus_stop" /><tag k="public_transport" v="platform" /></node><node id="-200066" action="modify" visible="true" lat="35.45534003" lon="128.7924514"><tag k="name" v="금곡" /><tag k="name:ko" v="금곡" /><tag k="note" v="4부산대,6용성,부산대1,부산대1-2,부산대2,부산대3,부산대4,부산대4-1,부산대6,부산대7,부산대7-1,삼랑1,삼랑2,삼랑3-1,삼랑4,삼랑4-1,삼랑7,용성0,용성2,용성7,칠성1-2,칠성2" /><tag k="highway" v="bus_stop" /><tag k="public_transport" v="platform" /></node><node id="-200067" action="modify" visible="true" lat="35.55094444" lon="128.7648472"><tag k="name" v="금곡" /><tag k="name:ko" v="금곡" /><tag k="note" v="3상동,6상동,6상동1,6상동2,도곡1,도곡2,도곡4,상동,신곡1,신곡3,신곡4,신곡5,신곡6,신곡7,옥산,옥산1,옥산2" /><tag k="highway" v="bus_stop" /><tag k="public_transport" v="platform" /></node><node id="-200068" action="modify" visible="true" lat="35.510925" lon="128.83845"><tag k="name" v="금곡" /><tag k="name:ko" v="금곡" /><tag k="note" v="감물리,감물리1,감물리2,감물리3,감물리4,감물리5,고례1,고례2,고례3,국전,국전1,국전2,국전3,국전4,발례,발례1,발례2,얼음골,얼음골1,얼음골2,얼음골3,표충사,표충사1,표충사2,표충사3" /><tag k="highway" v="bus_stop" /><tag k="public_transport" v="platform" /></node><node id="-200069" action="modify" visible="true" lat="35.45530261" lon="128.7923928"><tag k="name" v="금곡" /><tag k="name:ko" v="금곡" /><tag k="note" v="1-2부산대,1부산대,1용성,1칠성,1칠성.,2부산대,2용성,2칠성,3-1부산대,4-1용성,4부산대,4퇴로2,6부산대,6상동2,7롯데,7삼랑,용성,용성1,칠성" /><tag k="highway" v="bus_stop" /><tag k="public_transport" v="platform" /></node><node id="-200070" action="modify" visible="true" lat="35.55100833" lon="128.7648944"><tag k="name" v="금곡" /><tag k="name:ko" v="금곡" /><tag k="note" v="3상동,6상동,6상동1,6상동2,도곡1,도곡2,도곡4,상동,신곡1,신곡3,신곡4,신곡5,신곡6,신곡7,옥산,옥산1,옥산2" /><tag k="highway" v="bus_stop" /><tag k="public_transport" v="platform" /></node><node id="-200071" action="modify" visible="true" lat="35.51210556" lon="128.8420722"><tag k="name" v="금곡교" /><tag k="name:ko" v="금곡교" /><tag k="note" v="감물리,감물리1,감물리2,감물리3,감물리4,감물리5,고례1,고례2,고례3,국전,국전1,국전2,국전3,국전4,표충사,표충사1,표충사2,표충사3" /><tag k="highway" v="bus_stop" /><tag k="public_transport" v="platform" /></node><node id="-200072" action="modify" visible="true" lat="35.42961111" lon="128.7648694"><tag k="name" v="금동" /><tag k="name:ko" v="금동" /><tag k="note" v="1초동,2금동,5밀성고,5번,5시청,금동1,금동1-2,금동2,금동4,금동7-1,남산1,남산2,삼랑진,삼랑진,수산1,수산2,초동면소,초동면소.,해동1" /><tag k="highway" v="bus_stop" /><tag k="public_transport" v="platform" /></node><node id="-200073" action="modify" visible="true" lat="35.42957778" lon="128.7646278"><tag k="name" v="금동" /><tag k="name:ko" v="금동" /><tag k="note" v="1-2금동,1금동,5금동,남산1,남산2,수산1,수산2,초동3,초동공단.,해동1" /><tag k="highway" v="bus_stop" /><tag k="public_transport" v="platform" /></node><node id="-200074" action="modify" visible="true" lat="35.56657222" lon="128.8693111"><tag k="name" v="금암" /><tag k="name:ko" v="금암" /><tag k="note" v="발례1,발례2,얼음골,얼음골1,얼음골2,얼음골3" /><tag k="highway" v="bus_stop" /><tag k="public_transport" v="platform" /></node><node id="-200075" action="modify" visible="true" lat="35.56648611" lon="128.8694083"><tag k="name" v="금암" /><tag k="name:ko" v="금암" /><tag k="note" v="발례1,발례2,얼음골,얼음골1,얼음골2,얼음골3" /><tag k="highway" v="bus_stop" /><tag k="public_transport" v="platform" /></node><node id="-200076" action="modify" visible="true" lat="35.455875" lon="128.7518806"><tag k="name" v="기산" /><tag k="name:ko" v="기산" /><tag k="note" v="1-2금동,1금동,5금동,5밀성고,5번,5시청,남산1,남산2,삼랑진,수산1,수산2,초동3,초동공단.,해동1" /><tag k="highway" v="bus_stop" /><tag k="public_transport" v="platform" /></node><node id="-200077" action="modify" visible="true" lat="35.45596111" lon="128.7521028"><tag k="name" v="기산" /><tag k="name:ko" v="기산" /><tag k="note" v="1초동,2금동,5밀성고,5번,5시청,금동1,금동1-2,금동2,금동4,금동7-1,남산1,남산2,삼랑진,수산1,수산2,초동면소,초동면소.,해동1" /><tag k="highway" v="bus_stop" /><tag k="public_transport" v="platform" /></node><node id="-200078" action="modify" visible="true" lat="35.51435573" lon="128.7744356"><tag k="name" v="긴늪" /><tag k="name:ko" v="긴늪" /><tag k="note" v="3-1번,3-1부산대,3금곡,3금곡,3번,3상동,6-1번,6번,6부산대,6상동,6상동1,6상동2,6엄광,6활성,6활성1,감물리,감물리1,감물리2,감물리3,감물리4,감물리5,고례1,고례2,고례3,국전,국전1,국전2,국전3,국전4,도곡1,도곡2,도곡4,발례,발례1,발례2,상동,신곡1,신곡3,신곡4,신곡5,신곡6,신곡7,얼음골,얼음골1,얼음골2,얼음골3,엄광1,엄광2,옥산,옥산1,옥산2,표충사,표충사1,표충사2,표충사3" /><tag k="highway" v="bus_stop" /><tag k="public_transport" v="platform" /></node><node id="-200079" action="modify" visible="true" lat="35.51445833" lon="128.7742028"><tag k="name" v="긴늪" /><tag k="name:ko" v="긴늪" /><tag k="note" v="3-1번,3-1부산대,3번,3상동,6-1번,6번,6부산대,6상동,6상동1,6상동2,6엄광,6활성,6활성1,감물리,감물리1,감물리2,감물리3,감물리4,감물리5,고례1,고례2,고례3,국전,국전1,국전2,국전3,국전4,도곡1,도곡2,도곡4,발례,발례1,발례2,상동,신곡1,신곡3,신곡4,신곡5,신곡6,신곡7,얼음골,얼음골1,얼음골2,얼음골3,엄광1,엄광2,옥산,옥산1,옥산2,표충사,표충사1,표충사2,표충사3" /><tag k="highway" v="bus_stop" /><tag k="public_transport" v="platform" /></node><node id="-200080" action="modify" visible="true" lat="35.52714167" lon="128.7810833"><tag k="name" v="길곡" /><tag k="name:ko" v="길곡" /><tag k="note" v="도곡1,도곡2,신곡1,신곡3,신곡5,신곡6,신곡7,옥산,옥산1,옥산2" /><tag k="highway" v="bus_stop" /><tag k="public_transport" v="platform" /></node><node id="-200081" action="modify" visible="true" lat="35.527125" lon="128.7812444"><tag k="name" v="길곡" /><tag k="name:ko" v="길곡" /><tag k="note" v="도곡1,도곡2,신곡1,신곡3,신곡4,신곡5,신곡6,신곡7,옥산,옥산1,옥산2" /><tag k="highway" v="bus_stop" /><tag k="public_transport" v="platform" /></node><node id="-200082" action="modify" visible="true" lat="35.54006944" lon="128.6533278"><tag k="name" v="까막수" /><tag k="name:ko" v="까막수" /><tag k="note" v="4구기,구기1,구기3,대촌1,대촌1,대촌2,대촌2,두곡,소태,조천,조천1,조천2" /><tag k="highway" v="bus_stop" /><tag k="public_transport" v="platform" /></node><node id="-200083" action="modify" visible="true" lat="35.54003055" lon="128.6531"><tag k="name" v="까막수" /><tag k="name:ko" v="까막수" /><tag k="note" v="4구기,구기1,구기3,대촌1,대촌1,대촌2,두곡,소태,조천,조천1,조천2" /><tag k="highway" v="bus_stop" /><tag k="public_transport" v="platform" /></node><node id="-200084" action="modify" visible="true" lat="35.58817778" lon="128.9588389"><tag k="name" v="깻들" /><tag k="name:ko" v="깻들" /><tag k="note" v="얼음골,얼음골1,얼음골2,얼음골3" /><tag k="highway" v="bus_stop" /><tag k="public_transport" v="platform" /></node><node id="-200085" action="modify" visible="true" lat="35.58808889" lon="128.9588167"><tag k="name" v="깻들" /><tag k="name:ko" v="깻들" /><tag k="note" v="얼음골,얼음골1,얼음골2,얼음골3" /><tag k="highway" v="bus_stop" /><tag k="public_transport" v="platform" /></node><node id="-200086" action="modify" visible="true" lat="35.51248056" lon="128.7905528"><tag k="name" v="남가" /><tag k="name:ko" v="남가" /><tag k="note" v="3금곡,6엄광,6활성,6활성1,엄광1,엄광2" /><tag k="highway" v="bus_stop" /><tag k="public_transport" v="platform" /></node><node id="-200087" action="modify" visible="true" lat="35.51238889" lon="128.7906333"><tag k="name" v="남가" /><tag k="name:ko" v="남가" /><tag k="note" v="3금곡,6엄광,6활성,6활성1,엄광1,엄광2" /><tag k="highway" v="bus_stop" /><tag k="public_transport" v="platform" /></node><node id="-200088" action="modify" visible="true" lat="35.51248611" lon="128.7940389"><tag k="name" v="남계" /><tag k="name:ko" v="남계" /><tag k="note" v="엄광2" /><tag k="highway" v="bus_stop" /><tag k="public_transport" v="platform" /></node><node id="-200089" action="modify" visible="true" lat="35.51256944" lon="128.79405"><tag k="name" v="남계" /><tag k="name:ko" v="남계" /><tag k="note" v="엄광1" /><tag k="highway" v="bus_stop" /><tag k="public_transport" v="platform" /></node><node id="-200090" action="modify" visible="true" lat="35.58723056" lon="128.9531667"><tag k="name" v="남명" /><tag k="name:ko" v="남명" /><tag k="note" v="얼음골,얼음골1,얼음골2,얼음골3" /><tag k="highway" v="bus_stop" /><tag k="public_transport" v="platform" /></node><node id="-200091" action="modify" visible="true" lat="35.58725278" lon="128.9534333"><tag k="name" v="남명" /><tag k="name:ko" v="남명" /><tag k="note" v="얼음골,얼음골1,얼음골2,얼음골3" /><tag k="highway" v="bus_stop" /><tag k="public_transport" v="platform" /></node><node id="-200092" action="modify" visible="true" lat="35.43094444" lon="128.7246361"><tag k="name" v="남산종점" /><tag k="name:ko" v="남산종점" /><tag k="note" v="남산1,남산2" /><tag k="highway" v="bus_stop" /><tag k="public_transport" v="platform" /></node><node id="-200093" action="modify" visible="true" lat="35.41048888" lon="128.7264056"><tag k="name" v="남전" /><tag k="name:ko" v="남전" /><tag k="note" v="1초동,초동면소,초동면소." /><tag k="highway" v="bus_stop" /><tag k="public_transport" v="platform" /></node><node id="-200094" action="modify" visible="true" lat="35.41071111" lon="128.7265667"><tag k="name" v="남전" /><tag k="name:ko" v="남전" /><tag k="note" v="초동3,초동공단." /><tag k="highway" v="bus_stop" /><tag k="public_transport" v="platform" /></node><node id="-200095" action="modify" visible="true" lat="35.46618611" lon="128.7860833"><tag k="name" v="남포" /><tag k="name:ko" v="남포" /><tag k="note" v="1-2부산대,1부산대,1용성,1칠성,1칠성.,2부산대,2용성,2칠성,3-1부산대,4-1용성,4부산대,4퇴로2,6부산대,6상동2,7롯데,7삼랑,용성,용성1,칠성" /><tag k="highway" v="bus_stop" /><tag k="public_transport" v="platform" /></node><node id="-200096" action="modify" visible="true" lat="35.46625" lon="128.7861333"><tag k="name" v="남포" /><tag k="name:ko" v="남포" /><tag k="note" v="4부산대,6용성,부산대1,부산대1-2,부산대2,부산대3,부산대4,부산대4-1,부산대6,부산대7,부산대7-1,삼랑1,삼랑2,삼랑3-1,삼랑4,삼랑4-1,삼랑7,용성0,용성2,용성7,칠성1-2,칠성2" /><tag k="highway" v="bus_stop" /><tag k="public_transport" v="platform" /></node><node id="-200097" action="modify" visible="true" lat="35.43107778" lon="128.7644639"><tag k="name" v="내금" /><tag k="name:ko" v="내금" /><tag k="note" v="1-2금동,1금동,5금동,5밀성고,5번,5시청,남산1,남산2,삼랑진,수산1,수산2,초동3,초동공단.,해동1" /><tag k="highway" v="bus_stop" /><tag k="public_transport" v="platform" /></node><node id="-200098" action="modify" visible="true" lat="35.43120833" lon="128.7644861"><tag k="name" v="내금" /><tag k="name:ko" v="내금" /><tag k="note" v="1초동,2금동,5밀성고,5번,5시청,금동1,금동1-2,금동2,금동4,금동7-1,남산1,남산2,삼랑진,수산1,수산2,초동면소,초동면소.,해동1" /><tag k="highway" v="bus_stop" /><tag k="public_transport" v="platform" /></node><node id="-200099" action="modify" visible="true" lat="35.49277222" lon="128.7509444"><tag k="name" v="내이동우체국" /><tag k="name:ko" v="내이동우체국" /><tag k="note" v="4-1번,4-1번.,4-1용성,4-2번,9롯데,9번,서가정5,영신3" /><tag k="highway" v="bus_stop" /><tag k="public_transport" v="platform" /></node><node id="-200100" action="modify" visible="true" lat="35.49295278" lon="128.7514028"><tag k="name" v="내이동우체국" /><tag k="name:ko" v="내이동우체국" /><tag k="note" v="1서가정,2가곡,2번,2부산대,2용성,2초동,2초동.,2칠성,3금곡,3번,4-1롯데,4-1번,4-1청운,4-2번,4구기,4대항2,4대항4,4대항5,4대항6,4대항8,4퇴로1,4퇴로3,4퇴로6,4퇴로8,6-1번" /><tag k="highway" v="bus_stop" /><tag k="public_transport" v="platform" /></node><node id="-200101" action="modify" visible="true" lat="35.49284722" lon="128.7507806"><tag k="name" v="내이동우체국" /><tag k="name:ko" v="내이동우체국" /><tag k="note" v="7-1번,9롯데,9번,서가정5,영신3" /><tag k="highway" v="bus_stop" /><tag k="public_transport" v="platform" /></node><node id="-200102" action="modify" visible="true" lat="35.52315555" lon="128.6525694"><tag k="name" v="내진" /><tag k="name:ko" v="내진" /><tag k="note" v="구기3,대촌1,대촌2,두곡,소태,조천,조천1" /><tag k="highway" v="bus_stop" /><tag k="public_transport" v="platform" /></node><node id="-200103" action="modify" visible="true" lat="35.52316111" lon="128.6527389"><tag k="name" v="내진" /><tag k="name:ko" v="내진" /><tag k="note" v="구기3,대촌1,대촌2,두곡,소태,조천,조천2" /><tag k="highway" v="bus_stop" /><tag k="public_transport" v="platform" /></node><node id="-200104" action="modify" visible="true" lat="35.44647222" lon="128.7547306"><tag k="name" v="농업기술센터" /><tag k="name:ko" v="농업기술센터" /><tag k="note" v="1초동,2금동,5밀성고,5시청,금동1,금동1-2,금동2,금동4,금동7-1,남산1,남산2,삼랑진,수산1,수산2,초동면소,초동면소.,해동1" /><tag k="highway" v="bus_stop" /><tag k="public_transport" v="platform" /></node><node id="-200105" action="modify" visible="true" lat="35.44641944" lon="128.7546083"><tag k="name" v="농업기술센터" /><tag k="name:ko" v="농업기술센터" /><tag k="note" v="1-2금동,1금동,5금동,남산1,남산2,삼랑진,수산1,수산2,초동3,초동공단.,해동1" /><tag k="highway" v="bus_stop" /><tag k="public_transport" v="platform" /></node><node id="-200106" action="modify" visible="true" lat="35.51705555" lon="128.7265056"><tag k="name" v="농협자재" /><tag k="name:ko" v="농협자재" /><tag k="note" v="4구기,4대항1,4대항2,4대항3,4대항6,4대항7,4대항8,4퇴로1,4퇴로2,4퇴로3,4퇴로5,4퇴로6,4퇴로8,7롯데" /><tag k="highway" v="bus_stop" /><tag k="public_transport" v="platform" /></node><node id="-200107" action="modify" visible="true" lat="35.49074444" lon="128.5960194"><tag k="name" v="다례" /><tag k="name:ko" v="다례" /><tag k="note" v="1서가정,서가정1,서가정2,서가정3,서가정4,서가정5,서가정6" /><tag k="highway" v="bus_stop" /><tag k="public_transport" v="platform" /></node><node id="-200108" action="modify" visible="true" lat="35.49080278" lon="128.5960361"><tag k="name" v="다례" /><tag k="name:ko" v="다례" /><tag k="note" v="서가정2,서가정3,서가정4,서가정5,서가정6" /><tag k="highway" v="bus_stop" /><tag k="public_transport" v="platform" /></node><node id="-200109" action="modify" visible="true" lat="35.50224722" lon="128.814925"><tag k="name" v="다원" /><tag k="name:ko" v="다원" /><tag k="note" v="3금곡,6활성,6활성1,감물리,감물리1,감물리2,감물리3,감물리4,감물리5,고례1,고례2,고례3,국전,국전1,국전2,국전3,국전4,발례,발례1,발례2,얼음골,얼음골1,얼음골2,얼음골3,표충사,표충사1,표충사2,표충사3" /><tag k="highway" v="bus_stop" /><tag k="public_transport" v="platform" /></node><node id="-200110" action="modify" visible="true" lat="35.50215556" lon="128.8148778"><tag k="name" v="다원" /><tag k="name:ko" v="다원" /><tag k="note" v="3금곡,감물리,감물리1,감물리2,감물리3,감물리4,감물리5,고례1,고례2,고례3,국전,국전1,국전2,국전3,국전4,발례,발례1,발례2,얼음골,얼음골1,얼음골2,얼음골3,표충사,표충사1,표충사2,표충사3" /><tag k="highway" v="bus_stop" /><tag k="public_transport" v="platform" /></node><node id="-200111" action="modify" visible="true" lat="35.50228611" lon="128.8126028"><tag k="name" v="다원" /><tag k="name:ko" v="다원" /><tag k="note" v="6활성,6활성1" /><tag k="highway" v="bus_stop" /><tag k="public_transport" v="platform" /></node><node id="-200112" action="modify" visible="true" lat="35.51507778" lon="128.8593111"><tag k="name" v="단장숲" /><tag k="name:ko" v="단장숲" /><tag k="note" v="고례1,고례2,고례3,국전,국전1,국전2,국전3,국전4,표충사,표충사1,표충사2,표충사3" /><tag k="highway" v="bus_stop" /><tag k="public_transport" v="platform" /></node><node id="-200113" action="modify" visible="true" lat="35.51506944" lon="128.8595111"><tag k="name" v="단장숲" /><tag k="name:ko" v="단장숲" /><tag k="note" v="고례1,고례2,고례3,국전,국전1,국전2,국전3,국전4,표충사,표충사1,표충사2,표충사3" /><tag k="highway" v="bus_stop" /><tag k="public_transport" v="platform" /></node><node id="-200114" action="modify" visible="true" lat="35.39006111" lon="128.7804472"><tag k="name" v="당곡" /><tag k="name:ko" v="당곡" /><tag k="note" v="수산1,수산2" /><tag k="highway" v="bus_stop" /><tag k="public_transport" v="platform" /></node><node id="-200115" action="modify" visible="true" lat="35.39002814" lon="128.7805224"><tag k="name" v="당곡" /><tag k="name:ko" v="당곡" /><tag k="note" v="수산1,수산2" /><tag k="highway" v="bus_stop" /><tag k="public_transport" v="platform" /></node><node id="-200116" action="modify" visible="true" lat="35.46316111" lon="128.7553222"><tag k="name" v="당촌" /><tag k="name:ko" v="당촌" /><tag k="note" v="1-2금동,1금동,5금동,5밀성고,5번,5시청,7-1번,남산1,남산2,삼랑진,수산1,수산2,초동3,초동공단.,해동1" /><tag k="highway" v="bus_stop" /><tag k="public_transport" v="platform" /></node><node id="-200117" action="modify" visible="true" lat="35.46318611" lon="128.7556889"><tag k="name" v="당촌" /><tag k="name:ko" v="당촌" /><tag k="note" v="1초동,2금동,5밀성고,5번,5시청,7-1번,금동1,금동1-2,금동2,금동4,금동7-1,남산1,남산2,삼랑진,수산1,수산2,초동면소,초동면소.,해동1" /><tag k="highway" v="bus_stop" /><tag k="public_transport" v="platform" /></node><node id="-200118" action="modify" visible="true" lat="35.46135" lon="128.7532778"><tag k="name" v="대동아파트" /><tag k="name:ko" v="대동아파트" /><tag k="note" v="1초동,2금동,5밀성고,5번,5시청,금동1,금동1-2,금동2,금동4,금동7-1,남산1,남산2,삼랑진,수산1,수산2,초동면소,초동면소.,해동1" /><tag k="highway" v="bus_stop" /><tag k="public_transport" v="platform" /></node><node id="-200119" action="modify" visible="true" lat="35.46188056" lon="128.7537028"><tag k="name" v="대동아파트" /><tag k="name:ko" v="대동아파트" /><tag k="note" v="1-2금동,1금동,5금동,5밀성고,5번,5시청,7-1번,남산1,남산2,삼랑진,수산1,수산2,초동3,초동공단.,해동1" /><tag k="highway" v="bus_stop" /><tag k="public_transport" v="platform" /></node><node id="-200120" action="modify" visible="true" lat="35.59179444" lon="128.8874667"><tag k="name" v="대사" /><tag k="name:ko" v="대사" /><tag k="note" v="얼음골,얼음골1,얼음골2,얼음골3" /><tag k="highway" v="bus_stop" /><tag k="public_transport" v="platform" /></node><node id="-200121" action="modify" visible="true" lat="35.59179444" lon="128.8875167"><tag k="name" v="대사" /><tag k="name:ko" v="대사" /><tag k="note" v="얼음골,얼음골1,얼음골2,얼음골3" /><tag k="highway" v="bus_stop" /><tag k="public_transport" v="platform" /></node><node id="-200122" action="modify" visible="true" lat="35.46271944" lon="128.7645889"><tag k="name" v="대성" /><tag k="name:ko" v="대성" /><tag k="note" v="대흥동1,대흥동2" /><tag k="highway" v="bus_stop" /><tag k="public_transport" v="platform" /></node><node id="-200123" action="modify" visible="true" lat="35.46289444" lon="128.7646222"><tag k="name" v="대성" /><tag k="name:ko" v="대성" /><tag k="note" v="대흥동1,대흥동2" /><tag k="highway" v="bus_stop" /><tag k="public_transport" v="platform" /></node><node id="-200124" action="modify" visible="true" lat="35.47429722" lon="128.769075"><tag k="name" v="대승빌라" /><tag k="name:ko" v="대승빌라" /><tag k="note" v="1-2가곡,1-2금동,1-2번,1-2부산대,1가곡,1금동,1번,1부산대,1서가정,1용성,1칠성,1칠성.,2가곡,2번,2부산대,2용성,2초동,2초동.,2칠성,3-1번,3-1부산대,3금곡,3번,3상동,4-1롯데,4-1번,4-1번.,4-1용성,4-1청운,4-2번,4구기,4대항1,4대항2,4대항3,4대항4,4대항5,4대항6,4대항7,4대항8,4대항9,4부산대,4퇴로1,4퇴로2,4퇴로3,4퇴로4,4퇴로5,4퇴로6,4퇴로7,4퇴로8,5금동,5밀성고,5밀성고,5번,5시청,5시청,6-1번,6번,6부산대,6상동,6상동2,6엄광,6활성,7-1번,7롯데,7번,7삼랑,7지동,9롯데,9번,가곡,남산1,대흥동2,삼랑진,용성1,해동1,화봉1" /><tag k="highway" v="bus_stop" /><tag k="public_transport" v="platform" /></node><node id="-200125" action="modify" visible="true" lat="35.50591944" lon="128.7569306"><tag k="name" v="대웅맨션" /><tag k="name:ko" v="대웅맨션" /><tag k="note" v="1-2가곡,1-2금동,1-2번,1-2부산대,1가곡,1금동,1번,1부산대,1서가정,1용성,1초동,1칠성,3-1번,3-1부산대,3번,3상동,4-2번,5시청,6-1번,6번,6부산대,6상동,6상동1,6상동2,9롯데,9번,가곡,상동,화봉1" /><tag k="highway" v="bus_stop" /><tag k="public_transport" v="platform" /></node><node id="-200126" action="modify" visible="true" lat="35.57563611" lon="128.6608194"><tag k="name" v="대촌" /><tag k="name:ko" v="대촌" /><tag k="note" v="대촌1,대촌2" /><tag k="highway" v="bus_stop" /><tag k="public_transport" v="platform" /></node><node id="-200127" action="modify" visible="true" lat="35.57561111" lon="128.6609"><tag k="name" v="대촌" /><tag k="name:ko" v="대촌" /><tag k="note" v="대촌1,대촌2" /><tag k="highway" v="bus_stop" /><tag k="public_transport" v="platform" /></node><node id="-200128" action="modify" visible="true" lat="35.50278055" lon="128.7981694"><tag k="name" v="대촌" /><tag k="name:ko" v="대촌" /><tag k="note" v="3금곡,6활성,6활성1,감물리,감물리1,감물리2,감물리3,감물리4,감물리5,고례1,고례2,고례3,국전,국전1,국전2,국전3,국전4,발례,발례1,발례2,얼음골,얼음골1,얼음골2,얼음골3,표충사,표충사1,표충사2,표충사3" /><tag k="highway" v="bus_stop" /><tag k="public_transport" v="platform" /></node><node id="-200129" action="modify" visible="true" lat="35.50266944" lon="128.7981361"><tag k="name" v="대촌" /><tag k="name:ko" v="대촌" /><tag k="note" v="3금곡,6활성,6활성1,감물리,감물리1,감물리2,감물리3,감물리4,감물리5,고례1,고례2,고례3,국전,국전1,국전2,국전3,국전4,발례,발례1,발례2,얼음골,얼음골1,얼음골2,얼음골3,표충사,표충사1,표충사2,표충사3" /><tag k="highway" v="bus_stop" /><tag k="public_transport" v="platform" /></node><node id="-200130" action="modify" visible="true" lat="35.54496667" lon="128.6849139"><tag k="name" v="대항종점" /><tag k="name:ko" v="대항종점" /><tag k="note" v="4구기,4구기,4대항1,4대항2,4대항3,4대항4,4대항5,4대항6,4대항7,4대항8,4대항9,4퇴로2,4퇴로5,4퇴로6,4퇴로7,4퇴로8" /><tag k="highway" v="bus_stop" /><tag k="public_transport" v="platform" /></node><node id="-200131" action="modify" visible="true" lat="35.431925" lon="128.7902444"><tag k="name" v="대흥동" /><tag k="name:ko" v="대흥동" /><tag k="note" v="대흥동1,대흥동2" /><tag k="highway" v="bus_stop" /><tag k="public_transport" v="platform" /></node><node id="-200132" action="modify" visible="true" lat="35.51456111" lon="128.7117361"><tag k="name" v="덕곡" /><tag k="name:ko" v="덕곡" /><tag k="note" v="청운" /><tag k="highway" v="bus_stop" /><tag k="public_transport" v="platform" /></node><node id="-200133" action="modify" visible="true" lat="35.51148889" lon="128.7098917"><tag k="name" v="덕곡회관" /><tag k="name:ko" v="덕곡회관" /><tag k="note" v="2청운,4-1청운,4대항5,4대항9,청운,청운." /><tag k="highway" v="bus_stop" /><tag k="public_transport" v="platform" /></node><node id="-200134" action="modify" visible="true" lat="35.54667778" lon="128.6517389"><tag k="name" v="덕법" /><tag k="name:ko" v="덕법" /><tag k="note" v="대촌1,대촌2" /><tag k="highway" v="bus_stop" /><tag k="public_transport" v="platform" /></node><node id="-200135" action="modify" visible="true" lat="35.54109444" lon="128.6495722"><tag k="name" v="덕법입구" /><tag k="name:ko" v="덕법입구" /><tag k="note" v="구기1,구기3,대촌1,대촌1,대촌2,두곡,조천,조천1,조천2" /><tag k="highway" v="bus_stop" /><tag k="public_transport" v="platform" /></node><node id="-200136" action="modify" visible="true" lat="35.46216944" lon="128.6287833"><tag k="name" v="덕암" /><tag k="name:ko" v="덕암" /><tag k="note" v="서가정3,서가정7" /><tag k="highway" v="bus_stop" /><tag k="public_transport" v="platform" /></node><node id="-200137" action="modify" visible="true" lat="35.46218056" lon="128.6287306"><tag k="name" v="덕암" /><tag k="name:ko" v="덕암" /><tag k="note" v="서가정1" /><tag k="highway" v="bus_stop" /><tag k="public_transport" v="platform" /></node><node id="-200138" action="modify" visible="true" lat="35.55931111" lon="128.8310917"><tag k="name" v="도곡종점" /><tag k="name:ko" v="도곡종점" /><tag k="note" v="도곡1,도곡2,도곡4,신곡1" /><tag k="highway" v="bus_stop" /><tag k="public_transport" v="platform" /></node><node id="-200139" action="modify" visible="true" lat="35.55911944" lon="128.8209639"><tag k="name" v="도곡회관" /><tag k="name:ko" v="도곡회관" /><tag k="note" v="도곡1,도곡2,도곡4,신곡1" /><tag k="highway" v="bus_stop" /><tag k="public_transport" v="platform" /></node><node id="-200140" action="modify" visible="true" lat="35.55906944" lon="128.8209833"><tag k="name" v="도곡회관" /><tag k="name:ko" v="도곡회관" /><tag k="note" v="도곡1,도곡2,도곡4,신곡1" /><tag k="highway" v="bus_stop" /><tag k="public_transport" v="platform" /></node><node id="-200141" action="modify" visible="true" lat="35.3557478" lon="128.7628068"><tag k="name" v="도암" /><tag k="name:ko" v="도암" /><tag k="note" v="수산1,수산2,오산" /><tag k="highway" v="bus_stop" /><tag k="public_transport" v="platform" /></node><node id="-200142" action="modify" visible="true" lat="35.35576111" lon="128.7628722"><tag k="name" v="도암" /><tag k="name:ko" v="도암" /><tag k="note" v="수산1,수산2,오산" /><tag k="highway" v="bus_stop" /><tag k="public_transport" v="platform" /></node><node id="-200143" action="modify" visible="true" lat="35.49446389" lon="128.7570556"><tag k="name" v="동문고개" /><tag k="name:ko" v="동문고개" /><tag k="note" v="감물리4,고례2,국전2,도곡1,도곡4,발례1,신곡3,신곡4,얼음골2,엄광2,옥산2,표충사2" /><tag k="highway" v="bus_stop" /><tag k="public_transport" v="platform" /></node><node id="-200144" action="modify" visible="true" lat="35.53630556" lon="128.6652528"><tag k="name" v="동산" /><tag k="name:ko" v="동산" /><tag k="note" v="구기1,조천2" /><tag k="highway" v="bus_stop" /><tag k="public_transport" v="platform" /></node><node id="-200145" action="modify" visible="true" lat="35.53609444" lon="128.6575639"><tag k="name" v="동산" /><tag k="name:ko" v="동산" /><tag k="note" v="구기3,대촌1,대촌2,두곡,소태,조천,조천2" /><tag k="highway" v="bus_stop" /><tag k="public_transport" v="platform" /></node><node id="-200146" action="modify" visible="true" lat="35.38381873" lon="128.7825263"><tag k="name" v="동산" /><tag k="name:ko" v="동산" /><tag k="note" v="수산1,수산2" /><tag k="highway" v="bus_stop" /><tag k="public_transport" v="platform" /></node><node id="-200147" action="modify" visible="true" lat="35.38385168" lon="128.7824307"><tag k="name" v="동산" /><tag k="name:ko" v="동산" /><tag k="note" v="수산1,수산2" /><tag k="highway" v="bus_stop" /><tag k="public_transport" v="platform" /></node><node id="-200148" action="modify" visible="true" lat="35.53642222" lon="128.6651111"><tag k="name" v="동산" /><tag k="name:ko" v="동산" /><tag k="note" v="구기1,조천1" /><tag k="highway" v="bus_stop" /><tag k="public_transport" v="platform" /></node><node id="-200149" action="modify" visible="true" lat="35.53608055" lon="128.6573889"><tag k="name" v="동산" /><tag k="name:ko" v="동산" /><tag k="note" v="구기3,대촌1,대촌2,두곡,소태,조천,조천1" /><tag k="highway" v="bus_stop" /><tag k="public_transport" v="platform" /></node><node id="-200150" action="modify" visible="true" lat="35.46045278" lon="128.7692083"><tag k="name" v="동촌" /><tag k="name:ko" v="동촌" /><tag k="note" v="대흥동1,대흥동2" /><tag k="highway" v="bus_stop" /><tag k="public_transport" v="platform" /></node><node id="-200151" action="modify" visible="true" lat="35.46013056" lon="128.7695361"><tag k="name" v="동촌" /><tag k="name:ko" v="동촌" /><tag k="note" v="대흥동1,대흥동2" /><tag k="highway" v="bus_stop" /><tag k="public_transport" v="platform" /></node><node id="-200152" action="modify" visible="true" lat="35.51993888" lon="128.8871556"><tag k="name" v="동화" /><tag k="name:ko" v="동화" /><tag k="note" v="고례1,고례2,고례3,표충사,표충사1,표충사2,표충사3" /><tag k="highway" v="bus_stop" /><tag k="public_transport" v="platform" /></node><node id="-200153" action="modify" visible="true" lat="35.51990556" lon="128.8872944"><tag k="name" v="동화" /><tag k="name:ko" v="동화" /><tag k="note" v="고례1,고례2,고례3,표충사,표충사1,표충사2,표충사3" /><tag k="highway" v="bus_stop" /><tag k="public_transport" v="platform" /></node><node id="-200154" action="modify" visible="true" lat="35.55706944" lon="128.6165556"><tag k="name" v="두곡" /><tag k="name:ko" v="두곡" /><tag k="note" v="두곡" /><tag k="highway" v="bus_stop" /><tag k="public_transport" v="platform" /></node><node id="-200155" action="modify" visible="true" lat="35.55698333" lon="128.6165611"><tag k="name" v="두곡" /><tag k="name:ko" v="두곡" /><tag k="note" v="두곡" /><tag k="highway" v="bus_stop" /><tag k="public_transport" v="platform" /></node><node id="-200156" action="modify" visible="true" lat="35.3747215" lon="128.7102013"><tag k="name" v="디지털프라자" /><tag k="name:ko" v="디지털프라자" /><tag k="note" v="상촌,수산1,수산2,오산" /><tag k="highway" v="bus_stop" /><tag k="public_transport" v="platform" /></node><node id="-200157" action="modify" visible="true" lat="35.37481156" lon="128.7102059"><tag k="name" v="디지털프라자" /><tag k="name:ko" v="디지털프라자" /><tag k="note" v="상촌,수산1,수산2,오산" /><tag k="highway" v="bus_stop" /><tag k="public_transport" v="platform" /></node><node id="-200158" action="modify" visible="true" lat="35.37499378" lon="128.7157856"><tag k="name" v="롯데리아" /><tag k="name:ko" v="롯데리아" /><tag k="note" v="상촌,수산1,수산2,오산" /><tag k="highway" v="bus_stop" /><tag k="public_transport" v="platform" /></node><node id="-200159" action="modify" visible="true" lat="35.37491413" lon="128.7158417"><tag k="name" v="롯데리아" /><tag k="name:ko" v="롯데리아" /><tag k="note" v="상촌,수산1,수산2,오산" /><tag k="highway" v="bus_stop" /><tag k="public_transport" v="platform" /></node><node id="-200160" action="modify" visible="true" lat="35.48901389" lon="128.738775"><tag k="name" v="롯데아파트" /><tag k="name:ko" v="롯데아파트" /><tag k="note" v="1서가정,1초동,2청운,2초동,4-1청운,구기3,대촌1,대촌2,두곡,서가정1,서가정2,서가정3,서가정4,서가정5,서가정6,소태,영신2,영신3,조천,조천2,청운,청운.,초동2,초동공단,초동면소,초동면소.,화봉1" /><tag k="highway" v="bus_stop" /><tag k="public_transport" v="platform" /></node><node id="-200161" action="modify" visible="true" lat="35.48886944" lon="128.7387889"><tag k="name" v="롯데아파트" /><tag k="name:ko" v="롯데아파트" /><tag k="note" v="10롯데,1서가정,2초동,2초동.,4-1롯데,7롯데,9롯데,구기3,대촌1,대촌2,두곡,서가정1,서가정2,서가정3,서가정4,서가정5,서가정6,소태,영신2,영신3,조천,조천1,초동3,초동공단,초동공단.,화봉1" /><tag k="highway" v="bus_stop" /><tag k="public_transport" v="platform" /></node><node id="-200162" action="modify" visible="true" lat="35.50066944" lon="128.6022806"><tag k="name" v="마곡" /><tag k="name:ko" v="마곡" /><tag k="note" v="1서가정,서가정1,서가정2,서가정3,서가정4,서가정5,서가정6" /><tag k="highway" v="bus_stop" /><tag k="public_transport" v="platform" /></node><node id="-200163" action="modify" visible="true" lat="35.40432778" lon="128.7735583"><tag k="name" v="마산" /><tag k="name:ko" v="마산" /><tag k="note" v="수산1,수산2,해동1" /><tag k="highway" v="bus_stop" /><tag k="public_transport" v="platform" /></node><node id="-200164" action="modify" visible="true" lat="35.40422024" lon="128.773581"><tag k="name" v="마산" /><tag k="name:ko" v="마산" /><tag k="note" v="수산1,수산2,해동1" /><tag k="highway" v="bus_stop" /><tag k="public_transport" v="platform" /></node><node id="-200165" action="modify" visible="true" lat="35.47114722" lon="128.7602778"><tag k="name" v="마암터널" /><tag k="name:ko" v="마암터널" /><tag k="note" v="1초동,4-1롯데,4-1번,4-1번.,4-1용성,4-1청운,4구기,4대항1,4대항2,4대항3,4대항4,4대항5,4대항6,4대항7,4대항8,4대항9,4번,4초동,4퇴로1,4퇴로2,4퇴로3,4퇴로4,4퇴로5,4퇴로6,4퇴로7,4퇴로8,9롯데,9번,감물리1,국전1,남산2,대흥동1,수산1,얼음골1,초동면소,초동면소.,표충사1" /><tag k="highway" v="bus_stop" /><tag k="public_transport" v="platform" /></node><node id="-200166" action="modify" visible="true" lat="35.47076389" lon="128.7606694"><tag k="name" v="마암터널" /><tag k="name:ko" v="마암터널" /><tag k="note" v="7-1번,7롯데,7번,7삼랑,7지동,9번,남산2,대흥동1,수산1" /><tag k="highway" v="bus_stop" /><tag k="public_transport" v="platform" /></node><node id="-200167" action="modify" visible="true" lat="35.48809444" lon="128.7100278"><tag k="name" v="마흘" /><tag k="name:ko" v="마흘" /><tag k="note" v="1서가정,1초동,2초동,구기3,대촌1,대촌2,두곡,서가정1,서가정2,서가정3,서가정4,서가정5,서가정6,소태,영신2,영신3,조천,조천2,초동2,초동공단,초동면소,초동면소.,화봉1" /><tag k="highway" v="bus_stop" /><tag k="public_transport" v="platform" /></node><node id="-200168" action="modify" visible="true" lat="35.488025" lon="128.7100611"><tag k="name" v="마흘" /><tag k="name:ko" v="마흘" /><tag k="note" v="1서가정,2초동,구기3,대촌1,대촌2,두곡,서가정1,서가정2,서가정3,서가정4,서가정5,서가정6,소태,영신2,영신3,조천,조천1,초동2,초동3,초동공단,초동공단.,화봉1" /><tag k="highway" v="bus_stop" /><tag k="public_transport" v="platform" /></node><node id="-200169" action="modify" visible="true" lat="35.58546388" lon="128.8051722"><tag k="name" v="매화" /><tag k="name:ko" v="매화" /><tag k="note" v="신곡1,신곡3,신곡4,신곡5,신곡6,신곡7" /><tag k="highway" v="bus_stop" /><tag k="public_transport" v="platform" /></node><node id="-200170" action="modify" visible="true" lat="35.58543889" lon="128.8053472"><tag k="name" v="매화" /><tag k="name:ko" v="매화" /><tag k="note" v="신곡1,신곡3,신곡4,신곡5,신곡6,신곡7" /><tag k="highway" v="bus_stop" /><tag k="public_transport" v="platform" /></node><node id="-200171" action="modify" visible="true" lat="35.49098611" lon="128.7460028"><tag k="name" v="맥도날드" /><tag k="name:ko" v="맥도날드" /><tag k="note" v="10롯데,4-1번,4-1번.,4-1용성,4-1청운,4-2번,4구기,4대항1,4대항2,4대항3,4대항4,4대항5,4대항6,4대항7,4대항8,4대항9,4번,4초동,4퇴로1,4퇴로2,4퇴로3,4퇴로4,4퇴로5,4퇴로6,4퇴로7,4퇴로8,9롯데,9번,감물리1,국전1,대흥동1,수산1,얼음골1,표충사1" /><tag k="highway" v="bus_stop" /><tag k="public_transport" v="platform" /></node><node id="-200172" action="modify" visible="true" lat="35.47256944" lon="128.7770528"><tag k="name" v="멍에실입구" /><tag k="name:ko" v="멍에실입구" /><tag k="note" v="4부산대,6용성,가곡,부산대1,부산대1-2,부산대2,부산대3,부산대4,부산대4-1,부산대6,부산대7,부산대7-1,삼랑1,삼랑2,삼랑3-1,삼랑4,삼랑4-1,삼랑7,용성0,용성2,용성7,칠성1-2,칠성2" /><tag k="highway" v="bus_stop" /><tag k="public_transport" v="platform" /></node><node id="-200173" action="modify" visible="true" lat="35.47248056" lon="128.7770361"><tag k="name" v="멍에실입구" /><tag k="name:ko" v="멍에실입구" /><tag k="note" v="1-2가곡,1-2부산대,1가곡,1부산대,1용성,1칠성,1칠성.,2가곡,2부산대,2용성,2칠성,3-1부산대,4-1용성,4부산대,4퇴로2,6부산대,6상동2,7롯데,7삼랑,가곡,용성,용성1,칠성" /><tag k="highway" v="bus_stop" /><tag k="public_transport" v="platform" /></node><node id="-200174" action="modify" visible="true" lat="35.3534" lon="128.7669722"><tag k="name" v="명례" /><tag k="name:ko" v="명례" /><tag k="note" v="수산1,수산2,오산" /><tag k="highway" v="bus_stop" /><tag k="public_transport" v="platform" /></node><node id="-200175" action="modify" visible="true" lat="35.35332407" lon="128.7669397"><tag k="name" v="명례" /><tag k="name:ko" v="명례" /><tag k="note" v="상촌,수산1,수산2,오산" /><tag k="highway" v="bus_stop" /><tag k="public_transport" v="platform" /></node><node id="-200176" action="modify" visible="true" lat="35.41314167" lon="128.7397472"><tag k="name" v="명성" /><tag k="name:ko" v="명성" /><tag k="note" v="남산1,남산2" /><tag k="highway" v="bus_stop" /><tag k="public_transport" v="platform" /></node><node id="-200177" action="modify" visible="true" lat="35.41311944" lon="128.73965"><tag k="name" v="명성" /><tag k="name:ko" v="명성" /><tag k="note" v="남산1,남산2" /><tag k="highway" v="bus_stop" /><tag k="public_transport" v="platform" /></node><node id="-200178" action="modify" visible="true" lat="35.50772778" lon="128.6270611"><tag k="name" v="모곡" /><tag k="name:ko" v="모곡" /><tag k="note" v="영신2,영신3" /><tag k="highway" v="bus_stop" /><tag k="public_transport" v="platform" /></node><node id="-200179" action="modify" visible="true" lat="35.50772778" lon="128.6272194"><tag k="name" v="모곡" /><tag k="name:ko" v="모곡" /><tag k="note" v="영신2,영신3,화봉1" /><tag k="highway" v="bus_stop" /><tag k="public_transport" v="platform" /></node><node id="-200180" action="modify" visible="true" lat="35.56766389" lon="128.7989472"><tag k="name" v="모정" /><tag k="name:ko" v="모정" /><tag k="note" v="신곡3,신곡4,신곡5,신곡6" /><tag k="highway" v="bus_stop" /><tag k="public_transport" v="platform" /></node><node id="-200181" action="modify" visible="true" lat="35.56765556" lon="128.7988639"><tag k="name" v="모정" /><tag k="name:ko" v="모정" /><tag k="note" v="도곡1,도곡2,신곡3,신곡4,신곡5,신곡6" /><tag k="highway" v="bus_stop" /><tag k="public_transport" v="platform" /></node><node id="-200182" action="modify" visible="true" lat="35.57071944" lon="128.7935222"><tag k="name" v="모정입구" /><tag k="name:ko" v="모정입구" /><tag k="note" v="신곡1,신곡3,신곡4,신곡5,신곡6,신곡7" /><tag k="highway" v="bus_stop" /><tag k="public_transport" v="platform" /></node><node id="-200183" action="modify" visible="true" lat="35.57068611" lon="128.7936333"><tag k="name" v="모정입구" /><tag k="name:ko" v="모정입구" /><tag k="note" v="신곡1,신곡7" /><tag k="highway" v="bus_stop" /><tag k="public_transport" v="platform" /></node><node id="-200184" action="modify" visible="true" lat="35.51020438" lon="128.7532794"><tag k="name" v="목화아파트" /><tag k="name:ko" v="목화아파트" /><tag k="note" v="1-2가곡,1-2금동,1-2번,1-2부산대,1가곡,1금동,1번,1부산대,1서가정,1용성,1초동,1칠성,4-2번,9롯데,9번,가곡,화봉1" /><tag k="highway" v="bus_stop" /><tag k="public_transport" v="platform" /></node><node id="-200185" action="modify" visible="true" lat="35.51018611" lon="128.7535389"><tag k="name" v="목화아파트" /><tag k="name:ko" v="목화아파트" /><tag k="note" v="2가곡,2번,2부산대,2용성,2청운,2초동,2칠성,5금동,5밀성고,5번,청운.,초동공단.,초동면소" /><tag k="highway" v="bus_stop" /><tag k="public_transport" v="platform" /></node><node id="-200186" action="modify" visible="true" lat="35.49745833" lon="128.8866694"><tag k="name" v="무릉" /><tag k="name:ko" v="무릉" /><tag k="note" v="국전,국전1,국전2,국전3,국전4" /><tag k="highway" v="bus_stop" /><tag k="public_transport" v="platform" /></node><node id="-200187" action="modify" visible="true" lat="35.49739167" lon="128.8866417"><tag k="name" v="무릉" /><tag k="name:ko" v="무릉" /><tag k="note" v="국전,국전1,국전2,국전3,국전4" /><tag k="highway" v="bus_stop" /><tag k="public_transport" v="platform" /></node><node id="-200188" action="modify" visible="true" lat="35.47002777" lon="128.6517444"><tag k="name" v="무안정류소" /><tag k="name:ko" v="무안정류소" /><tag k="note" v="1서가정,1초동,2초동,서가정1,서가정2,서가정3,서가정4,서가정5,서가정6,서가정7,서가정7,초동2,초동공단,초동면소,초동면소." /><tag k="highway" v="bus_stop" /><tag k="public_transport" v="platform" /></node><node id="-200189" action="modify" visible="true" lat="35.47005278" lon="128.6518667"><tag k="name" v="무안정류소" /><tag k="name:ko" v="무안정류소" /><tag k="note" v="1서가정,2초동,구기3,구기3,대촌1,대촌1,대촌2,대촌2,두곡,두곡,서가정1,서가정2,서가정3,서가정4,서가정5,서가정6,서가정7,소태,소태,영신2,영신2,영신3,영신3,조천,조천,조천1,조천2,초동2,초동3,초동공단,초동공단.,화봉1" /><tag k="highway" v="bus_stop" /><tag k="public_transport" v="platform" /></node><node id="-200190" action="modify" visible="true" lat="35.53976944" lon="128.7199972"><tag k="name" v="무연" /><tag k="name:ko" v="무연" /><tag k="note" v="4대항4,4퇴로4,4퇴로7" /><tag k="highway" v="bus_stop" /><tag k="public_transport" v="platform" /></node><node id="-200191" action="modify" visible="true" lat="35.53988889" lon="128.7199417"><tag k="name" v="무연" /><tag k="name:ko" v="무연" /><tag k="note" v="4대항5,4대항9,4퇴로3" /><tag k="highway" v="bus_stop" /><tag k="public_transport" v="platform" /></node><node id="-200192" action="modify" visible="true" lat="35.49820556" lon="128.7515194"><tag k="name" v="문화탕" /><tag k="name:ko" v="문화탕" /><tag k="note" v="10롯데,1서가정,2가곡,2번,2부산대,2용성,2청운,2초동,2초동,2초동.,2칠성,3금곡,3번,4-1롯데,4-1번,4-1청운,4-1청운,4구기,4대항2,4대항4,4대항5,4대항6,4대항8,4퇴로1,4퇴로3,4퇴로6,4퇴로8,5금동,5밀성고,5번,6-1번,감물리,감물리1,국전1,국전4,도곡2,신곡1,신곡5,신곡6,얼음골,얼음골1,옥산1,표충사,표충사1" /><tag k="highway" v="bus_stop" /><tag k="public_transport" v="platform" /></node><node id="-200193" action="modify" visible="true" lat="35.49849167" lon="128.7516722"><tag k="name" v="문화탕" /><tag k="name:ko" v="문화탕" /><tag k="note" v="1-2가곡,1-2금동,1-2번,1-2부산대,1가곡,1금동,1번,1부산대,1서가정,1용성,1초동,1칠성,3-1번,3-1부산대,3금곡,3번,3상동,4-2번,7-1번,7롯데,7번,7삼랑,7지동,9롯데,9번,가곡,화봉1" /><tag k="highway" v="bus_stop" /><tag k="public_transport" v="platform" /></node><node id="-200194" action="modify" visible="true" lat="35.50442222" lon="128.7447861"><tag k="name" v="미리벌관" /><tag k="name:ko" v="미리벌관" /><tag k="note" v="1-2가곡,1-2금동,1-2번,1-2부산대,7-1번,7롯데,7번,7삼랑,7지동" /><tag k="highway" v="bus_stop" /><tag k="public_transport" v="platform" /></node><node id="-200195" action="modify" visible="true" lat="35.50438888" lon="128.7445556"><tag k="name" v="미리벌관" /><tag k="name:ko" v="미리벌관" /><tag k="note" v="4-1롯데,4-1번,4-1번.,4-1용성,4-1청운" /><tag k="highway" v="bus_stop" /><tag k="public_transport" v="platform" /></node><node id="-200196" action="modify" visible="true" lat="35.48121423" lon="128.748898"><tag k="name" v="미리벌초교" /><tag k="name:ko" v="미리벌초교" /><tag k="note" v="10롯데,4-1롯데,4-1번,4-1번.,4-1용성,4-1청운,4-2번" /><tag k="highway" v="bus_stop" /><tag k="public_transport" v="platform" /></node><node id="-200197" action="modify" visible="true" lat="35.4810126" lon="128.7491305"><tag k="name" v="미리벌초교" /><tag k="name:ko" v="미리벌초교" /><tag k="note" v="4-2번,7롯데,7번,7삼랑,7지동" /><tag k="highway" v="bus_stop" /><tag k="public_transport" v="platform" /></node><node id="-200198" action="modify" visible="true" lat="35.40256389" lon="128.8137861"><tag k="name" v="미전" /><tag k="name:ko" v="미전" /><tag k="note" v="7롯데" /><tag k="highway" v="bus_stop" /><tag k="public_transport" v="platform" /></node><node id="-200199" action="modify" visible="true" lat="35.40445556" lon="128.8121083"><tag k="name" v="미전" /><tag k="name:ko" v="미전" /><tag k="note" v="7삼랑" /><tag k="highway" v="bus_stop" /><tag k="public_transport" v="platform" /></node><node id="-200200" action="modify" visible="true" lat="35.40260555" lon="128.813875"><tag k="name" v="미전" /><tag k="name:ko" v="미전" /><tag k="note" v="삼랑1,삼랑2,삼랑3-1,삼랑4,삼랑4-1,삼랑7" /><tag k="highway" v="bus_stop" /><tag k="public_transport" v="platform" /></node><node id="-200201" action="modify" visible="true" lat="35.50085" lon="128.7525472"><tag k="name" v="밀성고등학교" /><tag k="name:ko" v="밀성고등학교" /><tag k="note" v="1-2가곡,1-2금동,1-2번,1-2부산대,1가곡,1금동,1번,1부산대,1서가정,1용성,1초동,1칠성,3-1번,3-1부산대,3금곡,3번,3상동,4-2번,7-1번,7롯데,7번,7삼랑,7지동,9롯데,9번,가곡,화봉1" /><tag k="highway" v="bus_stop" /><tag k="public_transport" v="platform" /></node><node id="-200202" action="modify" visible="true" lat="35.50046389" lon="128.7524306"><tag k="name" v="밀성고등학교" /><tag k="name:ko" v="밀성고등학교" /><tag k="note" v="10롯데,1서가정,2가곡,2번,2부산대,2용성,2청운,2초동,2초동,2초동.,2칠성,3금곡,3번,4-1롯데,4-1번,4-1청운,4-1청운,4구기,4대항2,4대항4,4대항5,4대항6,4대항8,4퇴로1,4퇴로3,4퇴로6,4퇴로8,5금동,5밀성고,5번,6-1번,감물리,감물리1,국전1,국전4,도곡2,신곡1,신곡5,신곡6,얼음골,얼음골1,옥산1,표충사,표충사1" /><tag k="highway" v="bus_stop" /><tag k="public_transport" v="platform" /></node><node id="-200203" action="modify" visible="true" lat="35.50311111" lon="128.7508444"><tag k="name" v="밀성제일고" /><tag k="name:ko" v="밀성제일고" /><tag k="note" v="10롯데,1서가정,2가곡,2번,2부산대,2용성,2청운,2초동,2초동,2초동.,2칠성,4-1롯데,4-1번,4-1청운,4-1청운,4구기,4대항2,4대항4,4대항5,4대항6,4대항8,4퇴로1,4퇴로3,4퇴로6,4퇴로8,5금동,5번,6-1번,6번,6부산대,6상동,6상동1,6상동2,도곡1,도곡4,상동,신곡1,신곡3,신곡4,신곡5,신곡7,옥산2,청운.,초동공단.,초동면소" /><tag k="highway" v="bus_stop" /><tag k="public_transport" v="platform" /></node><node id="-200204" action="modify" visible="true" lat="35.50345" lon="128.7514028"><tag k="name" v="밀성제일고" /><tag k="name:ko" v="밀성제일고" /><tag k="note" v="1-2가곡,1-2금동,1-2번,1-2부산대,1가곡,1금동,1번,1부산대,1서가정,1용성,1초동,1칠성,3-1번,3-1부산대,3상동,4-2번,5시청,6번,6부산대,6상동,6상동1,6상동2,7-1번,7롯데,7번,7삼랑,7지동,9롯데,9번,가곡,초동공단.,초동면소,화봉1" /><tag k="highway" v="bus_stop" /><tag k="public_transport" v="platform" /></node><node id="-200205" action="modify" visible="true" lat="35.50334722" lon="128.7529056"><tag k="name" v="밀성초등학교" /><tag k="name:ko" v="밀성초등학교" /><tag k="note" v="10롯데,1서가정,2가곡,2번,2부산대,2용성,2청운,2초동,2초동,2초동.,2칠성,3금곡,3번,4-1롯데,4-1번,4-1청운,4-1청운,4구기,4대항2,4대항4,4대항5,4대항6,4대항8,4퇴로1,4퇴로3,4퇴로6,4퇴로8,5금동,5밀성고,5번,6-1번,감물리,감물리1,국전1,국전4,도곡2,신곡1,신곡5,신곡6,얼음골,얼음골1,옥산1,표충사,표충사1" /><tag k="highway" v="bus_stop" /><tag k="public_transport" v="platform" /></node><node id="-200206" action="modify" visible="true" lat="35.50281111" lon="128.7529083"><tag k="name" v="밀성초등학교" /><tag k="name:ko" v="밀성초등학교" /><tag k="note" v="1-2가곡,1-2금동,1-2번,1-2부산대,1가곡,1금동,1번,1부산대,1서가정,1용성,1초동,1칠성,3-1번,3-1부산대,3금곡,3번,3상동,4-2번,7-1번,7롯데,7번,7삼랑,7지동,9롯데,9번,가곡,화봉1" /><tag k="highway" v="bus_stop" /><tag k="public_transport" v="platform" /></node><node id="-200207" action="modify" visible="true" lat="35.46806389" lon="128.7614972"><tag k="name" v="밀양경찰서" /><tag k="name:ko" v="밀양경찰서" /><tag k="note" v="1초동,2금동,5밀성고,5번,5시청,7-1번,금동1,금동1-2,금동2,금동4,금동7-1,남산1,남산2,대흥동1,대흥동2,삼랑진,수산1,수산2,초동면소,초동면소.,해동1" /><tag k="highway" v="bus_stop" /><tag k="public_transport" v="platform" /></node><node id="-200208" action="modify" visible="true" lat="35.46811111" lon="128.7611306"><tag k="name" v="밀양경찰서" /><tag k="name:ko" v="밀양경찰서" /><tag k="note" v="1-2금동,1금동,5금동,5밀성고,5번,5시청,7-1번,남산1,남산2,대흥동1,대흥동2,삼랑진,수산1,수산2,초동3,초동공단.,해동1" /><tag k="highway" v="bus_stop" /><tag k="public_transport" v="platform" /></node><node id="-200209" action="modify" visible="true" lat="35.49268889" lon="128.7463861"><tag k="name" v="밀양고교" /><tag k="name:ko" v="밀양고교" /><tag k="note" v="10롯데,4-1번,4-1번.,4-1용성,4-2번,9롯데,9번,서가정5,영신3" /><tag k="highway" v="bus_stop" /><tag k="public_transport" v="platform" /></node><node id="-200210" action="modify" visible="true" lat="35.49273611" lon="128.7465583"><tag k="name" v="밀양고교" /><tag k="name:ko" v="밀양고교" /><tag k="note" v="4-2번,7-1번,9롯데,9번,서가정5,영신3" /><tag k="highway" v="bus_stop" /><tag k="public_transport" v="platform" /></node><node id="-200211" action="modify" visible="true" lat="35.51265278" lon="128.7400028"><tag k="name" v="밀양구치소" /><tag k="name:ko" v="밀양구치소" /><tag k="note" v="4대항4,4퇴로4,4퇴로7" /><tag k="highway" v="bus_stop" /><tag k="public_transport" v="platform" /></node><node id="-200212" action="modify" visible="true" lat="35.51255556" lon="128.7399472"><tag k="name" v="밀양구치소" /><tag k="name:ko" v="밀양구치소" /><tag k="note" v="4대항5,4대항9,4퇴로3,7지동" /><tag k="highway" v="bus_stop" /><tag k="public_transport" v="platform" /></node><node id="-200213" action="modify" visible="true" lat="35.48729444" lon="128.7489194"><tag k="name" v="밀양병원" /><tag k="name:ko" v="밀양병원" /><tag k="note" v="7-1번,7롯데,7번,7삼랑,7지동,9롯데,9번,남산2,대흥동1,수산1" /><tag k="highway" v="bus_stop" /><tag k="public_transport" v="platform" /></node><node id="-200214" action="modify" visible="true" lat="35.49995556" lon="128.7582889"><tag k="name" v="밀양소방서" /><tag k="name:ko" v="밀양소방서" /><tag k="note" v="감물리5,고례3,국전3,도곡2,발례2,신곡6,얼음골3,표충사3" /><tag k="highway" v="bus_stop" /><tag k="public_transport" v="platform" /></node><node id="-200215" action="modify" visible="true" lat="35.49989722" lon="128.7578278"><tag k="name" v="밀양소방서" /><tag k="name:ko" v="밀양소방서" /><tag k="note" v="감물리4,고례2,국전2,도곡1,발례1,신곡3,신곡4,얼음골2,엄광2,옥산2,표충사2" /><tag k="highway" v="bus_stop" /><tag k="public_transport" v="platform" /></node><node id="-200216" action="modify" visible="true" lat="35.48522222" lon="128.756"><tag k="name" v="밀양시보건소" /><tag k="name:ko" v="밀양시보건소" /><tag k="note" v="10롯데,4-2번" /><tag k="highway" v="bus_stop" /><tag k="public_transport" v="platform" /></node><node id="-200217" action="modify" visible="true" lat="35.48510556" lon="128.7561417"><tag k="name" v="밀양시보건소" /><tag k="name:ko" v="밀양시보건소" /><tag k="note" v="4-2번" /><tag k="highway" v="bus_stop" /><tag k="public_transport" v="platform" /></node><node id="-200218" action="modify" visible="true" lat="35.48324444" lon="128.7589611"><tag k="name" v="밀양여중" /><tag k="name:ko" v="밀양여중" /><tag k="note" v="1-2가곡,1-2금동,1-2번,1-2부산대,1가곡,1금동,1번,1부산대,1서가정,1용성,1초동,1칠성,2가곡,2금동,2번,2부산대,2용성,2청운,2초동,2칠성,3-1번,3-1부산대,3금곡,3번,3상동,4-2번,5번,6-1번,6번,6부산대,6상동,6상동1,6상동2,6엄광,6활성,6활성1,7-1번,7롯데,7번,7삼랑,7지동,가곡,수산2,화봉1" /><tag k="highway" v="bus_stop" /><tag k="public_transport" v="platform" /></node><node id="-200219" action="modify" visible="true" lat="35.48302778" lon="128.7589833"><tag k="name" v="밀양여중" /><tag k="name:ko" v="밀양여중" /><tag k="note" v="1-2가곡,1-2금동,1-2번,1-2부산대,1가곡,1금동,1번,1부산대,1서가정,1용성,1칠성,1칠성.,2가곡,2번,2부산대,2용성,2초동,2초동.,2칠성,3-1번,3-1부산대,3금곡,3번,3상동,4-1롯데,4-1번,4-1번.,4-1용성,4-1청운,4-2번,4구기,4대항1,4대항2,4대항3,4대항4,4대항5,4대항6,4대항7,4대항8,4대항9,4부산대,4퇴로1,4퇴로2,4퇴로3,4퇴로4,4퇴로5,4퇴로6,4퇴로7,4퇴로8,5금동,5밀성고,5번,5시청,6-1번,6번,6부산대,6상동,6상동2,6엄광,6활성,9롯데,가곡,감물리1,국전1,수산2,얼음골1,용성1,표충사1,화봉1" /><tag k="highway" v="bus_stop" /><tag k="public_transport" v="platform" /></node><node id="-200220" action="modify" visible="true" lat="35.47370833" lon="128.7707278"><tag k="name" v="밀양역" /><tag k="name:ko" v="밀양역" /><tag k="note" v="1-2가곡,1-2금동,1-2금동,1-2번,1-2부산대,1가곡,1금동,1금동,1번,1부산대,1서가정,1용성,1초동,1칠성,2가곡,2번,2부산대,2용성,2청운,2초동,2칠성,3-1번,3-1부산대,3금곡,3번,3상동,4-1롯데,4-1번,4-1번.,4-1용성,4-1청운,4-2번,4구기,4대항1,4대항2,4대항3,4대항4,4대항5,4대항6,4대항7,4대항8,4대항9,4번,4초동,4퇴로1,4퇴로2,4퇴로3,4퇴로4,4퇴로5,4퇴로6,4퇴로7,4퇴로8,5금동,5밀성고,5번,5시청,6-1번,6번,6부산대,6상동,6상동1,6상동2,6엄광,6용성,6활성,6활성1,7-1번,7롯데,7번,7삼랑,7지동,9롯데,9번,가곡,남산1,대흥동2,부산대1,부산대1-2,부산대2,부산대3,부산대4,부산대4-1,부산대6,부산대7,부산대7-1,삼랑1,삼랑2,삼랑3-1,삼랑4,삼랑4-1,삼랑7,삼랑진,수산2,용성0,용성2,용성7,칠성1-2,칠성2,해동1,화봉1" /><tag k="highway" v="bus_stop" /><tag k="public_transport" v="platform" /></node><node id="-200221" action="modify" visible="true" lat="35.4734" lon="128.7709667"><tag k="name" v="밀양역" /><tag k="name:ko" v="밀양역" /><tag k="note" v="1-2가곡,1-2금동,1-2번,1-2부산대,1가곡,1금동,1번,1부산대,1서가정,1용성,1칠성,1칠성.,2가곡,2금동,2번,2부산대,2용성,2초동,2초동.,2칠성,3-1번,3-1부산대,3금곡,3번,3상동,4-1롯데,4-1번,4-1번.,4-1용성,4-1청운,4-2번,4구기,4대항1,4대항2,4대항3,4대항4,4대항5,4대항6,4대항7,4대항8,4대항9,4부산대,4퇴로1,4퇴로2,4퇴로3,4퇴로4,4퇴로5,4퇴로6,4퇴로7,4퇴로8,5금동,5밀성고,5번,5번,5시청,6-1번,6번,6부산대,6상동,6상동2,6엄광,6활성,7-1번,7롯데,7번,7삼랑,7지동,9롯데,9번,가곡,금동1,금동1-2,금동2,금동4,금동7-1,남산1,대흥동2,삼랑진,용성,용성1,칠성,해동1,화봉1" /><tag k="highway" v="bus_stop" /><tag k="public_transport" v="platform" /></node><node id="-200222" action="modify" visible="true" lat="35.47306389" lon="128.7726111"><tag k="name" v="밀양역(종점)" /><tag k="name:ko" v="밀양역(종점)" /><tag k="note" v="1-2가곡,1-2금동,1-2번,1-2번,1-2부산대,1가곡,1금동,1번,1번,1부산대,1서가정,1서가정,1용성,1초동,1칠성,2가곡,2번,2번,2부산대,2용성,2청운,2초동,2칠성,3-1번,3-1번,3금곡,3금곡,3번,3번,3상동,4-1롯데,4-1번,4-1번,4-1번.,4-1번.,4-1용성,4-1청운,4-1청운,4-2번,4구기,4대항1,4대항1,4대항2,4대항2,4대항3,4대항3,4대항4,4대항4,4대항5,4대항5,4대항6,4대항6,4대항7,4대항7,4대항8,4대항8,4대항9,4번,4부산대,4초동,4퇴로1,4퇴로1,4퇴로2,4퇴로3,4퇴로3,4퇴로4,4퇴로4,4퇴로5,4퇴로6,4퇴로6,4퇴로7,4퇴로8,4퇴로8,5번,5번,5시청,6-1번,6-1번,6번,6번,6부산대,6상동,6상동,6상동1,6상동2,6엄광,6엄광,6활성,6활성1,7-1번,7-1번,7롯데,7번,7번,7삼랑,7지동,7지동,9롯데,9번,9번,공차-운행종료,공차-정비,남산1,남산1,대흥동2,삼랑7,삼랑진,삼랑진,해동1,해동1,화봉1,화봉1" /><tag k="highway" v="bus_stop" /><tag k="public_transport" v="platform" /></node><node id="-200223" action="modify" visible="true" lat="35.48983883" lon="128.7465396"><tag k="name" v="밀양제2교" /><tag k="name:ko" v="밀양제2교" /><tag k="note" v="4-2번,7-1번,9롯데,9번,남산2,대흥동1,수산1" /><tag k="highway" v="bus_stop" /><tag k="public_transport" v="platform" /></node><node id="-200224" action="modify" visible="true" lat="35.48885091" lon="128.7542257"><tag k="name" v="밀양초등학교" /><tag k="name:ko" v="밀양초등학교" /><tag k="note" v="1-2가곡,1-2금동,1-2번,1-2부산대,1가곡,1금동,1번,1부산대,1서가정,1용성,1초동,1칠성,2가곡,2금동,2번,2부산대,2용성,2청운,2초동,2칠성,3-1번,3-1부산대,3금곡,3번,3상동,5번,6-1번,6번,6부산대,6상동,6상동1,6상동2,6엄광,6활성,6활성1,7-1번,7롯데,7번,7삼랑,7지동,가곡,수산2,화봉1" /><tag k="highway" v="bus_stop" /><tag k="public_transport" v="platform" /></node><node id="-200225" action="modify" visible="true" lat="35.48831032" lon="128.754528"><tag k="name" v="밀양초등학교" /><tag k="name:ko" v="밀양초등학교" /><tag k="note" v="1-2가곡,1-2금동,1-2번,1-2부산대,10롯데,1가곡,1금동,1번,1부산대,1서가정,1용성,1칠성,1칠성.,2가곡,2번,2부산대,2용성,2초동,2초동.,2칠성,3-1번,3-1부산대,3금곡,3번,3상동,4-1롯데,4-1번,4-1번.,4-1용성,4-1청운,4구기,4대항1,4대항2,4대항3,4대항4,4대항5,4대항6,4대항7,4대항8,4대항9,4부산대,4퇴로1,4퇴로2,4퇴로3,4퇴로4,4퇴로5,4퇴로6,4퇴로7,4퇴로8,5금동,5밀성고,5번,5시청,6-1번,6번,6부산대,6상동,6상동2,6엄광,6활성,가곡,감물리1,국전1,수산2,얼음골1,용성1,표충사1,화봉1" /><tag k="highway" v="bus_stop" /><tag k="public_transport" v="platform" /></node><node id="-200226" action="modify" visible="true" lat="35.49514297" lon="128.7522358"><tag k="name" v="밀양택시" /><tag k="name:ko" v="밀양택시" /><tag k="note" v="1-2가곡,1-2금동,1-2번,1-2부산대,10롯데,1가곡,1금동,1번,1부산대,1용성,1칠성,1칠성.,3-1번,3-1부산대,3상동,4-1번.,4-1용성,4대항1,4대항3,4대항7,4대항9,4부산대,4퇴로2,4퇴로4,4퇴로5,4퇴로7,5금동,5밀성고,5번,5시청,6번,6부산대,6상동,6상동2,6엄광,6활성,가곡,감물리1,감물리5,고례3,국전1,국전3,도곡2,발례2,신곡6,얼음골1,얼음골3,용성1,표충사1,표충사3,화봉1" /><tag k="highway" v="bus_stop" /><tag k="public_transport" v="platform" /></node><node id="-200227" action="modify" visible="true" lat="35.50401944" lon="128.7545583"><tag k="name" v="밀양향교" /><tag k="name:ko" v="밀양향교" /><tag k="note" v="1-2가곡,1-2금동,1-2번,1-2부산대,1가곡,1금동,1번,1부산대,1서가정,1용성,1초동,1칠성,3-1번,3-1부산대,3금곡,3번,3상동,4-2번,5시청,6-1번,6번,6부산대,6상동,6상동1,6상동2,6엄광,6활성,6활성1,9롯데,9번,가곡,감물리2,감물리3,감물리5,고례1,고례3,국전,국전3,발례,발례2,상동,신곡7,얼음골3,엄광1,옥산,표충사3,화봉1" /><tag k="highway" v="bus_stop" /><tag k="public_transport" v="platform" /></node><node id="-200228" action="modify" visible="true" lat="35.47825278" lon="128.76385"><tag k="name" v="밀주초등학교" /><tag k="name:ko" v="밀주초등학교" /><tag k="note" v="1-2가곡,1-2금동,1-2번,1-2부산대,1가곡,1금동,1번,1부산대,1서가정,1용성,1칠성,1칠성.,2가곡,2번,2부산대,2용성,2초동,2초동.,2칠성,3-1번,3-1부산대,3금곡,3번,3상동,4-1롯데,4-1번,4-1번.,4-1용성,4-1청운,4-2번,4구기,4대항1,4대항2,4대항3,4대항4,4대항5,4대항6,4대항7,4대항8,4대항9,4부산대,4퇴로1,4퇴로2,4퇴로3,4퇴로4,4퇴로5,4퇴로6,4퇴로7,4퇴로8,5금동,5밀성고,5번,5시청,6-1번,6번,6부산대,6상동,6상동2,6엄광,6활성,가곡,용성1,화봉1" /><tag k="highway" v="bus_stop" /><tag k="public_transport" v="platform" /></node><node id="-200229" action="modify" visible="true" lat="35.53329722" lon="128.8485111"><tag k="name" v="박산" /><tag k="name:ko" v="박산" /><tag k="note" v="발례,발례1,발례2,얼음골,얼음골1,얼음골2,얼음골3" /><tag k="highway" v="bus_stop" /><tag k="public_transport" v="platform" /></node><node id="-200230" action="modify" visible="true" lat="35.53334166" lon="128.8485528"><tag k="name" v="박산" /><tag k="name:ko" v="박산" /><tag k="note" v="발례,발례1,발례2,얼음골,얼음골1,얼음골2,얼음골3" /><tag k="highway" v="bus_stop" /><tag k="public_transport" v="platform" /></node><node id="-200231" action="modify" visible="true" lat="35.56876667" lon="128.8901611"><tag k="name" v="발례종점" /><tag k="name:ko" v="발례종점" /><tag k="note" v="발례1,발례2" /><tag k="highway" v="bus_stop" /><tag k="public_transport" v="platform" /></node><node id="-200232" action="modify" visible="true" lat="35.56781389" lon="128.8841222"><tag k="name" v="발음" /><tag k="name:ko" v="발음" /><tag k="note" v="발례,발례1,발례2" /><tag k="highway" v="bus_stop" /><tag k="public_transport" v="platform" /></node><node id="-200233" action="modify" visible="true" lat="35.5679" lon="128.8840806"><tag k="name" v="발음" /><tag k="name:ko" v="발음" /><tag k="note" v="발례1,발례2" /><tag k="highway" v="bus_stop" /><tag k="public_transport" v="platform" /></node><node id="-200234" action="modify" visible="true" lat="35.59915556" lon="128.9338306"><tag k="name" v="백동골" /><tag k="name:ko" v="백동골" /><tag k="note" v="얼음골,얼음골1,얼음골2,얼음골3" /><tag k="highway" v="bus_stop" /><tag k="public_transport" v="platform" /></node><node id="-200235" action="modify" visible="true" lat="35.59908333" lon="128.9337694"><tag k="name" v="백동골" /><tag k="name:ko" v="백동골" /><tag k="note" v="얼음골,얼음골1,얼음골2,얼음골3" /><tag k="highway" v="bus_stop" /><tag k="public_transport" v="platform" /></node><node id="-200236" action="modify" visible="true" lat="35.37204803" lon="128.7455846"><tag k="name" v="백산" /><tag k="name:ko" v="백산" /><tag k="note" v="상촌,수산1,수산2,오산" /><tag k="highway" v="bus_stop" /><tag k="public_transport" v="platform" /></node><node id="-200237" action="modify" visible="true" lat="35.37204901" lon="128.7456726"><tag k="name" v="백산" /><tag k="name:ko" v="백산" /><tag k="note" v="상촌,수산1,수산2,오산" /><tag k="highway" v="bus_stop" /><tag k="public_transport" v="platform" /></node><node id="-200238" action="modify" visible="true" lat="35.49411111" lon="128.6997722"><tag k="name" v="백안" /><tag k="name:ko" v="백안" /><tag k="note" v="1서가정,2초동,구기3,대촌1,대촌2,두곡,서가정1,서가정2,서가정3,서가정4,서가정5,서가정6,소태,영신2,영신3,조천,조천1,초동2,초동3,초동공단,초동공단.,화봉1" /><tag k="highway" v="bus_stop" /><tag k="public_transport" v="platform" /></node><node id="-200239" action="modify" visible="true" lat="35.49419722" lon="128.6998056"><tag k="name" v="백안" /><tag k="name:ko" v="백안" /><tag k="note" v="1서가정,1초동,2초동,구기3,대촌1,대촌2,두곡,서가정1,서가정2,서가정3,서가정4,서가정5,서가정6,소태,영신2,영신3,조천,조천2,초동2,초동공단,초동면소,초동면소.,화봉1" /><tag k="highway" v="bus_stop" /><tag k="public_transport" v="platform" /></node><node id="-200240" action="modify" visible="true" lat="35.51697777" lon="128.91065"><tag k="name" v="범도" /><tag k="name:ko" v="범도" /><tag k="note" v="고례1,고례2,고례3" /><tag k="highway" v="bus_stop" /><tag k="public_transport" v="platform" /></node><node id="-200241" action="modify" visible="true" lat="35.51691389" lon="128.9106528"><tag k="name" v="범도" /><tag k="name:ko" v="범도" /><tag k="note" v="고례1,고례2,고례3" /><tag k="highway" v="bus_stop" /><tag k="public_transport" v="platform" /></node><node id="-200242" action="modify" visible="true" lat="35.51167056" lon="128.7611973"><tag k="name" v="범북" /><tag k="name:ko" v="범북" /><tag k="note" v="3-1번,3-1부산대,3금곡,3번,3상동,6-1번,6번,6부산대,6상동,6상동1,6상동2,6활성,6활성1,감물리,감물리1,감물리2,감물리3,감물리4,감물리5,고례1,고례2,고례3,국전,국전1,국전2,국전3,국전4,도곡1,도곡2,도곡4,발례,발례1,발례2,상동,신곡1,신곡3,신곡4,신곡5,신곡6,신곡7,얼음골,얼음골1,얼음골2,얼음골3,옥산,옥산1,옥산2,표충사,표충사1,표충사2,표충사3" /><tag k="highway" v="bus_stop" /><tag k="public_transport" v="platform" /></node><node id="-200243" action="modify" visible="true" lat="35.51186389" lon="128.7610944"><tag k="name" v="범북" /><tag k="name:ko" v="범북" /><tag k="note" v="3-1번,3-1부산대,3금곡,3번,3상동,6-1번,6번,6부산대,6상동,6상동1,6상동2,6활성,6활성1,감물리,감물리1,감물리2,감물리3,감물리4,감물리5,고례1,고례2,고례3,국전,국전1,국전2,국전3,국전4,도곡1,도곡2,도곡4,발례,발례1,발례2,상동,신곡1,신곡3,신곡4,신곡5,신곡6,신곡7,얼음골,얼음골1,얼음골2,얼음골3,엄광2,옥산,옥산1,옥산2,표충사,표충사1,표충사2,표충사3" /><tag k="highway" v="bus_stop" /><tag k="public_transport" v="platform" /></node><node id="-200244" action="modify" visible="true" lat="35.51230556" lon="128.7638861"><tag k="name" v="범북" /><tag k="name:ko" v="범북" /><tag k="note" v="3-1번,3-1부산대,3금곡,3번,3상동,6-1번,6번,6부산대,6상동,6상동1,6상동2,6엄광,상동,엄광1,엄광2" /><tag k="highway" v="bus_stop" /><tag k="public_transport" v="platform" /></node><node id="-200245" action="modify" visible="true" lat="35.512475" lon="128.7637222"><tag k="name" v="범북" /><tag k="name:ko" v="범북" /><tag k="note" v="3-1번,3-1부산대,3번,6엄광,엄광1" /><tag k="highway" v="bus_stop" /><tag k="public_transport" v="platform" /></node><node id="-200246" action="modify" visible="true" lat="35.48101667" lon="128.8481667"><tag k="name" v="법흥" /><tag k="name:ko" v="법흥" /><tag k="note" v="감물리2,감물리3,감물리4,감물리5" /><tag k="highway" v="bus_stop" /><tag k="public_transport" v="platform" /></node><node id="-200247" action="modify" visible="true" lat="35.48097131" lon="128.8483055"><tag k="name" v="법흥" /><tag k="name:ko" v="법흥" /><tag k="note" v="감물리,감물리1,감물리2,감물리4,감물리5" /><tag k="highway" v="bus_stop" /><tag k="public_transport" v="platform" /></node><node id="-200248" action="modify" visible="true" lat="35.50766666" lon="128.8337361"><tag k="name" v="본촌" /><tag k="name:ko" v="본촌" /><tag k="note" v="3금곡,감물리,감물리1,감물리2,감물리3,감물리4,감물리5,고례1,고례2,고례3,국전,국전1,국전2,국전3,국전4,발례,발례1,발례2,얼음골,얼음골1,얼음골2,얼음골3,표충사,표충사1,표충사2,표충사3" /><tag k="highway" v="bus_stop" /><tag k="public_transport" v="platform" /></node><node id="-200249" action="modify" visible="true" lat="35.50760556" lon="128.8338694"><tag k="name" v="본촌" /><tag k="name:ko" v="본촌" /><tag k="note" v="3금곡,감물리,감물리1,감물리2,감물리3,감물리4,감물리5,고례1,고례2,고례3,국전,국전1,국전2,국전3,국전4,발례,발례1,발례2,얼음골,얼음골1,얼음골2,얼음골3,표충사,표충사1,표충사2,표충사3" /><tag k="highway" v="bus_stop" /><tag k="public_transport" v="platform" /></node><node id="-200250" action="modify" visible="true" lat="35.52661666" lon="128.7200833"><tag k="name" v="봉계삼거리" /><tag k="name:ko" v="봉계삼거리" /><tag k="note" v="4구기,4대항1,4대항2,4대항3,4대항6,4대항7,4대항8,4퇴로1,4퇴로2,4퇴로3,4퇴로5,4퇴로6,4퇴로8,구기1,조천1" /><tag k="highway" v="bus_stop" /><tag k="public_transport" v="platform" /></node><node id="-200251" action="modify" visible="true" lat="35.52646389" lon="128.7201889"><tag k="name" v="봉계삼거리" /><tag k="name:ko" v="봉계삼거리" /><tag k="note" v="2청운,4-1청운,4구기,4대항1,4대항2,4대항3,4대항4,4대항6,4대항7,4대항8,4퇴로1,4퇴로2,4퇴로4,4퇴로5,4퇴로6,4퇴로7,4퇴로8,구기1,조천2,청운,청운." /><tag k="highway" v="bus_stop" /><tag k="public_transport" v="platform" /></node><node id="-200252" action="modify" visible="true" lat="35.45272778" lon="128.6920778"><tag k="name" v="봉황" /><tag k="name:ko" v="봉황" /><tag k="note" v="2초동,초동2,초동3,초동공단,초동공단." /><tag k="highway" v="bus_stop" /><tag k="public_transport" v="platform" /></node><node id="-200253" action="modify" visible="true" lat="35.45268055" lon="128.6918444"><tag k="name" v="봉황" /><tag k="name:ko" v="봉황" /><tag k="note" v="1초동,2초동,초동2,초동공단,초동면소,초동면소." /><tag k="highway" v="bus_stop" /><tag k="public_transport" v="platform" /></node><node id="-200254" action="modify" visible="true" lat="35.51133889" lon="128.7289028"><tag k="name" v="부북농협" /><tag k="name:ko" v="부북농협" /><tag k="note" v="2청운,4-1청운,4구기,4대항1,4대항2,4대항3,4대항4,4대항6,4대항7,4대항8,4부산대,4퇴로1,4퇴로2,4퇴로4,4퇴로5,4퇴로6,4퇴로7,4퇴로8,7-1번,7롯데,7번,7삼랑,7지동,구기1,청운,청운." /><tag k="highway" v="bus_stop" /><tag k="public_transport" v="platform" /></node><node id="-200255" action="modify" visible="true" lat="35.51155833" lon="128.7291972"><tag k="name" v="부북농협" /><tag k="name:ko" v="부북농협" /><tag k="note" v="4구기,4대항1,4대항2,4대항3,4대항5,4대항6,4대항7,4대항8,4대항9,4퇴로1,4퇴로2,4퇴로3,4퇴로5,4퇴로6,4퇴로8,7롯데,구기1" /><tag k="highway" v="bus_stop" /><tag k="public_transport" v="platform" /></node><node id="-200256" action="modify" visible="true" lat="35.45376667" lon="128.8066806"><tag k="name" v="부산대학교밀양캠퍼스" /><tag k="name:ko" v="부산대학교밀양캠퍼스" /><tag k="note" v="1-2부산대,1부산대,1용성,1칠성,1칠성.,2부산대,2용성,2칠성,3-1부산대,4-1용성,4부산대,4퇴로2,6부산대,6상동2,6용성,7롯데,7삼랑,부산대1,부산대1-2,부산대2,부산대3,부산대4,부산대4-1,부산대6,부산대7,부산대7-1,삼랑1,삼랑2,삼랑3-1,삼랑4,삼랑4-1,삼랑7,용성,용성0,용성1,용성2,용성7,칠성,칠성1-2,칠성2" /><tag k="highway" v="bus_stop" /><tag k="public_transport" v="platform" /></node><node id="-200257" action="modify" visible="true" lat="35.48049167" lon="128.7620556"><tag k="name" v="부전아파트" /><tag k="name:ko" v="부전아파트" /><tag k="note" v="1-2가곡,1-2금동,1-2번,1-2부산대,1가곡,1금동,1번,1부산대,1서가정,1용성,1칠성,1칠성.,2가곡,2번,2부산대,2용성,2초동,2초동.,2칠성,3-1번,3-1부산대,3금곡,3번,3상동,4-1롯데,4-1번,4-1번.,4-1용성,4-1청운,4-2번,4구기,4대항1,4대항2,4대항3,4대항4,4대항5,4대항6,4대항7,4대항8,4대항9,4부산대,4퇴로1,4퇴로2,4퇴로3,4퇴로4,4퇴로5,4퇴로6,4퇴로7,4퇴로8,5금동,5밀성고,5번,5시청,6-1번,6번,6부산대,6상동,6상동2,6엄광,6활성,9롯데,가곡,감물리1,국전1,수산2,얼음골1,용성1,표충사1,화봉1" /><tag k="highway" v="bus_stop" /><tag k="public_transport" v="platform" /></node><node id="-200258" action="modify" visible="true" lat="35.49578889" lon="128.7511861"><tag k="name" v="북성사거리" /><tag k="name:ko" v="북성사거리" /><tag k="note" v="1-2가곡,1-2금동,1-2번,1-2부산대,1가곡,1금동,1번,1부산대,1용성,1칠성,1칠성.,3-1번,3-1부산대,3상동,4-1번.,4-1용성,4-2번,4대항1,4대항3,4대항7,4대항9,4부산대,4퇴로2,4퇴로4,4퇴로5,4퇴로7,5시청,6번,6부산대,6상동,6상동2,6엄광,6활성,7-1번,9롯데,9번,가곡,감물리5,고례3,국전3,도곡2,서가정5,수산2,신곡6,얼음골3,영신3,용성1,표충사3,화봉1" /><tag k="highway" v="bus_stop" /><tag k="public_transport" v="platform" /></node><node id="-200259" action="modify" visible="true" lat="35.49591111" lon="128.7510083"><tag k="name" v="북성사거리" /><tag k="name:ko" v="북성사거리" /><tag k="note" v="2가곡,2금동,2번,2부산대,2용성,2청운,2청운,2초동,2초동,2칠성,4-1번,4-1번.,4-1용성,4-1청운,5번,6-1번,6번,6부산대,6상동,6상동1,6상동2,6엄광,6활성,6활성1,감물리,감물리4,고례2,국전2,국전4,도곡1,도곡2,도곡4,발례1,서가정5,수산2,신곡1,신곡3,신곡4,신곡5,신곡6,얼음골,얼음골2,엄광2,영신3,옥산1,옥산2,표충사,표충사2" /><tag k="highway" v="bus_stop" /><tag k="public_transport" v="platform" /></node><node id="-200260" action="modify" visible="true" lat="35.50034722" lon="128.7461278"><tag k="name" v="북성지구대" /><tag k="name:ko" v="북성지구대" /><tag k="note" v="10롯데" /><tag k="highway" v="bus_stop" /><tag k="public_transport" v="platform" /></node><node id="-200261" action="modify" visible="true" lat="35.41068333" lon="128.7510889"><tag k="name" v="사당동" /><tag k="name:ko" v="사당동" /><tag k="note" v="남산1,남산2" /><tag k="highway" v="bus_stop" /><tag k="public_transport" v="platform" /></node><node id="-200262" action="modify" visible="true" lat="35.41086389" lon="128.7511306"><tag k="name" v="사당동" /><tag k="name:ko" v="사당동" /><tag k="note" v="남산1,남산2" /><tag k="highway" v="bus_stop" /><tag k="public_transport" v="platform" /></node><node id="-200263" action="modify" visible="true" lat="35.51516111" lon="128.8816139"><tag k="name" v="사연" /><tag k="name:ko" v="사연" /><tag k="note" v="고례1,고례2,고례3,표충사,표충사1,표충사2,표충사3" /><tag k="highway" v="bus_stop" /><tag k="public_transport" v="platform" /></node><node id="-200264" action="modify" visible="true" lat="35.5151" lon="128.8817889"><tag k="name" v="사연" /><tag k="name:ko" v="사연" /><tag k="note" v="고례1,고례2,고례3,표충사,표충사1,표충사2,표충사3" /><tag k="highway" v="bus_stop" /><tag k="public_transport" v="platform" /></node><node id="-200265" action="modify" visible="true" lat="35.473475" lon="128.8439833"><tag k="name" v="사지" /><tag k="name:ko" v="사지" /><tag k="note" v="감물리2,감물리3,감물리4,감물리5" /><tag k="highway" v="bus_stop" /><tag k="public_transport" v="platform" /></node><node id="-200266" action="modify" visible="true" lat="35.473625" lon="128.8440389"><tag k="name" v="사지" /><tag k="name:ko" v="사지" /><tag k="note" v="감물리,감물리1,감물리2,감물리4,감물리5" /><tag k="highway" v="bus_stop" /><tag k="public_transport" v="platform" /></node><node id="-200267" action="modify" visible="true" lat="35.49665" lon="128.8380972"><tag k="name" v="사촌" /><tag k="name:ko" v="사촌" /><tag k="note" v="감물리,감물리,감물리1,감물리1,감물리2,감물리3,감물리4,감물리4,감물리5" /><tag k="highway" v="bus_stop" /><tag k="public_transport" v="platform" /></node><node id="-200268" action="modify" visible="true" lat="35.49673056" lon="128.8378611"><tag k="name" v="사촌" /><tag k="name:ko" v="사촌" /><tag k="note" v="감물리,감물리1,감물리2,감물리2,감물리3,감물리3,감물리4,감물리5,감물리5" /><tag k="highway" v="bus_stop" /><tag k="public_transport" v="platform" /></node><node id="-200269" action="modify" visible="true" lat="35.47904722" lon="128.76345"><tag k="name" v="삼강그린아파트" /><tag k="name:ko" v="삼강그린아파트" /><tag k="note" v="1-2가곡,1-2금동,1-2번,1-2부산대,1가곡,1금동,1번,1부산대,1서가정,1용성,1초동,1칠성,2가곡,2금동,2번,2부산대,2용성,2청운,2초동,2칠성,3-1번,3-1부산대,3금곡,3번,3상동,4-2번,5번,6-1번,6번,6부산대,6상동,6상동1,6상동2,6엄광,6활성,6활성1,7-1번,7롯데,7번,7삼랑,7지동,가곡,수산2,화봉1" /><tag k="highway" v="bus_stop" /><tag k="public_transport" v="platform" /></node><node id="-200270" action="modify" visible="true" lat="35.52434444" lon="128.920775"><tag k="name" v="삼거" /><tag k="name:ko" v="삼거" /><tag k="note" v="표충사,표충사1,표충사2,표충사3" /><tag k="highway" v="bus_stop" /><tag k="public_transport" v="platform" /></node><node id="-200271" action="modify" visible="true" lat="35.52438333" lon="128.9207806"><tag k="name" v="삼거" /><tag k="name:ko" v="삼거" /><tag k="note" v="표충사,표충사1,표충사2,표충사3" /><tag k="highway" v="bus_stop" /><tag k="public_transport" v="platform" /></node><node id="-200272" action="modify" visible="true" lat="35.396425" lon="128.8359833"><tag k="name" v="삼랑진" /><tag k="name:ko" v="삼랑진" /><tag k="note" v="삼랑1,삼랑2,삼랑3-1,삼랑4,삼랑4-1,삼랑7,삼랑진" /><tag k="highway" v="bus_stop" /><tag k="public_transport" v="platform" /></node><node id="-200273" action="modify" visible="true" lat="35.39632778" lon="128.8360917"><tag k="name" v="삼랑진" /><tag k="name:ko" v="삼랑진" /><tag k="note" v="7롯데,7삼랑" /><tag k="highway" v="bus_stop" /><tag k="public_transport" v="platform" /></node><node id="-200274" action="modify" visible="true" lat="35.48643611" lon="128.7561722"><tag k="name" v="삼문동 공설운동장" /><tag k="name:ko" v="삼문동 공설운동장" /><tag k="note" v="1-2가곡,1-2금동,1-2번,1-2부산대,1가곡,1금동,1번,1부산대,1서가정,1용성,1초동,1칠성,2가곡,2금동,2번,2부산대,2용성,2청운,2초동,2칠성,3-1번,3-1부산대,3금곡,3번,3상동,5번,6-1번,6번,6부산대,6상동,6상동1,6상동2,6엄광,6활성,6활성1,7-1번,7롯데,7번,7삼랑,7지동,가곡,수산2,화봉1" /><tag k="highway" v="bus_stop" /><tag k="public_transport" v="platform" /></node><node id="-200275" action="modify" visible="true" lat="35.48290236" lon="128.7524217"><tag k="name" v="삼문동행정복지센터" /><tag k="name:ko" v="삼문동행정복지센터" /><tag k="note" v="4-2번" /><tag k="highway" v="bus_stop" /><tag k="public_transport" v="platform" /></node><node id="-200276" action="modify" visible="true" lat="35.48297656" lon="128.7519661"><tag k="name" v="삼문동행정복지센터" /><tag k="name:ko" v="삼문동행정복지센터" /><tag k="note" v="4-1롯데,4-1번,4-1번.,4-1용성,4-1청운,4-2번" /><tag k="highway" v="bus_stop" /><tag k="public_transport" v="platform" /></node><node id="-200277" action="modify" visible="true" lat="35.48262778" lon="128.7531306"><tag k="name" v="삼문동행정복지센터" /><tag k="name:ko" v="삼문동행정복지센터" /><tag k="note" v="10롯데,1초동,4구기,4대항1,4대항2,4대항3,4대항4,4대항5,4대항6,4대항7,4대항8,4대항9,4번,4퇴로1,4퇴로2,4퇴로3,4퇴로4,4퇴로5,4퇴로6,4퇴로7,4퇴로8,9롯데,9번,감물리1,국전1,남산2,대흥동1,수산1,얼음골1,초동면소,초동면소.,표충사1" /><tag k="highway" v="bus_stop" /><tag k="public_transport" v="platform" /></node><node id="-200278" action="modify" visible="true" lat="35.48451111" lon="128.7512806"><tag k="name" v="삼문주공아파트" /><tag k="name:ko" v="삼문주공아파트" /><tag k="note" v="7-1번,9롯데,9번,남산2,대흥동1,수산1,초동3,초동공단." /><tag k="highway" v="bus_stop" /><tag k="public_transport" v="platform" /></node><node id="-200279" action="modify" visible="true" lat="35.48428333" lon="128.7517917"><tag k="name" v="삼문주공아파트" /><tag k="name:ko" v="삼문주공아파트" /><tag k="note" v="1초동,4구기,4대항1,4대항2,4대항3,4대항4,4대항5,4대항6,4대항7,4대항8,4대항9,4번,4초동,4퇴로1,4퇴로2,4퇴로3,4퇴로5,4퇴로6,4퇴로7,4퇴로8,9롯데,9번,감물리1,국전1,남산2,대흥동1,수산1,얼음골1,초동면소,초동면소.,표충사1" /><tag k="highway" v="bus_stop" /><tag k="public_transport" v="platform" /></node><node id="-200280" action="modify" visible="true" lat="35.49815" lon="128.7468611"><tag k="name" v="삼성전자서비스" /><tag k="name:ko" v="삼성전자서비스" /><tag k="note" v="10롯데" /><tag k="highway" v="bus_stop" /><tag k="public_transport" v="platform" /></node><node id="-200281" action="modify" visible="true" lat="35.49273888" lon="128.7483861"><tag k="name" v="삼우아파트" /><tag k="name:ko" v="삼우아파트" /><tag k="note" v="4-2번,7-1번,9롯데,9번,서가정5,영신3" /><tag k="highway" v="bus_stop" /><tag k="public_transport" v="platform" /></node><node id="-200282" action="modify" visible="true" lat="35.49264444" lon="128.7484778"><tag k="name" v="삼우아파트" /><tag k="name:ko" v="삼우아파트" /><tag k="note" v="4-1번,4-1번.,4-1용성,4-2번,9롯데,9번,서가정5,영신3" /><tag k="highway" v="bus_stop" /><tag k="public_transport" v="platform" /></node><node id="-200283" action="modify" visible="true" lat="35.48941667" lon="128.6553361"><tag k="name" v="삼태" /><tag k="name:ko" v="삼태" /><tag k="note" v="구기3,대촌1,대촌2,두곡,소태,조천,조천2" /><tag k="highway" v="bus_stop" /><tag k="public_transport" v="platform" /></node><node id="-200284" action="modify" visible="true" lat="35.48938055" lon="128.6551778"><tag k="name" v="삼태" /><tag k="name:ko" v="삼태" /><tag k="note" v="구기3,대촌1,대촌2,두곡,소태,조천,조천1" /><tag k="highway" v="bus_stop" /><tag k="public_transport" v="platform" /></node><node id="-200285" action="modify" visible="true" lat="35.44890278" lon="128.7535028"><tag k="name" v="상남면사무소" /><tag k="name:ko" v="상남면사무소" /><tag k="note" v="1-2금동,1금동,5금동,5밀성고,5번,5시청,남산1,남산2,삼랑진,수산1,수산2,초동3,초동공단.,해동1" /><tag k="highway" v="bus_stop" /><tag k="public_transport" v="platform" /></node><node id="-200286" action="modify" visible="true" lat="35.44898333" lon="128.7536806"><tag k="name" v="상남면사무소" /><tag k="name:ko" v="상남면사무소" /><tag k="note" v="1초동,2금동,5밀성고,5번,5시청,금동1,금동1-2,금동2,금동4,금동7-1,남산1,남산2,삼랑진,수산1,수산2,초동면소,초동면소.,해동1" /><tag k="highway" v="bus_stop" /><tag k="public_transport" v="platform" /></node><node id="-200287" action="modify" visible="true" lat="35.55546389" lon="128.7615361"><tag k="name" v="상동역" /><tag k="name:ko" v="상동역" /><tag k="note" v="도곡1,도곡2,도곡4,상동,신곡1,신곡3,신곡4,신곡5,신곡6,신곡7,옥산,옥산1,옥산2" /><tag k="highway" v="bus_stop" /><tag k="public_transport" v="platform" /></node><node id="-200288" action="modify" visible="true" lat="35.55540555" lon="128.7613833"><tag k="name" v="상동역" /><tag k="name:ko" v="상동역" /><tag k="note" v="3상동,6상동,6상동1,6상동2,도곡1,도곡2,도곡4,상동,신곡1,신곡3,신곡4,신곡5,신곡6,신곡7,옥산,옥산1,옥산2" /><tag k="highway" v="bus_stop" /><tag k="public_transport" v="platform" /></node><node id="-200289" action="modify" visible="true" lat="35.473575" lon="128.8524167"><tag k="name" v="상봉" /><tag k="name:ko" v="상봉" /><tag k="note" v="감물리2,감물리3,감물리4,감물리5" /><tag k="highway" v="bus_stop" /><tag k="public_transport" v="platform" /></node><node id="-200290" action="modify" visible="true" lat="35.47360556" lon="128.8524917"><tag k="name" v="상봉" /><tag k="name:ko" v="상봉" /><tag k="note" v="감물리,감물리1,감물리2,감물리4,감물리5" /><tag k="highway" v="bus_stop" /><tag k="public_transport" v="platform" /></node><node id="-200291" action="modify" visible="true" lat="35.48519508" lon="128.7493699"><tag k="name" v="새미리벌로" /><tag k="name:ko" v="새미리벌로" /><tag k="note" v="7롯데,7번,7지동" /><tag k="highway" v="bus_stop" /><tag k="public_transport" v="platform" /></node><node id="-200292" action="modify" visible="true" lat="35.4851486" lon="128.7494681"><tag k="name" v="새미리벌로" /><tag k="name:ko" v="새미리벌로" /><tag k="note" v="10롯데,4-1롯데,4-1번,4-1번.,4-1용성,4-1청운,4-2번" /><tag k="highway" v="bus_stop" /><tag k="public_transport" v="platform" /></node><node id="-200293" action="modify" visible="true" lat="35.48646076" lon="128.6007731"><tag k="name" v="새터" /><tag k="name:ko" v="새터" /><tag k="note" v="1서가정,서가정1,서가정7" /><tag k="highway" v="bus_stop" /><tag k="public_transport" v="platform" /></node><node id="-200294" action="modify" visible="true" lat="35.48635748" lon="128.6007462"><tag k="name" v="새터" /><tag k="name:ko" v="새터" /><tag k="note" v="서가정2,서가정3,서가정4,서가정5" /><tag k="highway" v="bus_stop" /><tag k="public_transport" v="platform" /></node><node id="-200295" action="modify" visible="true" lat="35.48908333" lon="128.5903056"><tag k="name" v="서가정종점" /><tag k="name:ko" v="서가정종점" /><tag k="note" v="1서가정,서가정1,서가정2,서가정3,서가정4,서가정5,서가정6,서가정7" /><tag k="highway" v="bus_stop" /><tag k="public_transport" v="platform" /></node><node id="-200296" action="modify" visible="true" lat="35.504175" lon="128.738025"><tag k="name" v="서원유통" /><tag k="name:ko" v="서원유통" /><tag k="note" v="4구기,4대항1,4대항2,4대항3,4대항4,4대항6,4대항7,4대항8,4부산대,4퇴로1,4퇴로2,4퇴로4,4퇴로5,4퇴로6,4퇴로7,4퇴로8,7-1번,7롯데,7번,7삼랑,7지동,구기1,조천2,청운" /><tag k="highway" v="bus_stop" /><tag k="public_transport" v="platform" /></node><node id="-200297" action="modify" visible="true" lat="35.50419722" lon="128.7383806"><tag k="name" v="서원유통" /><tag k="name:ko" v="서원유통" /><tag k="note" v="4-1롯데,4-1번,4-1번.,4-1용성,4구기,4대항1,4대항2,4대항3,4대항5,4대항6,4대항7,4대항8,4대항9,4퇴로1,4퇴로2,4퇴로3,4퇴로5,4퇴로6,4퇴로8,7-1번,7롯데,7번,7삼랑,7지동,구기1,조천1" /><tag k="highway" v="bus_stop" /><tag k="public_transport" v="platform" /></node><node id="-200298" action="modify" visible="true" lat="35.52613889" lon="128.8974611"><tag k="name" v="석전" /><tag k="name:ko" v="석전" /><tag k="note" v="고례1,고례2,고례3,표충사,표충사1,표충사2,표충사3" /><tag k="highway" v="bus_stop" /><tag k="public_transport" v="platform" /></node><node id="-200299" action="modify" visible="true" lat="35.52607222" lon="128.8974111"><tag k="name" v="석전" /><tag k="name:ko" v="석전" /><tag k="note" v="고례1,고례2,고례3,표충사,표충사1,표충사2,표충사3" /><tag k="highway" v="bus_stop" /><tag k="public_transport" v="platform" /></node><node id="-200300" action="modify" visible="true" lat="35.40799444" lon="128.6954944"><tag k="name" v="성만상회" /><tag k="name:ko" v="성만상회" /><tag k="note" v="초동3,초동공단." /><tag k="highway" v="bus_stop" /><tag k="public_transport" v="platform" /></node><node id="-200301" action="modify" visible="true" lat="35.40796944" lon="128.6953361"><tag k="name" v="성만상회" /><tag k="name:ko" v="성만상회" /><tag k="note" v="1초동,초동면소,초동면소." /><tag k="highway" v="bus_stop" /><tag k="public_transport" v="platform" /></node><node id="-200302" action="modify" visible="true" lat="35.486225" lon="128.7497444"><tag k="name" v="세광아파트" /><tag k="name:ko" v="세광아파트" /><tag k="note" v="7-1번,7롯데,7번,7삼랑,7지동,9롯데,9번,남산2,수산1" /><tag k="highway" v="bus_stop" /><tag k="public_transport" v="platform" /></node><node id="-200303" action="modify" visible="true" lat="35.48648056" lon="128.7499861"><tag k="name" v="세광아파트" /><tag k="name:ko" v="세광아파트" /><tag k="note" v="10롯데,4-1롯데,4-1번,4-1번.,4-1용성,4-1청운,4-2번,4구기,4대항1,4대항2,4대항3,4대항4,4대항5,4대항6,4대항7,4대항8,4대항9,4번,4초동,4퇴로1,4퇴로2,4퇴로3,4퇴로4,4퇴로5,4퇴로6,4퇴로7,4퇴로8,9롯데,9번,감물리1,국전1,남산2,대흥동1,수산1,얼음골1,표충사1" /><tag k="highway" v="bus_stop" /><tag k="public_transport" v="platform" /></node><node id="-200304" action="modify" visible="true" lat="35.48460278" lon="128.7575917"><tag k="name" v="세무서" /><tag k="name:ko" v="세무서" /><tag k="note" v="1-2가곡,1-2금동,1-2번,1-2부산대,1가곡,1금동,1번,1부산대,1서가정,1용성,1칠성,1칠성.,2가곡,2번,2부산대,2용성,2초동,2초동.,2칠성,3-1번,3-1부산대,3금곡,3번,3상동,4-1롯데,4-1번,4-1번.,4-1용성,4-1청운,4-2번,4구기,4대항1,4대항2,4대항3,4대항4,4대항5,4대항6,4대항7,4대항8,4대항9,4부산대,4퇴로1,4퇴로2,4퇴로3,4퇴로4,4퇴로5,4퇴로6,4퇴로7,4퇴로8,5금동,5밀성고,5번,5시청,6-1번,6번,6부산대,6상동,6상동2,6엄광,6활성,가곡,감물리1,국전1,수산2,얼음골1,용성1,표충사1,화봉1" /><tag k="highway" v="bus_stop" /><tag k="public_transport" v="platform" /></node><node id="-200305" action="modify" visible="true" lat="35.47344166" lon="128.763325"><tag k="name" v="세종고교(뚝길)" /><tag k="name:ko" v="세종고교(뚝길)" /><tag k="note" v="9롯데,감물리1,국전1,수산2,얼음골1,표충사1" /><tag k="highway" v="bus_stop" /><tag k="public_transport" v="platform" /></node><node id="-200306" action="modify" visible="true" lat="35.4761" lon="128.7660111"><tag k="name" v="세종병원" /><tag k="name:ko" v="세종병원" /><tag k="note" v="1-2가곡,1-2금동,1-2번,1-2부산대,1가곡,1금동,1번,1부산대,1서가정,1용성,1초동,1칠성,2가곡,2금동,2번,2부산대,2용성,2청운,2초동,2칠성,3-1번,3-1부산대,3금곡,3번,3상동,4-2번,5번,6-1번,6번,6부산대,6상동,6상동1,6상동2,6엄광,6활성,6활성1,7-1번,7롯데,수산2,화봉1" /><tag k="highway" v="bus_stop" /><tag k="public_transport" v="platform" /></node><node id="-200307" action="modify" visible="true" lat="35.40445277" lon="128.7603528"><tag k="name" v="세천" /><tag k="name:ko" v="세천" /><tag k="note" v="1초동,초동3,초동공단.,초동면소,초동면소." /><tag k="highway" v="bus_stop" /><tag k="public_transport" v="platform" /></node><node id="-200308" action="modify" visible="true" lat="35.57319167" lon="128.8742667"><tag k="name" v="소고" /><tag k="name:ko" v="소고" /><tag k="note" v="발례1,발례1,발례2,발례2,얼음골,얼음골1,얼음골2,얼음골3" /><tag k="highway" v="bus_stop" /><tag k="public_transport" v="platform" /></node><node id="-200309" action="modify" visible="true" lat="35.57314444" lon="128.8744083"><tag k="name" v="소고" /><tag k="name:ko" v="소고" /><tag k="note" v="발례1,발례1,발례2,발례2,얼음골,얼음골1,얼음골2,얼음골3" /><tag k="highway" v="bus_stop" /><tag k="public_transport" v="platform" /></node><node id="-200310" action="modify" visible="true" lat="35.56631389" lon="128.6194944"><tag k="name" v="소태종점" /><tag k="name:ko" v="소태종점" /><tag k="note" v="소태" /><tag k="highway" v="bus_stop" /><tag k="public_transport" v="platform" /></node><node id="-200311" action="modify" visible="true" lat="35.56394444" lon="128.8107944"><tag k="name" v="솔방입구" /><tag k="name:ko" v="솔방입구" /><tag k="note" v="신곡1" /><tag k="highway" v="bus_stop" /><tag k="public_transport" v="platform" /></node><node id="-200312" action="modify" visible="true" lat="35.51717778" lon="128.7745361"><tag k="name" v="송림휴게소" /><tag k="name:ko" v="송림휴게소" /><tag k="note" v="3-1번,3-1부산대,3번,3상동,6-1번,6번,6부산대,6상동,6상동1,6상동2,상동" /><tag k="highway" v="bus_stop" /><tag k="public_transport" v="platform" /></node><node id="-200313" action="modify" visible="true" lat="35.58626111" lon="128.8814611"><tag k="name" v="송백" /><tag k="name:ko" v="송백" /><tag k="note" v="발례,발례,얼음골,얼음골1,얼음골2,얼음골3" /><tag k="highway" v="bus_stop" /><tag k="public_transport" v="platform" /></node><node id="-200314" action="modify" visible="true" lat="35.58631111" lon="128.8813944"><tag k="name" v="송백" /><tag k="name:ko" v="송백" /><tag k="note" v="발례1,발례1,발례2,발례2,얼음골,얼음골1,얼음골2,얼음골3" /><tag k="highway" v="bus_stop" /><tag k="public_transport" v="platform" /></node><node id="-200315" action="modify" visible="true" lat="35.37431944" lon="128.7067361"><tag k="name" v="수산정류소종점" /><tag k="name:ko" v="수산정류소종점" /><tag k="note" v="상촌,상촌,수산1,수산2,오산,오산" /><tag k="highway" v="bus_stop" /><tag k="public_transport" v="platform" /></node><node id="-200316" action="modify" visible="true" lat="35.52717222" lon="128.7979778"><tag k="name" v="숲촌" /><tag k="name:ko" v="숲촌" /><tag k="note" v="6엄광,엄광1,엄광2" /><tag k="highway" v="bus_stop" /><tag k="public_transport" v="platform" /></node><node id="-200317" action="modify" visible="true" lat="35.52718333" lon="128.7979"><tag k="name" v="숲촌" /><tag k="name:ko" v="숲촌" /><tag k="note" v="6엄광,엄광1,엄광2" /><tag k="highway" v="bus_stop" /><tag k="public_transport" v="platform" /></node><node id="-200318" action="modify" visible="true" lat="35.48683333" lon="128.7556778"><tag k="name" v="시립도서관" /><tag k="name:ko" v="시립도서관" /><tag k="note" v="1-2가곡,1-2금동,1-2번,1-2부산대,10롯데,1가곡,1금동,1번,1부산대,1서가정,1용성,1칠성,1칠성.,2가곡,2번,2부산대,2용성,2초동,2초동.,2칠성,3-1번,3-1부산대,3금곡,3번,3상동,4-1롯데,4-1번,4-1번.,4-1용성,4-1청운,4구기,4대항1,4대항2,4대항3,4대항4,4대항5,4대항6,4대항7,4대항8,4대항9,4부산대,4퇴로1,4퇴로2,4퇴로3,4퇴로4,4퇴로5,4퇴로6,4퇴로7,4퇴로8,5금동,5밀성고,5번,5시청,6-1번,6번,6부산대,6상동,6상동2,6엄광,6활성,가곡,감물리1,국전1,수산2,얼음골1,용성1,표충사1,화봉1" /><tag k="highway" v="bus_stop" /><tag k="public_transport" v="platform" /></node><node id="-200319" action="modify" visible="true" lat="35.49258403" lon="128.7514337"><tag k="name" v="시민약국맞은편" /><tag k="name:ko" v="시민약국맞은편" /><tag k="note" v="1-2가곡,1-2금동,1-2번,1-2부산대,1가곡,1금동,1번,1부산대,1서가정,1용성,1초동,1칠성,3-1번,3-1부산대,3금곡,3번,3상동,7-1번,7롯데,7번,7삼랑,7지동,가곡,화봉1" /><tag k="highway" v="bus_stop" /><tag k="public_transport" v="platform" /></node><node id="-200320" action="modify" visible="true" lat="35.49813889" lon="128.7438111"><tag k="name" v="시외버스터미널" /><tag k="name:ko" v="시외버스터미널" /><tag k="note" v="1-2가곡,1-2금동,1-2번,1-2부산대,10롯데,1가곡,1금동,1번,1부산대,1용성,1초동,1칠성,1칠성.,2청운,3-1번,3-1부산대,3상동,4-1번.,4-1용성,4-2번,4구기,4대항1,4대항3,4대항7,4대항9,4번,4부산대,4초동,4퇴로2,4퇴로4,4퇴로5,4퇴로6,4퇴로7,5시청,6번,6부산대,6상동,6상동1,6상동2,6엄광,6활성,6활성1,7-1번,7롯데,7삼랑,9롯데,9번,가곡,감물리1,감물리2,감물리3,감물리5,감물리5,고례1,고례3,고례3,구기1,구기3,국전,국전1,국전3,국전3,남산2,대촌1,대촌2,대흥동1,도곡2,두곡,발례,발례1,발례2,상동,서가정1,서가정2,서가정3,서가정4,서가정5,서가정6,소태,수산1,수산2,신곡6,신곡7,얼음골1,얼음골3,얼음골3,엄광1,영신2,영신3,옥산,용성1,조천,조천1,조천2,청운,청운.,초동2,초동공단.,초동면소,초동면소,초동면소.,표충사1,표충사3,표충사3,화봉1" /><tag k="highway" v="bus_stop" /><tag k="public_transport" v="platform" /></node><node id="-200321" action="modify" visible="true" lat="35.49821389" lon="128.7437028"><tag k="name" v="시외버스터미널" /><tag k="name:ko" v="시외버스터미널" /><tag k="note" v="1서가정,1서가정,1초동,2가곡,2금동,2번,2부산대,2용성,2청운,2청운,2초동,2초동,2칠성,4-1번,4-1번.,4-1용성,4-1청운,4구기,4대항1,4대항2,4대항2,4대항3,4대항4,4대항4,4대항5,4대항5,4대항6,4대항6,4대항7,4대항8,4대항8,4대항9,4퇴로1,4퇴로2,4퇴로3,4퇴로3,4퇴로4,4퇴로5,4퇴로6,4퇴로7,4퇴로8,4퇴로8,5금동,5번,6-1번,6번,6부산대,6상동,6상동1,6상동2,6엄광,6활성,6활성1,7롯데,감물리,감물리,감물리1,감물리2,감물리3,감물리4,감물리4,고례1,고례2,고례2,구기1,구기3,국전,국전1,국전2,국전2,국전4,국전4,남산2,대촌1,대촌2,대흥동1,도곡1,도곡1,도곡2,도곡4,도곡4,두곡,발례,발례1,발례2,상동,서가정1,서가정2,서가정3,서가정4,서가정5,서가정6,소태,수산1,수산2,신곡1,신곡1,신곡3,신곡3,신곡4,신곡4,신곡5,신곡5,신곡6,신곡7,얼음골,얼음골,얼음골1,얼음골2,얼음골2,엄광1,엄광2,엄광2,영신2,영신3,옥산,옥산1,옥산1,옥산2,옥산2,조천,조천1,조천2,청운,청운.,청운.,초동2,초동3,초동공단,초동공단.,초동면소,초동면소.,표충사,표충사,표충사1,표충사2,표충사2,화봉1" /><tag k="highway" v="bus_stop" /><tag k="public_transport" v="platform" /></node><node id="-200322" action="modify" visible="true" lat="35.50218056" lon="128.7459472"><tag k="name" v="시청" /><tag k="name:ko" v="시청" /><tag k="note" v="10롯데,1서가정,2가곡,2번,2부산대,2용성,2청운,2초동,2초동,2초동.,2칠성,4-1롯데,4-1번,4-1청운,4-1청운,4구기,4대항2,4대항4,4대항5,4대항6,4대항8,4퇴로1,4퇴로3,4퇴로6,4퇴로8,5금동,5번,6-1번,6번,6부산대,6상동,6상동1,6상동2,6엄광,6활성,6활성1,감물리,감물리1,감물리2,감물리3,감물리4,고례1,고례2,국전,국전1,국전2,국전4,도곡1,도곡4,발례,발례1,상동,신곡1,신곡3,신곡4,신곡5,신곡7,얼음골,얼음골1,얼음골2,엄광1,엄광2,옥산,옥산1,옥산2,청운.,초동공단.,초동면소,표충사,표충사1,표충사2" /><tag k="highway" v="bus_stop" /><tag k="public_transport" v="platform" /></node><node id="-200323" action="modify" visible="true" lat="35.50241111" lon="128.7458694"><tag k="name" v="시청" /><tag k="name:ko" v="시청" /><tag k="note" v="1-2가곡,1-2금동,1-2번,1-2부산대,1가곡,1금동,1번,1부산대,1용성,1초동,1칠성,3-1번,3-1부산대,3상동,4-2번,5시청,6번,6부산대,6상동,6상동1,6상동2,6엄광,6활성,6활성1,7-1번,7롯데,7번,7삼랑,7지동,9롯데,9번,가곡,감물리2,감물리3,감물리5,고례1,고례3,국전,국전3,발례,발례2,상동,신곡7,얼음골3,엄광1,옥산,청운.,초동공단.,초동면소,표충사3,화봉1" /><tag k="highway" v="bus_stop" /><tag k="public_transport" v="platform" /></node><node id="-200324" action="modify" visible="true" lat="35.50341111" lon="128.7449556"><tag k="name" v="시청서문" /><tag k="name:ko" v="시청서문" /><tag k="note" v="4-1번.,4-1용성,4대항5,4대항9,4퇴로3" /><tag k="highway" v="bus_stop" /><tag k="public_transport" v="platform" /></node><node id="-200325" action="modify" visible="true" lat="35.50330556" lon="128.7452083"><tag k="name" v="시청서문" /><tag k="name:ko" v="시청서문" /><tag k="note" v="4대항4,4퇴로4,4퇴로7" /><tag k="highway" v="bus_stop" /><tag k="public_transport" v="platform" /></node><node id="-200326" action="modify" visible="true" lat="35.49409444" lon="128.7442417"><tag k="name" v="식량과학원사거리" /><tag k="name:ko" v="식량과학원사거리" /><tag k="note" v="10롯데,1서가정,1초동,2초동,2초동.,4-1롯데,4-1청운,4구기,4대항1,4대항2,4대항3,4대항4,4대항5,4대항6,4대항7,4대항8,4대항9,4번,4초동,4퇴로1,4퇴로2,4퇴로3,4퇴로4,4퇴로5,4퇴로6,4퇴로7,4퇴로8,7롯데,감물리1,구기3,국전1,남산2,대촌1,대촌2,대흥동1,두곡,서가정1,서가정2,서가정3,서가정4,서가정6,소태,수산1,얼음골1,영신2,조천,조천1,초동2,초동면소,초동면소.,표충사1,화봉1" /><tag k="highway" v="bus_stop" /><tag k="public_transport" v="platform" /></node><node id="-200327" action="modify" visible="true" lat="35.49276389" lon="128.7444639"><tag k="name" v="식량과학원사거리" /><tag k="name:ko" v="식량과학원사거리" /><tag k="note" v="1서가정,1초동,2청운,2초동,4-1청운,7롯데,7롯데,7번,7삼랑,7지동,구기3,남산2,대촌1,대촌2,대흥동1,두곡,서가정1,서가정2,서가정3,서가정4,서가정6,소태,수산1,조천,조천2,청운,청운.,초동2,초동3,초동공단,초동공단.,초동면소,초동면소.,화봉1" /><tag k="highway" v="bus_stop" /><tag k="public_transport" v="platform" /></node><node id="-200328" action="modify" visible="true" lat="35.58716111" lon="128.8176"><tag k="name" v="신곡회관" /><tag k="name:ko" v="신곡회관" /><tag k="note" v="신곡1,신곡3,신곡4,신곡5,신곡6,신곡7" /><tag k="highway" v="bus_stop" /><tag k="public_transport" v="platform" /></node><node id="-200329" action="modify" visible="true" lat="35.58723055" lon="128.8175"><tag k="name" v="신곡회관" /><tag k="name:ko" v="신곡회관" /><tag k="note" v="신곡1,신곡3,신곡4,신곡5,신곡6,신곡7" /><tag k="highway" v="bus_stop" /><tag k="public_transport" v="platform" /></node><node id="-200330" action="modify" visible="true" lat="35.50298056" lon="128.8039361"><tag k="name" v="신기" /><tag k="name:ko" v="신기" /><tag k="note" v="감물리,감물리1,감물리2,감물리3,감물리4,감물리5,고례1,고례2,고례3,국전,국전1,국전2,국전3,국전4,발례,발례1,발례2,얼음골,얼음골1,얼음골2,얼음골3,표충사,표충사1,표충사2,표충사3" /><tag k="highway" v="bus_stop" /><tag k="public_transport" v="platform" /></node><node id="-200331" action="modify" visible="true" lat="35.50309167" lon="128.8039528"><tag k="name" v="신기" /><tag k="name:ko" v="신기" /><tag k="note" v="감물리,감물리1,감물리2,감물리3,감물리4,감물리5,고례1,고례2,고례3,국전,국전1,국전2,국전3,국전4,발례,발례1,발례2,얼음골,얼음골1,얼음골2,얼음골3,표충사,표충사1,표충사2,표충사3" /><tag k="highway" v="bus_stop" /><tag k="public_transport" v="platform" /></node><node id="-200332" action="modify" visible="true" lat="35.58292778" lon="128.9681611"><tag k="name" v="신명" /><tag k="name:ko" v="신명" /><tag k="note" v="얼음골,얼음골1,얼음골2,얼음골3" /><tag k="highway" v="bus_stop" /><tag k="public_transport" v="platform" /></node><node id="-200333" action="modify" visible="true" lat="35.58300556" lon="128.9682194"><tag k="name" v="신명" /><tag k="name:ko" v="신명" /><tag k="note" v="얼음골,얼음골1,얼음골2,얼음골3" /><tag k="highway" v="bus_stop" /><tag k="public_transport" v="platform" /></node><node id="-200334" action="modify" visible="true" lat="35.48228056" lon="128.6559472"><tag k="name" v="신법" /><tag k="name:ko" v="신법" /><tag k="note" v="소태" /><tag k="highway" v="bus_stop" /><tag k="public_transport" v="platform" /></node><node id="-200335" action="modify" visible="true" lat="35.48226944" lon="128.6558639"><tag k="name" v="신법" /><tag k="name:ko" v="신법" /><tag k="note" v="대촌1,소태,화봉1" /><tag k="highway" v="bus_stop" /><tag k="public_transport" v="platform" /></node><node id="-200336" action="modify" visible="true" lat="35.47840278" lon="128.6569833"><tag k="name" v="신법삼거리" /><tag k="name:ko" v="신법삼거리" /><tag k="note" v="1서가정,2초동,구기3,구기3,대촌1,대촌2,대촌2,두곡,두곡,서가정1,서가정2,서가정3,서가정4,서가정5,서가정6,서가정7,서가정7,소태,영신2,영신2,영신3,영신3,조천,조천,조천1,조천2,초동2,초동3,초동공단,초동공단.,화봉1" /><tag k="highway" v="bus_stop" /><tag k="public_transport" v="platform" /></node><node id="-200337" action="modify" visible="true" lat="35.47845" lon="128.6568972"><tag k="name" v="신법삼거리" /><tag k="name:ko" v="신법삼거리" /><tag k="note" v="1서가정,1초동,2초동,구기3,구기3,대촌1,대촌2,대촌2,두곡,두곡,서가정1,서가정2,서가정3,서가정4,서가정5,서가정6,소태,영신2,영신2,영신3,영신3,조천,조천,조천1,조천2,초동2,초동공단,초동면소,초동면소.,화봉1" /><tag k="highway" v="bus_stop" /><tag k="public_transport" v="platform" /></node><node id="-200338" action="modify" visible="true" lat="35.49069166" lon="128.6898583"><tag k="name" v="신생" /><tag k="name:ko" v="신생" /><tag k="note" v="1서가정,1초동,2초동,구기3,대촌1,대촌2,두곡,서가정1,서가정2,서가정3,서가정4,서가정5,서가정6,소태,영신2,영신3,조천,조천2,초동2,초동공단,초동면소,초동면소.,화봉1" /><tag k="highway" v="bus_stop" /><tag k="public_transport" v="platform" /></node><node id="-200339" action="modify" visible="true" lat="35.49063056" lon="128.6898861"><tag k="name" v="신생" /><tag k="name:ko" v="신생" /><tag k="note" v="1서가정,2초동,구기3,대촌1,대촌2,두곡,서가정1,서가정2,서가정3,서가정4,서가정5,서가정6,소태,영신2,영신3,조천,조천1,초동2,초동3,초동공단,초동공단.,화봉1" /><tag k="highway" v="bus_stop" /><tag k="public_transport" v="platform" /></node><node id="-200340" action="modify" visible="true" lat="35.42341111" lon="128.6834389"><tag k="name" v="신월" /><tag k="name:ko" v="신월" /><tag k="note" v="초동공단" /><tag k="highway" v="bus_stop" /><tag k="public_transport" v="platform" /></node><node id="-200341" action="modify" visible="true" lat="35.418075" lon="128.6809278"><tag k="name" v="신월" /><tag k="name:ko" v="신월" /><tag k="note" v="2초동,초동2,초동3,초동공단,초동공단." /><tag k="highway" v="bus_stop" /><tag k="public_transport" v="platform" /></node><node id="-200342" action="modify" visible="true" lat="35.41794722" lon="128.6807833"><tag k="name" v="신월" /><tag k="name:ko" v="신월" /><tag k="note" v="1초동,2초동,초동2,초동면소,초동면소." /><tag k="highway" v="bus_stop" /><tag k="public_transport" v="platform" /></node><node id="-200343" action="modify" visible="true" lat="35.51372222" lon="128.7277139"><tag k="name" v="신전" /><tag k="name:ko" v="신전" /><tag k="note" v="2청운,4-1청운,4구기,4대항1,4대항2,4대항3,4대항4,4대항6,4대항7,4대항8,4부산대,4퇴로1,4퇴로2,4퇴로4,4퇴로5,4퇴로6,4퇴로7,4퇴로8,7-1번,7롯데,7번,7삼랑,7지동,구기1,청운,청운." /><tag k="highway" v="bus_stop" /><tag k="public_transport" v="platform" /></node><node id="-200344" action="modify" visible="true" lat="35.51382222" lon="128.7277556"><tag k="name" v="신전" /><tag k="name:ko" v="신전" /><tag k="note" v="4구기,4대항1,4대항2,4대항3,4대항5,4대항6,4대항7,4대항8,4대항9,4퇴로1,4퇴로2,4퇴로3,4퇴로5,4퇴로6,4퇴로8,7롯데,구기1" /><tag k="highway" v="bus_stop" /><tag k="public_transport" v="platform" /></node><node id="-200345" action="modify" visible="true" lat="35.36081496" lon="128.7488383"><tag k="name" v="신촌" /><tag k="name:ko" v="신촌" /><tag k="note" v="상촌,수산1,수산2,오산" /><tag k="highway" v="bus_stop" /><tag k="public_transport" v="platform" /></node><node id="-200346" action="modify" visible="true" lat="35.47868333" lon="128.6319278"><tag k="name" v="신촌" /><tag k="name:ko" v="신촌" /><tag k="note" v="1서가정,서가정1,서가정2,서가정3,서가정4,서가정5,서가정6" /><tag k="highway" v="bus_stop" /><tag k="public_transport" v="platform" /></node><node id="-200347" action="modify" visible="true" lat="35.47875833" lon="128.6321722"><tag k="name" v="신촌" /><tag k="name:ko" v="신촌" /><tag k="note" v="1서가정,서가정1,서가정2,서가정3,서가정4,서가정5,서가정6" /><tag k="highway" v="bus_stop" /><tag k="public_transport" v="platform" /></node><node id="-200348" action="modify" visible="true" lat="35.36075278" lon="128.7487944"><tag k="name" v="신촌" /><tag k="name:ko" v="신촌" /><tag k="note" v="상촌,수산1,수산2,오산" /><tag k="highway" v="bus_stop" /><tag k="public_transport" v="platform" /></node><node id="-200349" action="modify" visible="true" lat="35.500825" lon="128.7417306"><tag k="name" v="신촌오거리" /><tag k="name:ko" v="신촌오거리" /><tag k="note" v="1서가정,2가곡,2번,2부산대,2용성,2청운,2초동,2초동,2초동.,2칠성,4-1청운,4대항2,4대항4,4대항5,4대항6,4대항8,4퇴로3,4퇴로4,4퇴로6,4퇴로8,5금동,5번,6-1번,6번,6부산대,6상동,6상동1,6상동2,6활성1,도곡1,도곡4,상동,신곡1,신곡3,신곡4,신곡5,신곡7,얼음골1,얼음골2,엄광1,엄광2,옥산,옥산1,옥산2,청운.,초동공단.,초동면소,표충사,표충사1,표충사2" /><tag k="highway" v="bus_stop" /><tag k="public_transport" v="platform" /></node><node id="-200350" action="modify" visible="true" lat="35.50033056" lon="128.7416194"><tag k="name" v="신촌오거리" /><tag k="name:ko" v="신촌오거리" /><tag k="note" v="1-2가곡,1-2금동,1-2번,1-2부산대,1가곡,1금동,1번,1부산대,1용성,1초동,1칠성,2청운,3-1번,3-1부산대,3상동,4-1번.,4-1용성,4-2번,4대항2,4대항3,4부산대,4퇴로6,5시청,6번,6부산대,6상동,6상동1,6상동2,7-1번,7롯데,7번,7삼랑,7지동,9롯데,9번,가곡,상동,옥산,청운,청운.,청운.,초동공단.,초동면소" /><tag k="highway" v="bus_stop" /><tag k="public_transport" v="platform" /></node><node id="-200351" action="modify" visible="true" lat="35.41223056" lon="128.6904556"><tag k="name" v="신호" /><tag k="name:ko" v="신호" /><tag k="note" v="초동3,초동공단." /><tag k="highway" v="bus_stop" /><tag k="public_transport" v="platform" /></node><node id="-200352" action="modify" visible="true" lat="35.41203611" lon="128.6902139"><tag k="name" v="신호" /><tag k="name:ko" v="신호" /><tag k="note" v="1초동,초동면소,초동면소." /><tag k="highway" v="bus_stop" /><tag k="public_transport" v="platform" /></node><node id="-200353" action="modify" visible="true" lat="35.48759444" lon="128.7348472"><tag k="name" v="신흥" /><tag k="name:ko" v="신흥" /><tag k="note" v="1서가정,2초동,구기3,대촌1,대촌2,두곡,서가정1,서가정2,서가정3,서가정4,서가정5,서가정6,소태,영신2,영신3,조천,조천1,초동2,초동3,초동공단,초동공단.,화봉1" /><tag k="highway" v="bus_stop" /><tag k="public_transport" v="platform" /></node><node id="-200354" action="modify" visible="true" lat="35.48768333" lon="128.7346833"><tag k="name" v="신흥" /><tag k="name:ko" v="신흥" /><tag k="note" v="1서가정,1초동,2청운,2초동,4-1청운,구기3,대촌1,대촌2,두곡,서가정1,서가정2,서가정3,서가정4,서가정5,서가정6,소태,영신2,영신3,조천,청운,청운.,초동2,초동공단,초동면소,초동면소.,화봉1" /><tag k="highway" v="bus_stop" /><tag k="public_transport" v="platform" /></node><node id="-200355" action="modify" visible="true" lat="35.50595" lon="128.7571444"><tag k="name" v="아리랑아트센터" /><tag k="name:ko" v="아리랑아트센터" /><tag k="note" v="2가곡,2번,2부산대,2용성,2청운,2초동,2칠성,3-1번,3-1부산대,3금곡,3번,3상동,5금동,5번,6-1번,6번,6상동,6상동1,6상동2,6엄광,6활성,6활성1,감물리2,감물리3,감물리4,감물리5,고례1,국전,국전1,국전2,국전3,국전4,도곡1,도곡2,도곡4,발례,발례1,발례2,상동,신곡1,신곡3,신곡4,신곡5,신곡6,신곡7,얼음골,얼음골1,얼음골2,얼음골3,엄광1,엄광2,옥산,옥산1,옥산2,청운.,초동공단.,초동면소,표충사,표충사1,표충사2,표충사3" /><tag k="highway" v="bus_stop" /><tag k="public_transport" v="platform" /></node><node id="-200356" action="modify" visible="true" lat="35.52362778" lon="128.9089528"><tag k="name" v="아불" /><tag k="name:ko" v="아불" /><tag k="note" v="고례1,고례2,고례3,표충사,표충사1,표충사2,표충사3" /><tag k="highway" v="bus_stop" /><tag k="public_transport" v="platform" /></node><node id="-200357" action="modify" visible="true" lat="35.52352222" lon="128.9090333"><tag k="name" v="아불" /><tag k="name:ko" v="아불" /><tag k="note" v="고례1,고례2,고례3,표충사,표충사1,표충사2,표충사3" /><tag k="highway" v="bus_stop" /><tag k="public_transport" v="platform" /></node><node id="-200358" action="modify" visible="true" lat="35.48173889" lon="128.5914389"><tag k="name" v="아치실" /><tag k="name:ko" v="아치실" /><tag k="note" v="서가정2,서가정3,서가정4,서가정5" /><tag k="highway" v="bus_stop" /><tag k="public_transport" v="platform" /></node><node id="-200359" action="modify" visible="true" lat="35.48179722" lon="128.5913667"><tag k="name" v="아치실" /><tag k="name:ko" v="아치실" /><tag k="note" v="1서가정,서가정1" /><tag k="highway" v="bus_stop" /><tag k="public_transport" v="platform" /></node><node id="-200360" action="modify" visible="true" lat="35.56603333" lon="128.6538944"><tag k="name" v="안곡동" /><tag k="name:ko" v="안곡동" /><tag k="note" v="대촌1,대촌2" /><tag k="highway" v="bus_stop" /><tag k="public_transport" v="platform" /></node><node id="-200361" action="modify" visible="true" lat="35.56601389" lon="128.6540444"><tag k="name" v="안곡동" /><tag k="name:ko" v="안곡동" /><tag k="note" v="대촌1,대촌2" /><tag k="highway" v="bus_stop" /><tag k="public_transport" v="platform" /></node><node id="-200362" action="modify" visible="true" lat="35.48649444" lon="128.8496167"><tag k="name" v="안법" /><tag k="name:ko" v="안법" /><tag k="note" v="감물리,감물리1,감물리2,감물리3,감물리4,감물리5" /><tag k="highway" v="bus_stop" /><tag k="public_transport" v="platform" /></node><node id="-200363" action="modify" visible="true" lat="35.486525" lon="128.8497111"><tag k="name" v="안법" /><tag k="name:ko" v="안법" /><tag k="note" v="감물리,감물리1,감물리2,감물리3,감물리4,감물리5" /><tag k="highway" v="bus_stop" /><tag k="public_transport" v="platform" /></node><node id="-200364" action="modify" visible="true" lat="35.48920278" lon="128.8473778"><tag k="name" v="안포동" /><tag k="name:ko" v="안포동" /><tag k="note" v="감물리,감물리1,감물리2,감물리3,감물리4,감물리5" /><tag k="highway" v="bus_stop" /><tag k="public_transport" v="platform" /></node><node id="-200365" action="modify" visible="true" lat="35.48926944" lon="128.8474444"><tag k="name" v="안포동" /><tag k="name:ko" v="안포동" /><tag k="note" v="감물리,감물리1,감물리2,감물리3,감물리4,감물리5" /><tag k="highway" v="bus_stop" /><tag k="public_transport" v="platform" /></node><node id="-200366" action="modify" visible="true" lat="35.59979444" lon="128.90735"><tag k="name" v="야촌" /><tag k="name:ko" v="야촌" /><tag k="note" v="얼음골,얼음골1,얼음골2,얼음골3" /><tag k="highway" v="bus_stop" /><tag k="public_transport" v="platform" /></node><node id="-200367" action="modify" visible="true" lat="35.59985556" lon="128.9073278"><tag k="name" v="야촌" /><tag k="name:ko" v="야촌" /><tag k="note" v="얼음골,얼음골1,얼음골2,얼음골3" /><tag k="highway" v="bus_stop" /><tag k="public_transport" v="platform" /></node><node id="-200368" action="modify" visible="true" lat="35.51095278" lon="128.7985444"><tag k="name" v="양덕" /><tag k="name:ko" v="양덕" /><tag k="note" v="엄광1" /><tag k="highway" v="bus_stop" /><tag k="public_transport" v="platform" /></node><node id="-200369" action="modify" visible="true" lat="35.51096111" lon="128.7984472"><tag k="name" v="양덕" /><tag k="name:ko" v="양덕" /><tag k="note" v="엄광2" /><tag k="highway" v="bus_stop" /><tag k="public_transport" v="platform" /></node><node id="-200370" action="modify" visible="true" lat="35.50422778" lon="128.7926639"><tag k="name" v="양덕입구" /><tag k="name:ko" v="양덕입구" /><tag k="note" v="6엄광,감물리,감물리1,감물리2,감물리3,감물리4,감물리5,고례1,고례2,고례3,국전,국전1,국전2,국전3,국전4,발례,발례1,발례2,얼음골,얼음골1,얼음골2,얼음골3,엄광2,표충사,표충사1,표충사2,표충사3" /><tag k="highway" v="bus_stop" /><tag k="public_transport" v="platform" /></node><node id="-200371" action="modify" visible="true" lat="35.50411667" lon="128.7926389"><tag k="name" v="양덕입구" /><tag k="name:ko" v="양덕입구" /><tag k="note" v="감물리,감물리1,감물리2,감물리3,감물리4,감물리5,고례1,고례2,고례3,국전,국전1,국전2,국전3,국전4,발례,발례1,발례2,얼음골,얼음골1,얼음골2,얼음골3,엄광1,표충사,표충사1,표충사2,표충사3" /><tag k="highway" v="bus_stop" /><tag k="public_transport" v="platform" /></node><node id="-200372" action="modify" visible="true" lat="35.58899444" lon="128.8222889"><tag k="name" v="양지" /><tag k="name:ko" v="양지" /><tag k="note" v="신곡5,신곡6,신곡7" /><tag k="highway" v="bus_stop" /><tag k="public_transport" v="platform" /></node><node id="-200373" action="modify" visible="true" lat="35.58898754" lon="128.8222842"><tag k="name" v="양지" /><tag k="name:ko" v="양지" /><tag k="note" v="신곡1,신곡3,신곡4" /><tag k="highway" v="bus_stop" /><tag k="public_transport" v="platform" /></node><node id="-200374" action="modify" visible="true" lat="35.51647222" lon="128.6483722"><tag k="name" v="양효" /><tag k="name:ko" v="양효" /><tag k="note" v="구기3,대촌1,대촌2,두곡,소태,조천,조천2" /><tag k="highway" v="bus_stop" /><tag k="public_transport" v="platform" /></node><node id="-200375" action="modify" visible="true" lat="35.51640833" lon="128.6482222"><tag k="name" v="양효" /><tag k="name:ko" v="양효" /><tag k="note" v="구기3,대촌1,대촌2,두곡,소태,조천,조천1" /><tag k="highway" v="bus_stop" /><tag k="public_transport" v="platform" /></node><node id="-200376" action="modify" visible="true" lat="35.58000833" lon="128.9844028"><tag k="name" v="얼음골종점" /><tag k="name:ko" v="얼음골종점" /><tag k="note" v="얼음골,얼음골1,얼음골2,얼음골3" /><tag k="highway" v="bus_stop" /><tag k="public_transport" v="platform" /></node><node id="-200377" action="modify" visible="true" lat="35.53823889" lon="128.8059778"><tag k="name" v="엄광종점" /><tag k="name:ko" v="엄광종점" /><tag k="note" v="6엄광,엄광1,엄광2" /><tag k="highway" v="bus_stop" /><tag k="public_transport" v="platform" /></node><node id="-200378" action="modify" visible="true" lat="35.46140555" lon="128.6620917"><tag k="name" v="연상" /><tag k="name:ko" v="연상" /><tag k="note" v="1초동,2초동,초동2,초동공단,초동면소,초동면소." /><tag k="highway" v="bus_stop" /><tag k="public_transport" v="platform" /></node><node id="-200379" action="modify" visible="true" lat="35.46151389" lon="128.6621111"><tag k="name" v="연상" /><tag k="name:ko" v="연상" /><tag k="note" v="2초동,초동2,초동3,초동공단,초동공단." /><tag k="highway" v="bus_stop" /><tag k="public_transport" v="platform" /></node><node id="-200380" action="modify" visible="true" lat="35.49148461" lon="128.7539139"><tag k="name" v="영남루" /><tag k="name:ko" v="영남루" /><tag k="note" v="1-2가곡,1-2금동,1-2번,1-2부산대,10롯데,1가곡,1금동,1번,1부산대,1서가정,1용성,1칠성,1칠성.,2가곡,2번,2부산대,2용성,2초동,2초동.,2칠성,3-1번,3-1부산대,3금곡,3번,3상동,4-1롯데,4-1번,4-1번.,4-1용성,4-1청운,4구기,4대항1,4대항2,4대항3,4대항4,4대항5,4대항6,4대항7,4대항8,4대항9,4부산대,4퇴로1,4퇴로2,4퇴로3,4퇴로4,4퇴로5,4퇴로6,4퇴로7,4퇴로8,5금동,5밀성고,5번,5시청,6-1번,6번,6부산대,6상동,6상동2,6엄광,6활성,가곡,감물리1,국전1,수산2,얼음골1,용성1,표충사1,화봉1" /><tag k="highway" v="bus_stop" /><tag k="public_transport" v="platform" /></node><node id="-200381" action="modify" visible="true" lat="35.49204444" lon="128.7540306"><tag k="name" v="영남루입구" /><tag k="name:ko" v="영남루입구" /><tag k="note" v="2가곡,2금동,2번,2부산대,2용성,2청운,2초동,2칠성,5번,6-1번,6번,6부산대,6상동,6상동1,6상동2,6엄광,6활성,6활성1,수산2" /><tag k="highway" v="bus_stop" /><tag k="public_transport" v="platform" /></node><node id="-200382" action="modify" visible="true" lat="35.49842222" lon="128.7426222"><tag k="name" v="영남병원" /><tag k="name:ko" v="영남병원" /><tag k="note" v="2청운,2초동,2초동,2초동.,4-1롯데,4-1청운,청운." /><tag k="highway" v="bus_stop" /><tag k="public_transport" v="platform" /></node><node id="-200383" action="modify" visible="true" lat="35.49850833" lon="128.7423333"><tag k="name" v="영남병원" /><tag k="name:ko" v="영남병원" /><tag k="note" v="7번,7지동" /><tag k="highway" v="bus_stop" /><tag k="public_transport" v="platform" /></node><node id="-200384" action="modify" visible="true" lat="35.49795832" lon="128.7462333"><tag k="name" v="영남아파트" /><tag k="name:ko" v="영남아파트" /><tag k="note" v="1-2가곡,1-2금동,1-2번,1-2부산대,1가곡,1금동,1번,1부산대,1용성,1칠성,1칠성.,3-1번,3-1부산대,3상동,4-1번.,4-1용성,4-2번,4대항1,4대항3,4대항7,4대항9,4부산대,4퇴로2,4퇴로4,4퇴로5,4퇴로7,5시청,6번,6부산대,6상동,6상동2,6엄광,6활성,7-1번,9롯데,9번,가곡,감물리5,고례3,국전3,도곡2,발례2,서가정5,수산2,신곡6,얼음골3,영신3,용성1,표충사3,화봉1" /><tag k="highway" v="bus_stop" /><tag k="public_transport" v="platform" /></node><node id="-200385" action="modify" visible="true" lat="35.49827778" lon="128.7462167"><tag k="name" v="영남아파트" /><tag k="name:ko" v="영남아파트" /><tag k="note" v="2가곡,2금동,2번,2부산대,2용성,2청운,2청운,2초동,2초동,2칠성,4-1번,4-1번.,4-1용성,4-1청운,5번,6-1번,6번,6부산대,6상동,6상동1,6상동2,6엄광,6활성,6활성1,감물리,감물리4,고례2,국전2,국전4,도곡1,도곡2,도곡4,발례1,서가정5,수산2,신곡1,신곡3,신곡4,신곡5,신곡6,얼음골,얼음골2,엄광2,영신3,옥산1,옥산2,표충사,표충사2" /><tag k="highway" v="bus_stop" /><tag k="public_transport" v="platform" /></node><node id="-200386" action="modify" visible="true" lat="35.51138056" lon="128.6265222"><tag k="name" v="영신" /><tag k="name:ko" v="영신" /><tag k="note" v="영신2,영신3" /><tag k="highway" v="bus_stop" /><tag k="public_transport" v="platform" /></node><node id="-200387" action="modify" visible="true" lat="35.51142222" lon="128.6267139"><tag k="name" v="영신" /><tag k="name:ko" v="영신" /><tag k="note" v="영신2,영신3" /><tag k="highway" v="bus_stop" /><tag k="public_transport" v="platform" /></node><node id="-200388" action="modify" visible="true" lat="35.51293611" lon="128.6148472"><tag k="name" v="영안종점" /><tag k="name:ko" v="영안종점" /><tag k="note" v="영신2,영신3" /><tag k="highway" v="bus_stop" /><tag k="public_transport" v="platform" /></node><node id="-200389" action="modify" visible="true" lat="35.54183056" lon="128.7192722"><tag k="name" v="영포" /><tag k="name:ko" v="영포" /><tag k="note" v="4대항5,4대항9,4퇴로3" /><tag k="highway" v="bus_stop" /><tag k="public_transport" v="platform" /></node><node id="-200390" action="modify" visible="true" lat="35.54183889" lon="128.7192972"><tag k="name" v="영포" /><tag k="name:ko" v="영포" /><tag k="note" v="4대항4,4퇴로2,4퇴로4,4퇴로7" /><tag k="highway" v="bus_stop" /><tag k="public_transport" v="platform" /></node><node id="-200391" action="modify" visible="true" lat="35.35731682" lon="128.7796471"><tag k="name" v="예동" /><tag k="name:ko" v="예동" /><tag k="note" v="수산1,수산2,오산" /><tag k="highway" v="bus_stop" /><tag k="public_transport" v="platform" /></node><node id="-200392" action="modify" visible="true" lat="35.35738056" lon="128.7796361"><tag k="name" v="예동" /><tag k="name:ko" v="예동" /><tag k="note" v="수산1,수산2,오산" /><tag k="highway" v="bus_stop" /><tag k="public_transport" v="platform" /></node><node id="-200393" action="modify" visible="true" lat="35.46604444" lon="128.7592611"><tag k="name" v="예림오거리" /><tag k="name:ko" v="예림오거리" /><tag k="note" v="1-2금동,1금동,5금동,5밀성고,5번,5시청,7-1번,남산1,남산2,대흥동1,대흥동2,삼랑진,수산1,수산2,초동3,초동공단.,해동1" /><tag k="highway" v="bus_stop" /><tag k="public_transport" v="platform" /></node><node id="-200394" action="modify" visible="true" lat="35.46562222" lon="128.7593"><tag k="name" v="예림오거리" /><tag k="name:ko" v="예림오거리" /><tag k="note" v="대흥동1,대흥동2" /><tag k="highway" v="bus_stop" /><tag k="public_transport" v="platform" /></node><node id="-200395" action="modify" visible="true" lat="35.46543889" lon="128.758875"><tag k="name" v="예림오거리" /><tag k="name:ko" v="예림오거리" /><tag k="note" v="1초동,2금동,5밀성고,5번,5시청,7-1번,금동1,금동1-2,금동2,금동4,금동7-1,남산1,남산2,삼랑진,수산1,수산2,초동면소,초동면소.,해동1" /><tag k="highway" v="bus_stop" /><tag k="public_transport" v="platform" /></node><node id="-200396" action="modify" visible="true" lat="35.50112778" lon="128.7233056"><tag k="name" v="오례" /><tag k="name:ko" v="오례" /><tag k="note" v="2청운,4-1청운,청운,청운." /><tag k="highway" v="bus_stop" /><tag k="public_transport" v="platform" /></node><node id="-200397" action="modify" visible="true" lat="35.37077172" lon="128.788937"><tag k="name" v="오산" /><tag k="name:ko" v="오산" /><tag k="note" v="수산1,수산2,해동1" /><tag k="highway" v="bus_stop" /><tag k="public_transport" v="platform" /></node><node id="-200398" action="modify" visible="true" lat="35.37085981" lon="128.7889224"><tag k="name" v="오산" /><tag k="name:ko" v="오산" /><tag k="note" v="수산1,수산2,오산,해동1" /><tag k="highway" v="bus_stop" /><tag k="public_transport" v="platform" /></node><node id="-200399" action="modify" visible="true" lat="35.56572778" lon="128.7654556"><tag k="name" v="옥산" /><tag k="name:ko" v="옥산" /><tag k="note" v="옥산,옥산1,옥산2" /><tag k="highway" v="bus_stop" /><tag k="public_transport" v="platform" /></node><node id="-200400" action="modify" visible="true" lat="35.56576111" lon="128.7652889"><tag k="name" v="옥산" /><tag k="name:ko" v="옥산" /><tag k="note" v="옥산,옥산1,옥산2" /><tag k="highway" v="bus_stop" /><tag k="public_transport" v="platform" /></node><node id="-200401" action="modify" visible="true" lat="35.57978056" lon="128.801275"><tag k="name" v="외매화" /><tag k="name:ko" v="외매화" /><tag k="note" v="신곡1,신곡3,신곡4,신곡5,신곡6,신곡7" /><tag k="highway" v="bus_stop" /><tag k="public_transport" v="platform" /></node><node id="-200402" action="modify" visible="true" lat="35.57979167" lon="128.8011417"><tag k="name" v="외매화" /><tag k="name:ko" v="외매화" /><tag k="note" v="신곡1,신곡3,신곡4,신곡5,신곡6,신곡7" /><tag k="highway" v="bus_stop" /><tag k="public_transport" v="platform" /></node><node id="-200403" action="modify" visible="true" lat="35.37989444" lon="128.7824417"><tag k="name" v="외산" /><tag k="name:ko" v="외산" /><tag k="note" v="수산1,수산2,해동1" /><tag k="highway" v="bus_stop" /><tag k="public_transport" v="platform" /></node><node id="-200404" action="modify" visible="true" lat="35.38009522" lon="128.7823316"><tag k="name" v="외산" /><tag k="name:ko" v="외산" /><tag k="note" v="수산1,수산2,해동1" /><tag k="highway" v="bus_stop" /><tag k="public_transport" v="platform" /></node><node id="-200405" action="modify" visible="true" lat="35.44565" lon="128.6908917"><tag k="name" v="외송" /><tag k="name:ko" v="외송" /><tag k="note" v="2초동,초동공단" /><tag k="highway" v="bus_stop" /><tag k="public_transport" v="platform" /></node><node id="-200406" action="modify" visible="true" lat="35.44569166" lon="128.6906694"><tag k="name" v="외송" /><tag k="name:ko" v="외송" /><tag k="note" v="2초동,초동공단" /><tag k="highway" v="bus_stop" /><tag k="public_transport" v="platform" /></node><node id="-200407" action="modify" visible="true" lat="35.55814444" lon="128.6503722"><tag k="name" v="요고리" /><tag k="name:ko" v="요고리" /><tag k="note" v="대촌1,대촌2" /><tag k="highway" v="bus_stop" /><tag k="public_transport" v="platform" /></node><node id="-200408" action="modify" visible="true" lat="35.55822778" lon="128.6504639"><tag k="name" v="요고리" /><tag k="name:ko" v="요고리" /><tag k="note" v="대촌1,대촌2" /><tag k="highway" v="bus_stop" /><tag k="public_transport" v="platform" /></node><node id="-200409" action="modify" visible="true" lat="35.4808" lon="128.7619639"><tag k="name" v="용두교" /><tag k="name:ko" v="용두교" /><tag k="note" v="1-2가곡,1-2금동,1-2번,1-2부산대,1가곡,1금동,1번,1부산대,1서가정,1용성,1초동,1칠성,2가곡,2금동,2번,2부산대,2용성,2청운,2초동,2칠성,3-1번,3-1부산대,3금곡,3번,3상동,4-2번,5번,6-1번,6번,6부산대,6상동,6상동1,6상동2,6엄광,6활성,6활성1,7-1번,7롯데,7번,7삼랑,7지동,가곡,수산2,화봉1" /><tag k="highway" v="bus_stop" /><tag k="public_transport" v="platform" /></node><node id="-200410" action="modify" visible="true" lat="35.44581388" lon="128.8058167"><tag k="name" v="용성" /><tag k="name:ko" v="용성" /><tag k="note" v="6용성,삼랑1,삼랑2,삼랑3-1,삼랑4,삼랑4-1,삼랑7,용성0,용성2,용성7,칠성1-2,칠성2" /><tag k="highway" v="bus_stop" /><tag k="public_transport" v="platform" /></node><node id="-200411" action="modify" visible="true" lat="35.44566944" lon="128.8057611"><tag k="name" v="용성" /><tag k="name:ko" v="용성" /><tag k="note" v="1용성,1칠성,1칠성.,2용성,2칠성,4-1용성,7롯데,7삼랑,용성,용성1,칠성" /><tag k="highway" v="bus_stop" /><tag k="public_transport" v="platform" /></node><node id="-200412" action="modify" visible="true" lat="35.45408333" lon="128.8760278"><tag k="name" v="용소종점" /><tag k="name:ko" v="용소종점" /><tag k="note" v="감물리,감물리1,감물리2,감물리3,감물리4,감물리5" /><tag k="highway" v="bus_stop" /><tag k="public_transport" v="platform" /></node><node id="-200413" action="modify" visible="true" lat="35.49511111" lon="128.7267278"><tag k="name" v="용재" /><tag k="name:ko" v="용재" /><tag k="note" v="2청운,4-1청운,청운,청운." /><tag k="highway" v="bus_stop" /><tag k="public_transport" v="platform" /></node><node id="-200414" action="modify" visible="true" lat="35.56330136" lon="128.8615734"><tag k="name" v="용전" /><tag k="name:ko" v="용전" /><tag k="note" v="발례,발례1,발례2,얼음골,얼음골1,얼음골2,얼음골3" /><tag k="highway" v="bus_stop" /><tag k="public_transport" v="platform" /></node><node id="-200415" action="modify" visible="true" lat="35.56352934" lon="128.8609611"><tag k="name" v="용전" /><tag k="name:ko" v="용전" /><tag k="note" v="발례,발례1,발례2,얼음골,얼음골1,얼음골2,얼음골3" /><tag k="highway" v="bus_stop" /><tag k="public_transport" v="platform" /></node><node id="-200416" action="modify" visible="true" lat="35.50166389" lon="128.882975"><tag k="name" v="용포동" /><tag k="name:ko" v="용포동" /><tag k="note" v="국전,국전1,국전2,국전3,국전4" /><tag k="highway" v="bus_stop" /><tag k="public_transport" v="platform" /></node><node id="-200417" action="modify" visible="true" lat="35.501825" lon="128.8831639"><tag k="name" v="용포동" /><tag k="name:ko" v="용포동" /><tag k="note" v="국전,국전1,국전2,국전3,국전4" /><tag k="highway" v="bus_stop" /><tag k="public_transport" v="platform" /></node><node id="-200418" action="modify" visible="true" lat="35.51638056" lon="128.7361028"><tag k="name" v="용포마을" /><tag k="name:ko" v="용포마을" /><tag k="note" v="4대항4,4퇴로4,4퇴로7" /><tag k="highway" v="bus_stop" /><tag k="public_transport" v="platform" /></node><node id="-200419" action="modify" visible="true" lat="35.51633611" lon="128.7359972"><tag k="name" v="용포마을" /><tag k="name:ko" v="용포마을" /><tag k="note" v="4대항5,4대항9,4퇴로3" /><tag k="highway" v="bus_stop" /><tag k="public_transport" v="platform" /></node><node id="-200420" action="modify" visible="true" lat="35.48316278" lon="128.7458029"><tag k="name" v="우리마트" /><tag k="name:ko" v="우리마트" /><tag k="note" v="4-2번,7롯데,7번,7삼랑,7지동" /><tag k="highway" v="bus_stop" /><tag k="public_transport" v="platform" /></node><node id="-200421" action="modify" visible="true" lat="35.48317548" lon="128.7460153"><tag k="name" v="우리마트맞은편" /><tag k="name:ko" v="우리마트맞은편" /><tag k="note" v="10롯데,4-1롯데,4-1번,4-1번.,4-1용성,4-1청운,4-2번" /><tag k="highway" v="bus_stop" /><tag k="public_transport" v="platform" /></node><node id="-200422" action="modify" visible="true" lat="35.50939571" lon="128.7524959"><tag k="name" v="우신아파트" /><tag k="name:ko" v="우신아파트" /><tag k="note" v="2가곡,2번,2부산대,2용성,2청운,2초동,2칠성,5금동,5밀성고,5번,청운.,초동공단.,초동면소" /><tag k="highway" v="bus_stop" /><tag k="public_transport" v="platform" /></node><node id="-200423" action="modify" visible="true" lat="35.50920548" lon="128.7525634"><tag k="name" v="우신아파트" /><tag k="name:ko" v="우신아파트" /><tag k="note" v="1-2가곡,1-2금동,1-2번,1-2부산대,1가곡,1금동,1번,1부산대,1서가정,1용성,1초동,1칠성,4-2번,9롯데,9번,가곡,화봉1" /><tag k="highway" v="bus_stop" /><tag k="public_transport" v="platform" /></node><node id="-200424" action="modify" visible="true" lat="35.46420278" lon="128.7571556"><tag k="name" v="운내" /><tag k="name:ko" v="운내" /><tag k="note" v="1초동,2금동,5번,7-1번,금동1,금동1-2,금동2,금동4,금동7-1,남산1,남산2,삼랑진,수산1,수산2,초동면소,초동면소.,해동1" /><tag k="highway" v="bus_stop" /><tag k="public_transport" v="platform" /></node><node id="-200425" action="modify" visible="true" lat="35.46461389" lon="128.757325"><tag k="name" v="운내" /><tag k="name:ko" v="운내" /><tag k="note" v="1-2금동,1금동,5금동,5밀성고,5번,5시청,7-1번,남산1,남산2,삼랑진,수산1,수산2,초동3,초동공단.,해동1" /><tag k="highway" v="bus_stop" /><tag k="public_transport" v="platform" /></node><node id="-200426" action="modify" visible="true" lat="35.49523056" lon="128.6792028"><tag k="name" v="운정" /><tag k="name:ko" v="운정" /><tag k="note" v="1초동,2초동,구기3,대촌1,대촌2,두곡,서가정1,서가정2,서가정3,서가정4,서가정5,서가정6,소태,영신2,영신3,조천,조천2,초동2,초동공단,초동면소,초동면소.,화봉1" /><tag k="highway" v="bus_stop" /><tag k="public_transport" v="platform" /></node><node id="-200427" action="modify" visible="true" lat="35.49516667" lon="128.6790917"><tag k="name" v="운정" /><tag k="name:ko" v="운정" /><tag k="note" v="1서가정,1서가정,2초동,구기3,대촌1,대촌2,두곡,서가정1,서가정2,서가정3,서가정4,서가정5,서가정6,소태,영신2,영신3,조천,조천1,초동2,초동3,초동공단,초동공단.,화봉1" /><tag k="highway" v="bus_stop" /><tag k="public_transport" v="platform" /></node><node id="-200428" action="modify" visible="true" lat="35.47191389" lon="128.5982611"><tag k="name" v="웅동" /><tag k="name:ko" v="웅동" /><tag k="note" v="서가정2,서가정3,서가정4,서가정5" /><tag k="highway" v="bus_stop" /><tag k="public_transport" v="platform" /></node><node id="-200429" action="modify" visible="true" lat="35.47185833" lon="128.5982528"><tag k="name" v="웅동" /><tag k="name:ko" v="웅동" /><tag k="note" v="1서가정,서가정1" /><tag k="highway" v="bus_stop" /><tag k="public_transport" v="platform" /></node><node id="-200430" action="modify" visible="true" lat="35.60370278" lon="128.9209333"><tag k="name" v="원서" /><tag k="name:ko" v="원서" /><tag k="note" v="얼음골,얼음골1,얼음골2,얼음골3" /><tag k="highway" v="bus_stop" /><tag k="public_transport" v="platform" /></node><node id="-200431" action="modify" visible="true" lat="35.60361388" lon="128.9208861"><tag k="name" v="원서" /><tag k="name:ko" v="원서" /><tag k="note" v="얼음골,얼음골1,얼음골2,얼음골3" /><tag k="highway" v="bus_stop" /><tag k="public_transport" v="platform" /></node><node id="-200432" action="modify" visible="true" lat="35.53760278" lon="128.7106806"><tag k="name" v="월산" /><tag k="name:ko" v="월산" /><tag k="note" v="4퇴로2,4퇴로3" /><tag k="highway" v="bus_stop" /><tag k="public_transport" v="platform" /></node><node id="-200433" action="modify" visible="true" lat="35.54088056" lon="128.7103694"><tag k="name" v="월산" /><tag k="name:ko" v="월산" /><tag k="note" v="4퇴로1" /><tag k="highway" v="bus_stop" /><tag k="public_transport" v="platform" /></node><node id="-200434" action="modify" visible="true" lat="35.53756944" lon="128.7105333"><tag k="name" v="월산" /><tag k="name:ko" v="월산" /><tag k="note" v="4대항3,4대항4,4대항6,4퇴로4,4퇴로6,4퇴로7" /><tag k="highway" v="bus_stop" /><tag k="public_transport" v="platform" /></node><node id="-200435" action="modify" visible="true" lat="35.55068888" lon="128.7161"><tag k="name" v="위양" /><tag k="name:ko" v="위양" /><tag k="note" v="4대항3,4대항4,4대항7,4퇴로2,4퇴로4,4퇴로5,4퇴로6,4퇴로7,4퇴로8" /><tag k="highway" v="bus_stop" /><tag k="public_transport" v="platform" /></node><node id="-200436" action="modify" visible="true" lat="35.55059722" lon="128.7161417"><tag k="name" v="위양" /><tag k="name:ko" v="위양" /><tag k="note" v="4대항2,4대항5,4대항9,4퇴로1,4퇴로3" /><tag k="highway" v="bus_stop" /><tag k="public_transport" v="platform" /></node><node id="-200437" action="modify" visible="true" lat="35.54852222" lon="128.7733167"><tag k="name" v="유산" /><tag k="name:ko" v="유산" /><tag k="note" v="3상동,6상동,6상동1,6상동2,도곡1,도곡2,도곡4,상동,신곡1,신곡3,신곡4,신곡5,신곡6,신곡7,옥산,옥산1,옥산2" /><tag k="highway" v="bus_stop" /><tag k="public_transport" v="platform" /></node><node id="-200438" action="modify" visible="true" lat="35.54859444" lon="128.7734472"><tag k="name" v="유산" /><tag k="name:ko" v="유산" /><tag k="note" v="3상동,6상동,6상동1,6상동2,도곡1,도곡2,도곡4,상동,신곡1,신곡3,신곡4,신곡5,신곡6,신곡7,옥산,옥산1,옥산2" /><tag k="highway" v="bus_stop" /><tag k="public_transport" v="platform" /></node><node id="-200439" action="modify" visible="true" lat="35.47845556" lon="128.7550139"><tag k="name" v="유한강변아파트" /><tag k="name:ko" v="유한강변아파트" /><tag k="note" v="4-1롯데,4-1번,4-1번.,4-1용성,4-1청운,4구기,4대항1,4대항2,4대항3,4대항4,4대항5,4대항6,4대항7,4대항8,4대항9,4번,4초동,4퇴로1,4퇴로2,4퇴로3,4퇴로4,4퇴로5,4퇴로6,4퇴로7,4퇴로8,9롯데,9번,감물리1,국전1,남산2,대흥동1,수산1,얼음골1,표충사1" /><tag k="highway" v="bus_stop" /><tag k="public_transport" v="platform" /></node><node id="-200440" action="modify" visible="true" lat="35.47843056" lon="128.7548111"><tag k="name" v="유한강변아파트" /><tag k="name:ko" v="유한강변아파트" /><tag k="note" v="7-1번,7롯데,7번,7삼랑,7지동,9롯데,9번,남산2,대흥동1,수산1" /><tag k="highway" v="bus_stop" /><tag k="public_transport" v="platform" /></node><node id="-200441" action="modify" visible="true" lat="35.4945" lon="128.8127139"><tag k="name" v="율전" /><tag k="name:ko" v="율전" /><tag k="note" v="6활성,6활성1" /><tag k="highway" v="bus_stop" /><tag k="public_transport" v="platform" /></node><node id="-200442" action="modify" visible="true" lat="35.49443056" lon="128.8127417"><tag k="name" v="율전" /><tag k="name:ko" v="율전" /><tag k="note" v="6활성,6활성1" /><tag k="highway" v="bus_stop" /><tag k="public_transport" v="platform" /></node><node id="-200443" action="modify" visible="true" lat="35.40496111" lon="128.7451167"><tag k="name" v="은산" /><tag k="name:ko" v="은산" /><tag k="note" v="초동3,초동공단." /><tag k="highway" v="bus_stop" /><tag k="public_transport" v="platform" /></node><node id="-200444" action="modify" visible="true" lat="35.40485833" lon="128.7449861"><tag k="name" v="은산" /><tag k="name:ko" v="은산" /><tag k="note" v="1초동,초동면소,초동면소." /><tag k="highway" v="bus_stop" /><tag k="public_transport" v="platform" /></node><node id="-200445" action="modify" visible="true" lat="35.58254167" lon="128.8307861"><tag k="name" v="음지종점" /><tag k="name:ko" v="음지종점" /><tag k="note" v="신곡1,신곡3,신곡4,신곡5,신곡6,신곡7" /><tag k="highway" v="bus_stop" /><tag k="public_transport" v="platform" /></node><node id="-200446" action="modify" visible="true" lat="35.44063611" lon="128.7571639"><tag k="name" v="이연" /><tag k="name:ko" v="이연" /><tag k="note" v="1-2금동,1금동,5금동,5밀성고,5번,5시청,남산1,남산2,삼랑진,수산1,수산2,초동3,초동공단.,해동1" /><tag k="highway" v="bus_stop" /><tag k="public_transport" v="platform" /></node><node id="-200447" action="modify" visible="true" lat="35.44092778" lon="128.7571611"><tag k="name" v="이연" /><tag k="name:ko" v="이연" /><tag k="note" v="1초동,2금동,5밀성고,5번,5시청,금동1,금동1-2,금동2,금동4,금동7-1,남산1,남산2,삼랑진,수산1,수산2,초동면소,초동면소.,해동1" /><tag k="highway" v="bus_stop" /><tag k="public_transport" v="platform" /></node><node id="-200448" action="modify" visible="true" lat="35.59720013" lon="128.8912211"><tag k="name" v="인곡" /><tag k="name:ko" v="인곡" /><tag k="note" v="얼음골,얼음골1,얼음골2,얼음골3" /><tag k="highway" v="bus_stop" /><tag k="public_transport" v="platform" /></node><node id="-200449" action="modify" visible="true" lat="35.59711628" lon="128.8912522"><tag k="name" v="인곡" /><tag k="name:ko" v="인곡" /><tag k="note" v="얼음골,얼음골1,얼음골2,얼음골3" /><tag k="highway" v="bus_stop" /><tag k="public_transport" v="platform" /></node><node id="-200450" action="modify" visible="true" lat="35.54450555" lon="128.638425"><tag k="name" v="인산" /><tag k="name:ko" v="인산" /><tag k="note" v="4구기,구기1,구기3,대촌1,대촌1,대촌2,두곡,소태,조천,조천1,조천2" /><tag k="highway" v="bus_stop" /><tag k="public_transport" v="platform" /></node><node id="-200451" action="modify" visible="true" lat="35.54459444" lon="128.6385139"><tag k="name" v="인산" /><tag k="name:ko" v="인산" /><tag k="note" v="4구기,구기1,구기3,대촌1,대촌1,대촌2,두곡,소태,조천,조천1,조천2" /><tag k="highway" v="bus_stop" /><tag k="public_transport" v="platform" /></node><node id="-200452" action="modify" visible="true" lat="35.39443611" lon="128.7781972"><tag k="name" v="인산" /><tag k="name:ko" v="인산" /><tag k="note" v="수산1,수산2,해동1" /><tag k="highway" v="bus_stop" /><tag k="public_transport" v="platform" /></node><node id="-200453" action="modify" visible="true" lat="35.39436625" lon="128.7783011"><tag k="name" v="인산" /><tag k="name:ko" v="인산" /><tag k="note" v="수산1,수산2,해동1" /><tag k="highway" v="bus_stop" /><tag k="public_transport" v="platform" /></node><node id="-200454" action="modify" visible="true" lat="35.56878611" lon="128.8781056"><tag k="name" v="임고정" /><tag k="name:ko" v="임고정" /><tag k="note" v="발례1,발례2" /><tag k="highway" v="bus_stop" /><tag k="public_transport" v="platform" /></node><node id="-200455" action="modify" visible="true" lat="35.56868333" lon="128.8780639"><tag k="name" v="임고정" /><tag k="name:ko" v="임고정" /><tag k="note" v="발례1,발례2" /><tag k="highway" v="bus_stop" /><tag k="public_transport" v="platform" /></node><node id="-200456" action="modify" visible="true" lat="35.57547778" lon="128.8756222"><tag k="name" v="임고정" /><tag k="name:ko" v="임고정" /><tag k="note" v="발례1,발례1,발례2,발례2,얼음골,얼음골1,얼음골2,얼음골3" /><tag k="highway" v="bus_stop" /><tag k="public_transport" v="platform" /></node><node id="-200457" action="modify" visible="true" lat="35.57541944" lon="128.8757583"><tag k="name" v="임고정" /><tag k="name:ko" v="임고정" /><tag k="note" v="발례1,발례1,발례2,발례2,얼음골,얼음골1,얼음골2,얼음골3" /><tag k="highway" v="bus_stop" /><tag k="public_transport" v="platform" /></node><node id="-200458" action="modify" visible="true" lat="35.45285" lon="128.7974972"><tag k="name" v="임천" /><tag k="name:ko" v="임천" /><tag k="note" v="1-2부산대,1부산대,1용성,1칠성,1칠성.,2부산대,2용성,2칠성,3-1부산대,4-1용성,4부산대,4퇴로2,6부산대,6상동2,7롯데,7삼랑,용성,용성1,칠성" /><tag k="highway" v="bus_stop" /><tag k="public_transport" v="platform" /></node><node id="-200459" action="modify" visible="true" lat="35.45294722" lon="128.797425"><tag k="name" v="임천" /><tag k="name:ko" v="임천" /><tag k="note" v="4부산대,6용성,부산대1,부산대1-2,부산대2,부산대3,부산대4,부산대4-1,부산대6,부산대7,부산대7-1,삼랑1,삼랑2,삼랑3-1,삼랑4,삼랑4-1,삼랑7,용성0,용성2,용성7,칠성1-2,칠성2" /><tag k="highway" v="bus_stop" /><tag k="public_transport" v="platform" /></node><node id="-200460" action="modify" visible="true" lat="35.56880833" lon="128.8715306"><tag k="name" v="작평" /><tag k="name:ko" v="작평" /><tag k="note" v="발례,발례,발례1,발례2,얼음골,얼음골1,얼음골2,얼음골3" /><tag k="highway" v="bus_stop" /><tag k="public_transport" v="platform" /></node><node id="-200461" action="modify" visible="true" lat="35.56885833" lon="128.8714333"><tag k="name" v="작평" /><tag k="name:ko" v="작평" /><tag k="note" v="발례,발례,발례1,발례2,얼음골,얼음골1,얼음골2,얼음골3" /><tag k="highway" v="bus_stop" /><tag k="public_transport" v="platform" /></node><node id="-200462" action="modify" visible="true" lat="35.48444722" lon="128.6108389"><tag k="name" v="장재기" /><tag k="name:ko" v="장재기" /><tag k="note" v="1서가정,서가정1,서가정4,서가정5,서가정6,서가정7" /><tag k="highway" v="bus_stop" /><tag k="public_transport" v="platform" /></node><node id="-200463" action="modify" visible="true" lat="35.48428056" lon="128.6109139"><tag k="name" v="장재기" /><tag k="name:ko" v="장재기" /><tag k="note" v="서가정2,서가정3,서가정4,서가정5,서가정6" /><tag k="highway" v="bus_stop" /><tag k="public_transport" v="platform" /></node><node id="-200464" action="modify" visible="true" lat="35.52196944" lon="128.7105389"><tag k="name" v="적항" /><tag k="name:ko" v="적항" /><tag k="note" v="청운,청운." /><tag k="highway" v="bus_stop" /><tag k="public_transport" v="platform" /></node><node id="-200465" action="modify" visible="true" lat="35.4938804" lon="128.7538502"><tag k="name" v="전통시장" /><tag k="name:ko" v="전통시장" /><tag k="note" v="1-2가곡,1-2금동,1-2번,1-2부산대,10롯데,1가곡,1금동,1번,1부산대,1용성,1칠성,1칠성.,3-1번,3-1부산대,3상동,4-1번.,4-1용성,4대항1,4대항3,4대항7,4대항9,4부산대,4퇴로2,4퇴로4,4퇴로5,4퇴로7,5금동,5밀성고,5번,5시청,6번,6부산대,6상동,6상동2,6엄광,6활성,가곡,감물리1,국전1,수산2,얼음골1,얼음골3,용성1,표충사1,화봉1" /><tag k="highway" v="bus_stop" /><tag k="public_transport" v="platform" /></node><node id="-200466" action="modify" visible="true" lat="35.49431389" lon="128.7530944"><tag k="name" v="전통시장입구" /><tag k="name:ko" v="전통시장입구" /><tag k="note" v="2가곡,2금동,2번,2부산대,2용성,2청운,2초동,2칠성,5번,6-1번,6번,6부산대,6상동,6상동1,6상동2,6엄광,6활성,6활성1,감물리4,고례2,국전2,도곡1,도곡4,발례1,수산2,신곡3,신곡4,얼음골2,엄광2,옥산2,표충사2" /><tag k="highway" v="bus_stop" /><tag k="public_transport" v="platform" /></node><node id="-200467" action="modify" visible="true" lat="35.58778611" lon="128.8305806"><tag k="name" v="절골" /><tag k="name:ko" v="절골" /><tag k="note" v="신곡5,신곡6,신곡7" /><tag k="highway" v="bus_stop" /><tag k="public_transport" v="platform" /></node><node id="-200468" action="modify" visible="true" lat="35.58781389" lon="128.8306028"><tag k="name" v="절골" /><tag k="name:ko" v="절골" /><tag k="note" v="신곡1,신곡3,신곡4" /><tag k="highway" v="bus_stop" /><tag k="public_transport" v="platform" /></node><node id="-200469" action="modify" visible="true" lat="35.48720278" lon="128.6667722"><tag k="name" v="정곡" /><tag k="name:ko" v="정곡" /><tag k="note" v="1서가정,2초동,구기3,대촌1,대촌2,두곡,서가정1,서가정2,서가정3,서가정4,서가정5,서가정6,소태,영신2,영신3,조천,조천1,초동2,초동3,초동공단,초동공단.,화봉1" /><tag k="highway" v="bus_stop" /><tag k="public_transport" v="platform" /></node><node id="-200470" action="modify" visible="true" lat="35.48721944" lon="128.6666361"><tag k="name" v="정곡" /><tag k="name:ko" v="정곡" /><tag k="note" v="1서가정,1초동,2초동,구기3,대촌1,대촌2,두곡,서가정1,서가정2,서가정3,서가정4,서가정5,서가정6,소태,영신2,영신3,조천,조천2,초동2,초동공단,초동면소,초동면소.,화봉1" /><tag k="highway" v="bus_stop" /><tag k="public_transport" v="platform" /></node><node id="-200471" action="modify" visible="true" lat="35.49222222" lon="128.6700278"><tag k="name" v="정곡" /><tag k="name:ko" v="정곡" /><tag k="note" v="서가정6" /><tag k="highway" v="bus_stop" /><tag k="public_transport" v="platform" /></node><node id="-200472" action="modify" visible="true" lat="35.50875278" lon="128.7858722"><tag k="name" v="정문" /><tag k="name:ko" v="정문" /><tag k="note" v="3금곡,6엄광,6활성,6활성1,감물리,감물리1,감물리2,감물리3,감물리4,감물리5,고례1,고례2,고례3,국전,국전1,국전2,국전3,국전4,발례,발례1,발례2,얼음골,얼음골1,얼음골2,얼음골3,엄광1,엄광2,표충사,표충사1,표충사2,표충사3" /><tag k="highway" v="bus_stop" /><tag k="public_transport" v="platform" /></node><node id="-200473" action="modify" visible="true" lat="35.50879722" lon="128.7859139"><tag k="name" v="정문" /><tag k="name:ko" v="정문" /><tag k="note" v="3금곡,6엄광,6활성,6활성1,감물리,감물리1,감물리2,감물리3,감물리4,감물리5,고례1,고례2,고례3,국전,국전1,국전2,국전3,국전4,발례,발례1,발례2,얼음골,얼음골1,얼음골2,얼음골3,엄광1,엄광2,표충사,표충사1,표충사2,표충사3" /><tag k="highway" v="bus_stop" /><tag k="public_transport" v="platform" /></node><node id="-200474" action="modify" visible="true" lat="35.48628889" lon="128.7302306"><tag k="name" v="제대사거리" /><tag k="name:ko" v="제대사거리" /><tag k="note" v="1서가정,1초동,2초동,구기3,대촌1,대촌2,두곡,서가정1,서가정2,서가정3,서가정4,서가정5,서가정6,소태,영신2,영신3,조천2,초동2,초동공단,초동면소,초동면소.,화봉1" /><tag k="highway" v="bus_stop" /><tag k="public_transport" v="platform" /></node><node id="-200475" action="modify" visible="true" lat="35.48619444" lon="128.7302361"><tag k="name" v="제대사거리" /><tag k="name:ko" v="제대사거리" /><tag k="note" v="1서가정,2초동,구기3,두곡,서가정1,서가정2,서가정3,서가정4,서가정5,서가정6,소태,영신2,영신3,조천1,초동3,초동공단,초동공단.,화봉1" /><tag k="highway" v="bus_stop" /><tag k="public_transport" v="platform" /></node><node id="-200476" action="modify" visible="true" lat="35.49657778" lon="128.7484889"><tag k="name" v="제일병원" /><tag k="name:ko" v="제일병원" /><tag k="note" v="1-2가곡,1-2금동,1-2번,1-2부산대,1가곡,1금동,1번,1부산대,1용성,1칠성,1칠성.,3-1번,3-1부산대,3상동,4-1번.,4-1용성,4-2번,4대항1,4대항3,4대항7,4대항9,4부산대,4퇴로2,4퇴로4,4퇴로5,4퇴로7,5시청,6번,6부산대,6상동,6상동2,6엄광,6활성,7-1번,9롯데,9번,가곡,감물리5,고례3,국전3,도곡2,발례2,서가정5,수산2,신곡6,얼음골3,영신3,용성1,표충사3,화봉1" /><tag k="highway" v="bus_stop" /><tag k="public_transport" v="platform" /></node><node id="-200477" action="modify" visible="true" lat="35.49671389" lon="128.7483389"><tag k="name" v="제일병원" /><tag k="name:ko" v="제일병원" /><tag k="note" v="2가곡,2금동,2번,2부산대,2용성,2청운,2청운,2초동,2초동,2칠성,4-1번,4-1번.,4-1용성,4-1청운,5번,6-1번,6번,6부산대,6상동,6상동1,6상동2,6엄광,6활성,6활성1,감물리,감물리4,고례2,국전2,국전4,도곡1,도곡2,도곡4,발례1,서가정5,수산2,신곡1,신곡3,신곡4,신곡5,신곡6,얼음골,얼음골2,엄광2,영신3,옥산1,표충사,표충사2" /><tag k="highway" v="bus_stop" /><tag k="public_transport" v="platform" /></node><node id="-200478" action="modify" visible="true" lat="35.4959" lon="128.747425"><tag k="name" v="제일병원후문" /><tag k="name:ko" v="제일병원후문" /><tag k="note" v="10롯데" /><tag k="highway" v="bus_stop" /><tag k="public_transport" v="platform" /></node><node id="-200479" action="modify" visible="true" lat="35.48221944" lon="128.7532056"><tag k="name" v="제일훼미리" /><tag k="name:ko" v="제일훼미리" /><tag k="note" v="7-1번,7롯데,7번,7삼랑,7지동,9롯데,9번,남산2,대흥동1,수산1" /><tag k="highway" v="bus_stop" /><tag k="public_transport" v="platform" /></node><node id="-200480" action="modify" visible="true" lat="35.41208333" lon="128.7467111"><tag k="name" v="조음" /><tag k="name:ko" v="조음" /><tag k="note" v="남산1,남산2" /><tag k="highway" v="bus_stop" /><tag k="public_transport" v="platform" /></node><node id="-200481" action="modify" visible="true" lat="35.41224722" lon="128.7468306"><tag k="name" v="조음" /><tag k="name:ko" v="조음" /><tag k="note" v="남산1,남산2" /><tag k="highway" v="bus_stop" /><tag k="public_transport" v="platform" /></node><node id="-200482" action="modify" visible="true" lat="35.524075" lon="128.6174167"><tag k="name" v="조천종점" /><tag k="name:ko" v="조천종점" /><tag k="note" v="조천,조천1,조천2" /><tag k="highway" v="bus_stop" /><tag k="public_transport" v="platform" /></node><node id="-200483" action="modify" visible="true" lat="35.50338889" lon="128.8252361"><tag k="name" v="죽남" /><tag k="name:ko" v="죽남" /><tag k="note" v="3금곡,감물리,감물리1,감물리2,감물리3,감물리4,감물리5,고례1,고례2,고례3,국전,국전1,국전2,국전3,국전4,발례,발례1,발례2,얼음골,얼음골1,얼음골2,얼음골3,표충사,표충사1,표충사2,표충사3" /><tag k="highway" v="bus_stop" /><tag k="public_transport" v="platform" /></node><node id="-200484" action="modify" visible="true" lat="35.50347777" lon="128.8252389"><tag k="name" v="죽남" /><tag k="name:ko" v="죽남" /><tag k="note" v="3금곡,감물리,감물리1,감물리2,감물리3,감물리4,감물리5,고례1,고례2,고례3,국전,국전1,국전2,국전3,국전4,발례,발례1,발례2,얼음골,얼음골1,얼음골2,얼음골3,표충사,표충사1,표충사2,표충사3" /><tag k="highway" v="bus_stop" /><tag k="public_transport" v="platform" /></node><node id="-200485" action="modify" visible="true" lat="35.50635278" lon="128.6515361"><tag k="name" v="죽월" /><tag k="name:ko" v="죽월" /><tag k="note" v="구기3,대촌1,대촌2,두곡,소태,조천,조천2" /><tag k="highway" v="bus_stop" /><tag k="public_transport" v="platform" /></node><node id="-200486" action="modify" visible="true" lat="35.50621944" lon="128.6514722"><tag k="name" v="죽월" /><tag k="name:ko" v="죽월" /><tag k="note" v="구기3,대촌1,대촌2,두곡,소태,조천,조천1" /><tag k="highway" v="bus_stop" /><tag k="public_transport" v="platform" /></node><node id="-200487" action="modify" visible="true" lat="35.46015833" lon="128.8763944"><tag k="name" v="중리" /><tag k="name:ko" v="중리" /><tag k="note" v="감물리,감물리1,감물리2,감물리4,감물리5" /><tag k="highway" v="bus_stop" /><tag k="public_transport" v="platform" /></node><node id="-200488" action="modify" visible="true" lat="35.47809925" lon="128.6222454"><tag k="name" v="중산" /><tag k="name:ko" v="중산" /><tag k="note" v="1서가정,서가정1,서가정2,서가정3,서가정4,서가정5,서가정6,서가정7" /><tag k="highway" v="bus_stop" /><tag k="public_transport" v="platform" /></node><node id="-200489" action="modify" visible="true" lat="35.47805793" lon="128.6223024"><tag k="name" v="중산" /><tag k="name:ko" v="중산" /><tag k="note" v="1서가정,서가정1,서가정2,서가정3,서가정4,서가정5,서가정6" /><tag k="highway" v="bus_stop" /><tag k="public_transport" v="platform" /></node><node id="-200490" action="modify" visible="true" lat="35.54259722" lon="128.6858278"><tag k="name" v="중항" /><tag k="name:ko" v="중항" /><tag k="note" v="4구기,4구기,4대항3,4대항4,4대항6,4대항7,4퇴로2,4퇴로5,4퇴로6,4퇴로7,4퇴로8" /><tag k="highway" v="bus_stop" /><tag k="public_transport" v="platform" /></node><node id="-200491" action="modify" visible="true" lat="35.54267222" lon="128.6859167"><tag k="name" v="중항" /><tag k="name:ko" v="중항" /><tag k="note" v="4구기,4구기,4대항3,4대항4,4대항6,4대항7,4퇴로2,4퇴로5,4퇴로6,4퇴로7,4퇴로8" /><tag k="highway" v="bus_stop" /><tag k="public_transport" v="platform" /></node><node id="-200492" action="modify" visible="true" lat="35.50829444" lon="128.7461639"><tag k="name" v="지동마을" /><tag k="name:ko" v="지동마을" /><tag k="note" v="4대항4,4퇴로4,4퇴로7,7지동" /><tag k="highway" v="bus_stop" /><tag k="public_transport" v="platform" /></node><node id="-200493" action="modify" visible="true" lat="35.50830833" lon="128.745975"><tag k="name" v="지동마을" /><tag k="name:ko" v="지동마을" /><tag k="note" v="4대항5,4대항9,4퇴로3,7지동" /><tag k="highway" v="bus_stop" /><tag k="public_transport" v="platform" /></node><node id="-200494" action="modify" visible="true" lat="35.50601389" lon="128.7443444"><tag k="name" v="지동입구" /><tag k="name:ko" v="지동입구" /><tag k="note" v="4대항5,4대항9,4퇴로3,7지동" /><tag k="highway" v="bus_stop" /><tag k="public_transport" v="platform" /></node><node id="-200495" action="modify" visible="true" lat="35.50596667" lon="128.7444556"><tag k="name" v="지동입구" /><tag k="name:ko" v="지동입구" /><tag k="note" v="4대항4,4퇴로4,4퇴로7,7지동" /><tag k="highway" v="bus_stop" /><tag k="public_transport" v="platform" /></node><node id="-200496" action="modify" visible="true" lat="35.49128056" lon="128.8916778"><tag k="name" v="지시동" /><tag k="name:ko" v="지시동" /><tag k="note" v="국전,국전1,국전2,국전3,국전4" /><tag k="highway" v="bus_stop" /><tag k="public_transport" v="platform" /></node><node id="-200497" action="modify" visible="true" lat="35.49119722" lon="128.8916111"><tag k="name" v="지시동" /><tag k="name:ko" v="지시동" /><tag k="note" v="국전,국전1,국전2,국전3,국전4" /><tag k="highway" v="bus_stop" /><tag k="public_transport" v="platform" /></node><node id="-200498" action="modify" visible="true" lat="35.48527778" lon="128.8972056"><tag k="name" v="진주동" /><tag k="name:ko" v="진주동" /><tag k="note" v="국전,국전1,국전2,국전3,국전4" /><tag k="highway" v="bus_stop" /><tag k="public_transport" v="platform" /></node><node id="-200499" action="modify" visible="true" lat="35.48533333" lon="128.8972333"><tag k="name" v="진주동" /><tag k="name:ko" v="진주동" /><tag k="note" v="국전,국전1,국전2,국전3,국전4" /><tag k="highway" v="bus_stop" /><tag k="public_transport" v="platform" /></node><node id="-200500" action="modify" visible="true" lat="35.52613611" lon="128.7282306"><tag k="name" v="참숮가마 찜질방" /><tag k="name:ko" v="참숮가마 찜질방" /><tag k="note" v="4대항5,4대항9,4퇴로3" /><tag k="highway" v="bus_stop" /><tag k="public_transport" v="platform" /></node><node id="-200501" action="modify" visible="true" lat="35.52624444" lon="128.7282472"><tag k="name" v="참숮가마 찜질방" /><tag k="name:ko" v="참숮가마 찜질방" /><tag k="note" v="4대항4,4퇴로4,4퇴로7" /><tag k="highway" v="bus_stop" /><tag k="public_transport" v="platform" /></node><node id="-200502" action="modify" visible="true" lat="35.48476389" lon="128.7576472"><tag k="name" v="청구아파트" /><tag k="name:ko" v="청구아파트" /><tag k="note" v="1-2가곡,1-2금동,1-2번,1-2부산대,1가곡,1금동,1번,1부산대,1서가정,1용성,1초동,1칠성,2가곡,2금동,2번,2부산대,2용성,2청운,2초동,2칠성,3-1번,3-1부산대,3금곡,3번,3상동,4-2번,5번,6-1번,6번,6부산대,6상동,6상동1,6상동2,6엄광,6활성,6활성1,7-1번,7롯데,7번,7삼랑,7지동,가곡,수산2,화봉1" /><tag k="highway" v="bus_stop" /><tag k="public_transport" v="platform" /></node><node id="-200503" action="modify" visible="true" lat="35.49380556" lon="128.7542361"><tag k="name" v="청소년문화의집" /><tag k="name:ko" v="청소년문화의집" /><tag k="note" v="감물리5,고례3,국전3,도곡2,발례2,신곡6,표충사3" /><tag k="highway" v="bus_stop" /><tag k="public_transport" v="platform" /></node><node id="-200504" action="modify" visible="true" lat="35.52469444" lon="128.7092306"><tag k="name" v="청운" /><tag k="name:ko" v="청운" /><tag k="note" v="2청운,4-1청운,4대항5,4대항9,4퇴로2,4퇴로2,4퇴로5,청운,청운." /><tag k="highway" v="bus_stop" /><tag k="public_transport" v="platform" /></node><node id="-200505" action="modify" visible="true" lat="35.52868055" lon="128.7117694"><tag k="name" v="청운마을입구" /><tag k="name:ko" v="청운마을입구" /><tag k="note" v="2청운,4-1청운,4구기,4대항1,4대항3,4대항4,4대항6,4대항7,4대항8,4퇴로4,4퇴로6,4퇴로7,4퇴로8,구기1,조천2,청운." /><tag k="highway" v="bus_stop" /><tag k="public_transport" v="platform" /></node><node id="-200506" action="modify" visible="true" lat="35.528775" lon="128.7118444"><tag k="name" v="청운마을입구" /><tag k="name:ko" v="청운마을입구" /><tag k="note" v="4구기,4대항1,4대항2,4대항5,4대항6,4대항8,4대항9,4퇴로1,4퇴로3,구기1,조천1" /><tag k="highway" v="bus_stop" /><tag k="public_transport" v="platform" /></node><node id="-200507" action="modify" visible="true" lat="35.49171944" lon="128.7532472"><tag k="name" v="청학서점" /><tag k="name:ko" v="청학서점" /><tag k="note" v="1-2가곡,1-2금동,1-2번,1-2부산대,1가곡,1금동,1번,1부산대,1서가정,1용성,1초동,1칠성,3-1번,3-1부산대,3금곡,3번,3상동,7-1번,7롯데,7번,7삼랑,7지동,가곡,화봉1" /><tag k="highway" v="bus_stop" /><tag k="public_transport" v="platform" /></node><node id="-200508" action="modify" visible="true" lat="35.42123889" lon="128.6728139"><tag k="name" v="초동" /><tag k="name:ko" v="초동" /><tag k="note" v="1초동,초동3,초동공단.,초동면소" /><tag k="highway" v="bus_stop" /><tag k="public_transport" v="platform" /></node><node id="-200509" action="modify" visible="true" lat="35.42113611" lon="128.6726667"><tag k="name" v="초동" /><tag k="name:ko" v="초동" /><tag k="note" v="초동2,초동3,초동공단.,초동면소." /><tag k="highway" v="bus_stop" /><tag k="public_transport" v="platform" /></node><node id="-200510" action="modify" visible="true" lat="35.42218611" lon="128.6568056"><tag k="name" v="초동농공공단" /><tag k="name:ko" v="초동농공공단" /><tag k="note" v="2초동,초동3,초동공단,초동공단." /><tag k="highway" v="bus_stop" /><tag k="public_transport" v="platform" /></node><node id="-200511" action="modify" visible="true" lat="35.49475" lon="128.7515667"><tag k="name" v="축협" /><tag k="name:ko" v="축협" /><tag k="note" v="1-2가곡,1-2금동,1-2번,1-2부산대,1가곡,1금동,1번,1부산대,1서가정,1용성,1초동,1칠성,3-1번,3-1부산대,3금곡,3번,3상동,4-1번,4-1번.,4-1용성,4-2번,7-1번,7롯데,7번,7삼랑,7지동,9롯데,9번,가곡,서가정5,영신3,화봉1" /><tag k="highway" v="bus_stop" /><tag k="public_transport" v="platform" /></node><node id="-200512" action="modify" visible="true" lat="35.49473888" lon="128.7514083"><tag k="name" v="축협" /><tag k="name:ko" v="축협" /><tag k="note" v="1서가정,2가곡,2번,2부산대,2용성,2초동,2초동.,2칠성,3금곡,3번,4-1롯데,4-1번,4-1청운,4-2번,4구기,4대항2,4대항4,4대항5,4대항6,4대항8,4퇴로1,4퇴로3,4퇴로6,4퇴로8,6-1번,7-1번,9롯데,9번,서가정5,영신3" /><tag k="highway" v="bus_stop" /><tag k="public_transport" v="platform" /></node><node id="-200513" action="modify" visible="true" lat="35.52114722" lon="128.7246556"><tag k="name" v="춘기" /><tag k="name:ko" v="춘기" /><tag k="note" v="2청운,4-1청운,4구기,4대항1,4대항2,4대항3,4대항4,4대항6,4대항7,4대항8,4부산대,4퇴로1,4퇴로2,4퇴로4,4퇴로5,4퇴로6,4퇴로7,4퇴로8,7-1번,7롯데,7번,7지동,구기1,청운,청운." /><tag k="highway" v="bus_stop" /><tag k="public_transport" v="platform" /></node><node id="-200514" action="modify" visible="true" lat="35.52117222" lon="128.7248722"><tag k="name" v="춘기" /><tag k="name:ko" v="춘기" /><tag k="note" v="4구기,4대항1,4대항2,4대항3,4대항6,4대항7,4대항8,4퇴로1,4퇴로2,4퇴로3,4퇴로5,4퇴로6,4퇴로8,7롯데,7삼랑,구기1" /><tag k="highway" v="bus_stop" /><tag k="public_transport" v="platform" /></node><node id="-200515" action="modify" visible="true" lat="35.51202606" lon="128.7556667"><tag k="name" v="춘복타워" /><tag k="name:ko" v="춘복타워" /><tag k="note" v="2가곡,2번,2부산대,2용성,2청운,2초동,2칠성,5금동,5밀성고,5번,청운.,초동공단.,초동면소" /><tag k="highway" v="bus_stop" /><tag k="public_transport" v="platform" /></node><node id="-200516" action="modify" visible="true" lat="35.51185417" lon="128.7557125"><tag k="name" v="춘복타워" /><tag k="name:ko" v="춘복타워" /><tag k="note" v="1-2가곡,1-2금동,1-2번,1-2부산대,1가곡,1금동,1번,1부산대,1서가정,1용성,1초동,1칠성,4-2번,9롯데,9번,가곡,화봉1" /><tag k="highway" v="bus_stop" /><tag k="public_transport" v="platform" /></node><node id="-200517" action="modify" visible="true" lat="35.43652124" lon="128.8065112"><tag k="name" v="칠성" /><tag k="name:ko" v="칠성" /><tag k="note" v="삼랑1,삼랑2,삼랑3-1,삼랑4,삼랑4-1,삼랑7,칠성1-2,칠성2" /><tag k="highway" v="bus_stop" /><tag k="public_transport" v="platform" /></node><node id="-200518" action="modify" visible="true" lat="35.43671667" lon="128.8063"><tag k="name" v="칠성" /><tag k="name:ko" v="칠성" /><tag k="note" v="1칠성,1칠성.,2칠성,7롯데,7삼랑,칠성" /><tag k="highway" v="bus_stop" /><tag k="public_transport" v="platform" /></node><node id="-200519" action="modify" visible="true" lat="35.36847932" lon="128.7490119"><tag k="name" v="칠정" /><tag k="name:ko" v="칠정" /><tag k="note" v="수산1,수산2,오산" /><tag k="highway" v="bus_stop" /><tag k="public_transport" v="platform" /></node><node id="-200520" action="modify" visible="true" lat="35.36853523" lon="128.7490406"><tag k="name" v="칠정" /><tag k="name:ko" v="칠정" /><tag k="note" v="수산1,수산2,오산" /><tag k="highway" v="bus_stop" /><tag k="public_transport" v="platform" /></node><node id="-200521" action="modify" visible="true" lat="35.50881667" lon="128.8758917"><tag k="name" v="태동" /><tag k="name:ko" v="태동" /><tag k="note" v="국전,국전1,국전2,국전3,국전4" /><tag k="highway" v="bus_stop" /><tag k="public_transport" v="platform" /></node><node id="-200522" action="modify" visible="true" lat="35.50880833" lon="128.8757944"><tag k="name" v="태동" /><tag k="name:ko" v="태동" /><tag k="note" v="국전,국전1,국전2,국전3,국전4" /><tag k="highway" v="bus_stop" /><tag k="public_transport" v="platform" /></node><node id="-200523" action="modify" visible="true" lat="35.514975" lon="128.8755"><tag k="name" v="태룡" /><tag k="name:ko" v="태룡" /><tag k="note" v="고례1,고례2,고례3,국전,국전1,국전2,국전3,국전4,표충사,표충사1,표충사2,표충사3" /><tag k="highway" v="bus_stop" /><tag k="public_transport" v="platform" /></node><node id="-200524" action="modify" visible="true" lat="35.51505" lon="128.8755722"><tag k="name" v="태룡" /><tag k="name:ko" v="태룡" /><tag k="note" v="고례1,고례2,고례3,국전,국전1,국전2,국전3,국전4,표충사,표충사1,표충사2,표충사3" /><tag k="highway" v="bus_stop" /><tag k="public_transport" v="platform" /></node><node id="-200525" action="modify" visible="true" lat="35.54923611" lon="128.7010111"><tag k="name" v="퇴로" /><tag k="name:ko" v="퇴로" /><tag k="note" v="4대항3,4대항4,4대항7,4퇴로2,4퇴로5,4퇴로6,4퇴로7,4퇴로8" /><tag k="highway" v="bus_stop" /><tag k="public_transport" v="platform" /></node><node id="-200526" action="modify" visible="true" lat="35.54923056" lon="128.7012139"><tag k="name" v="퇴로" /><tag k="name:ko" v="퇴로" /><tag k="note" v="4대항2,4대항3,4대항4,4대항5,4대항6,4대항9,4퇴로6,4퇴로7" /><tag k="highway" v="bus_stop" /><tag k="public_transport" v="platform" /></node><node id="-200527" action="modify" visible="true" lat="35.54712222" lon="128.7059083"><tag k="name" v="퇴로마을" /><tag k="name:ko" v="퇴로마을" /><tag k="note" v="4퇴로1,4퇴로3" /><tag k="highway" v="bus_stop" /><tag k="public_transport" v="platform" /></node><node id="-200528" action="modify" visible="true" lat="35.54736667" lon="128.7057556"><tag k="name" v="퇴로마을" /><tag k="name:ko" v="퇴로마을" /><tag k="note" v="4퇴로4" /><tag k="highway" v="bus_stop" /><tag k="public_transport" v="platform" /></node><node id="-200529" action="modify" visible="true" lat="35.54194444" lon="128.7752389"><tag k="name" v="평능" /><tag k="name:ko" v="평능" /><tag k="note" v="3상동,6상동,6상동1,6상동2,도곡1,도곡2,도곡4,상동,신곡1,신곡3,신곡4,신곡5,신곡6,신곡7,옥산,옥산1,옥산2" /><tag k="highway" v="bus_stop" /><tag k="public_transport" v="platform" /></node><node id="-200530" action="modify" visible="true" lat="35.54203056" lon="128.7753583"><tag k="name" v="평능" /><tag k="name:ko" v="평능" /><tag k="note" v="3상동,6상동,6상동1,6상동2,도곡1,도곡2,도곡4,상동,신곡1,신곡3,신곡4,신곡5,신곡6,신곡7,옥산,옥산1,옥산2" /><tag k="highway" v="bus_stop" /><tag k="public_transport" v="platform" /></node><node id="-200531" action="modify" visible="true" lat="35.42726111" lon="128.7371278"><tag k="name" v="평리" /><tag k="name:ko" v="평리" /><tag k="note" v="남산1,남산2" /><tag k="highway" v="bus_stop" /><tag k="public_transport" v="platform" /></node><node id="-200532" action="modify" visible="true" lat="35.49921944" lon="128.9267139"><tag k="name" v="평리" /><tag k="name:ko" v="평리" /><tag k="note" v="고례1,고례2,고례3" /><tag k="highway" v="bus_stop" /><tag k="public_transport" v="platform" /></node><node id="-200533" action="modify" visible="true" lat="35.42722777" lon="128.7369611"><tag k="name" v="평리" /><tag k="name:ko" v="평리" /><tag k="note" v="남산1,남산2" /><tag k="highway" v="bus_stop" /><tag k="public_transport" v="platform" /></node><node id="-200534" action="modify" visible="true" lat="35.49928888" lon="128.9266556"><tag k="name" v="평리" /><tag k="name:ko" v="평리" /><tag k="note" v="고례1,고례2,고례3" /><tag k="highway" v="bus_stop" /><tag k="public_transport" v="platform" /></node><node id="-200535" action="modify" visible="true" lat="35.54325" lon="128.6419278"><tag k="name" v="평지" /><tag k="name:ko" v="평지" /><tag k="note" v="4구기,구기1,구기3,대촌1,대촌1,대촌2,두곡,소태,조천,조천1,조천2" /><tag k="highway" v="bus_stop" /><tag k="public_transport" v="platform" /></node><node id="-200536" action="modify" visible="true" lat="35.54335" lon="128.641975"><tag k="name" v="평지" /><tag k="name:ko" v="평지" /><tag k="note" v="4구기,구기1,구기3,대촌1,대촌1,대촌2,두곡,소태,조천,조천1,조천2" /><tag k="highway" v="bus_stop" /><tag k="public_transport" v="platform" /></node><node id="-200537" action="modify" visible="true" lat="35.41322222" lon="128.7771028"><tag k="name" v="평촌" /><tag k="name:ko" v="평촌" /><tag k="note" v="삼랑진" /><tag k="highway" v="bus_stop" /><tag k="public_transport" v="platform" /></node><node id="-200538" action="modify" visible="true" lat="35.41081388" lon="128.7754722"><tag k="name" v="평촌" /><tag k="name:ko" v="평촌" /><tag k="note" v="수산1,수산2,해동1" /><tag k="highway" v="bus_stop" /><tag k="public_transport" v="platform" /></node><node id="-200539" action="modify" visible="true" lat="35.41332778" lon="128.7771444"><tag k="name" v="평촌" /><tag k="name:ko" v="평촌" /><tag k="note" v="삼랑진" /><tag k="highway" v="bus_stop" /><tag k="public_transport" v="platform" /></node><node id="-200540" action="modify" visible="true" lat="35.41295556" lon="128.7745778"><tag k="name" v="평촌" /><tag k="name:ko" v="평촌" /><tag k="note" v="1초동,남산1,남산2,초동면소,초동면소." /><tag k="highway" v="bus_stop" /><tag k="public_transport" v="platform" /></node><node id="-200541" action="modify" visible="true" lat="35.41301389" lon="128.7744722"><tag k="name" v="평촌" /><tag k="name:ko" v="평촌" /><tag k="note" v="남산1,남산2,초동3,초동공단." /><tag k="highway" v="bus_stop" /><tag k="public_transport" v="platform" /></node><node id="-200542" action="modify" visible="true" lat="35.41079722" lon="128.7753806"><tag k="name" v="평촌" /><tag k="name:ko" v="평촌" /><tag k="note" v="수산1,수산2,해동1" /><tag k="highway" v="bus_stop" /><tag k="public_transport" v="platform" /></node><node id="-200543" action="modify" visible="true" lat="35.53088611" lon="128.9430944"><tag k="name" v="표충사상가" /><tag k="name:ko" v="표충사상가" /><tag k="note" v="표충사,표충사1,표충사2,표충사3" /><tag k="highway" v="bus_stop" /><tag k="public_transport" v="platform" /></node><node id="-200544" action="modify" visible="true" lat="35.53092222" lon="128.9430056"><tag k="name" v="표충사상가" /><tag k="name:ko" v="표충사상가" /><tag k="note" v="표충사,표충사1,표충사2,표충사3" /><tag k="highway" v="bus_stop" /><tag k="public_transport" v="platform" /></node><node id="-200545" action="modify" visible="true" lat="35.53291389" lon="128.9516194"><tag k="name" v="표충사종점" /><tag k="name:ko" v="표충사종점" /><tag k="note" v="표충사,표충사1,표충사2,표충사3" /><tag k="highway" v="bus_stop" /><tag k="public_transport" v="platform" /></node><node id="-200546" action="modify" visible="true" lat="35.48176111" lon="128.7464861"><tag k="name" v="푸르지오입구" /><tag k="name:ko" v="푸르지오입구" /><tag k="note" v="4-2번,7롯데,7번,7삼랑,7지동" /><tag k="highway" v="bus_stop" /><tag k="public_transport" v="platform" /></node><node id="-200547" action="modify" visible="true" lat="35.48158333" lon="128.7467167"><tag k="name" v="푸르지오입구" /><tag k="name:ko" v="푸르지오입구" /><tag k="note" v="10롯데,4-1롯데,4-1번,4-1번.,4-1용성,4-1청운,4-2번" /><tag k="highway" v="bus_stop" /><tag k="public_transport" v="platform" /></node><node id="-200548" action="modify" visible="true" lat="35.48581389" lon="128.7284667"><tag k="name" v="한골" /><tag k="name:ko" v="한골" /><tag k="note" v="1서가정,2초동,구기3,대촌1,대촌2,두곡,서가정1,서가정2,서가정3,서가정4,서가정5,서가정6,소태,영신2,영신3,조천,조천1,초동공단,화봉1" /><tag k="highway" v="bus_stop" /><tag k="public_transport" v="platform" /></node><node id="-200549" action="modify" visible="true" lat="35.48592778" lon="128.7284639"><tag k="name" v="한골" /><tag k="name:ko" v="한골" /><tag k="note" v="1서가정,1초동,2초동,구기3,대촌1,대촌2,두곡,서가정1,서가정2,서가정3,서가정4,서가정5,서가정6,소태,영신2,영신3,조천,조천2,초동공단,초동면소.,화봉1" /><tag k="highway" v="bus_stop" /><tag k="public_transport" v="platform" /></node><node id="-200550" action="modify" visible="true" lat="35.50966667" lon="128.7425889"><tag k="name" v="한국화이바뒤" /><tag k="name:ko" v="한국화이바뒤" /><tag k="note" v="4대항5,4대항9,4퇴로3,7지동" /><tag k="highway" v="bus_stop" /><tag k="public_transport" v="platform" /></node><node id="-200551" action="modify" visible="true" lat="35.50978056" lon="128.7425889"><tag k="name" v="한국화이바뒤" /><tag k="name:ko" v="한국화이바뒤" /><tag k="note" v="4대항4,4퇴로4,4퇴로7,7지동" /><tag k="highway" v="bus_stop" /><tag k="public_transport" v="platform" /></node><node id="-200552" action="modify" visible="true" lat="35.53666111" lon="128.6874472"><tag k="name" v="한목" /><tag k="name:ko" v="한목" /><tag k="note" v="4대항1,4대항8,4퇴로8" /><tag k="highway" v="bus_stop" /><tag k="public_transport" v="platform" /></node><node id="-200553" action="modify" visible="true" lat="35.53675556" lon="128.6876778"><tag k="name" v="한목" /><tag k="name:ko" v="한목" /><tag k="note" v="4대항1,4대항2,4대항5,4대항6,4대항7,4대항8,4대항9" /><tag k="highway" v="bus_stop" /><tag k="public_transport" v="platform" /></node><node id="-200554" action="modify" visible="true" lat="35.53695278" lon="128.6886611"><tag k="name" v="한목" /><tag k="name:ko" v="한목" /><tag k="note" v="4대항2,4대항5,4대항6,4대항7,4대항9" /><tag k="highway" v="bus_stop" /><tag k="public_transport" v="platform" /></node><node id="-200555" action="modify" visible="true" lat="35.53704722" lon="128.6886944"><tag k="name" v="한목" /><tag k="name:ko" v="한목" /><tag k="note" v="4퇴로8" /><tag k="highway" v="bus_stop" /><tag k="public_transport" v="platform" /></node><node id="-200556" action="modify" visible="true" lat="35.50620556" lon="128.7350806"><tag k="name" v="한솔병원" /><tag k="name:ko" v="한솔병원" /><tag k="note" v="2청운,4-1청운,4구기,4대항1,4대항2,4대항3,4대항4,4대항6,4대항7,4대항8,4부산대,4퇴로1,4퇴로2,4퇴로4,4퇴로5,4퇴로6,4퇴로7,4퇴로8,7-1번,7롯데,7번,7삼랑,7지동,구기1,조천2,청운,청운." /><tag k="highway" v="bus_stop" /><tag k="public_transport" v="platform" /></node><node id="-200557" action="modify" visible="true" lat="35.50616944" lon="128.7355556"><tag k="name" v="한솔병원" /><tag k="name:ko" v="한솔병원" /><tag k="note" v="4-1롯데,4-1번,4-1번.,4-1용성,4구기,4대항1,4대항2,4대항3,4대항5,4대항6,4대항7,4대항8,4대항9,4퇴로1,4퇴로2,4퇴로3,4퇴로5,4퇴로6,4퇴로8,7-1번,7롯데,7번,7삼랑,7지동,구기1,조천1" /><tag k="highway" v="bus_stop" /><tag k="public_transport" v="platform" /></node><node id="-200558" action="modify" visible="true" lat="35.50640556" lon="128.7519528"><tag k="name" v="한울아파트" /><tag k="name:ko" v="한울아파트" /><tag k="note" v="1-2가곡,1-2금동,1-2번,1-2부산대,1가곡,1금동,1번,1부산대,1서가정,1용성,1초동,1칠성,4-2번,9롯데,9번,가곡,화봉1" /><tag k="highway" v="bus_stop" /><tag k="public_transport" v="platform" /></node><node id="-200559" action="modify" visible="true" lat="35.50657765" lon="128.7516962"><tag k="name" v="한울아파트" /><tag k="name:ko" v="한울아파트" /><tag k="note" v="2가곡,2번,2부산대,2용성,2청운,2초동,2칠성,5금동,5밀성고,5번,청운.,초동공단.,초동면소" /><tag k="highway" v="bus_stop" /><tag k="public_transport" v="platform" /></node><node id="-200560" action="modify" visible="true" lat="35.47314444" lon="128.7656972"><tag k="name" v="한전지점" /><tag k="name:ko" v="한전지점" /><tag k="note" v="1-2금동,1금동,4-1롯데,4-1번,4-1번.,4-1용성,4-1청운,4구기,4대항1,4대항2,4대항3,4대항4,4대항5,4대항6,4대항7,4대항8,4대항9,4번,4초동,4퇴로1,4퇴로2,4퇴로3,4퇴로4,4퇴로5,4퇴로6,4퇴로7,4퇴로8,5금동,5밀성고,5번,5시청,9롯데,9번,남산1,대흥동2,삼랑진,해동1" /><tag k="highway" v="bus_stop" /><tag k="public_transport" v="platform" /></node><node id="-200561" action="modify" visible="true" lat="35.35922645" lon="128.7839849"><tag k="name" v="해동" /><tag k="name:ko" v="해동" /><tag k="note" v="수산1,수산2,오산" /><tag k="highway" v="bus_stop" /><tag k="public_transport" v="platform" /></node><node id="-200562" action="modify" visible="true" lat="35.35916077" lon="128.7840082"><tag k="name" v="해동" /><tag k="name:ko" v="해동" /><tag k="note" v="수산1,수산2,오산,해동1" /><tag k="highway" v="bus_stop" /><tag k="public_transport" v="platform" /></node><node id="-200563" action="modify" visible="true" lat="35.50519694" lon="128.7421856"><tag k="name" v="현대아파트" /><tag k="name:ko" v="현대아파트" /><tag k="note" v="4-1롯데,4-1번,4-1번.,4-1용성" /><tag k="highway" v="bus_stop" /><tag k="public_transport" v="platform" /></node><node id="-200564" action="modify" visible="true" lat="35.50485556" lon="128.7412972"><tag k="name" v="현대아파트" /><tag k="name:ko" v="현대아파트" /><tag k="note" v="4-1청운,4퇴로1" /><tag k="highway" v="bus_stop" /><tag k="public_transport" v="platform" /></node><node id="-200565" action="modify" visible="true" lat="35.50488056" lon="128.7411833"><tag k="name" v="현대아파트" /><tag k="name:ko" v="현대아파트" /><tag k="note" v="1-2가곡,1-2금동,1-2번,1-2부산대,7-1번,7롯데,7번,7삼랑,7지동" /><tag k="highway" v="bus_stop" /><tag k="public_transport" v="platform" /></node><node id="-200566" action="modify" visible="true" lat="35.53363611" lon="128.6171083"><tag k="name" v="호음동" /><tag k="name:ko" v="호음동" /><tag k="note" v="조천,조천1,조천2" /><tag k="highway" v="bus_stop" /><tag k="public_transport" v="platform" /></node><node id="-200567" action="modify" visible="true" lat="35.53351944" lon="128.6170222"><tag k="name" v="호음동" /><tag k="name:ko" v="호음동" /><tag k="note" v="조천,조천1,조천2" /><tag k="highway" v="bus_stop" /><tag k="public_transport" v="platform" /></node><node id="-200568" action="modify" visible="true" lat="35.50978888" lon="128.8512222"><tag k="name" v="홍제중학교" /><tag k="name:ko" v="홍제중학교" /><tag k="note" v="고례1,고례2,고례3,국전,국전1,국전2,국전3,국전4,표충사,표충사1,표충사2,표충사3" /><tag k="highway" v="bus_stop" /><tag k="public_transport" v="platform" /></node><node id="-200569" action="modify" visible="true" lat="35.50971111" lon="128.8513194"><tag k="name" v="홍제중학교" /><tag k="name:ko" v="홍제중학교" /><tag k="note" v="고례1,고례2,고례3,국전,국전1,국전2,국전3,국전4,표충사,표충사1,표충사2,표충사3" /><tag k="highway" v="bus_stop" /><tag k="public_transport" v="platform" /></node><node id="-200570" action="modify" visible="true" lat="35.53387778" lon="128.6910444"><tag k="name" v="화남" /><tag k="name:ko" v="화남" /><tag k="note" v="4구기,4대항1,4대항2,4대항5,4대항6,4대항8,4대항9,구기1" /><tag k="highway" v="bus_stop" /><tag k="public_transport" v="platform" /></node><node id="-200571" action="modify" visible="true" lat="35.53375833" lon="128.6909389"><tag k="name" v="화남" /><tag k="name:ko" v="화남" /><tag k="note" v="4구기,4대항1,4대항7,4대항8,4퇴로2,4퇴로5,4퇴로8,구기1" /><tag k="highway" v="bus_stop" /><tag k="public_transport" v="platform" /></node><node id="-200572" action="modify" visible="true" lat="35.50563889" lon="128.7889889"><tag k="name" v="화동" /><tag k="name:ko" v="화동" /><tag k="note" v="6엄광,감물리,감물리1,감물리2,감물리3,감물리4,감물리5,고례1,고례2,고례3,국전,국전1,국전2,국전3,국전4,발례,발례1,발례2,얼음골,얼음골1,얼음골2,얼음골3,엄광2,표충사,표충사1,표충사2,표충사3" /><tag k="highway" v="bus_stop" /><tag k="public_transport" v="platform" /></node><node id="-200573" action="modify" visible="true" lat="35.505525" lon="128.7889639"><tag k="name" v="화동" /><tag k="name:ko" v="화동" /><tag k="note" v="감물리,감물리1,감물리2,감물리3,감물리4,감물리5,고례1,고례2,고례3,국전,국전1,국전2,국전3,국전4,발례,발례1,발례2,얼음골,얼음골1,얼음골2,얼음골3,엄광1,표충사,표충사1,표충사2,표충사3" /><tag k="highway" v="bus_stop" /><tag k="public_transport" v="platform" /></node><node id="-200574" action="modify" visible="true" lat="35.49906944" lon="128.6306778"><tag k="name" v="화봉" /><tag k="name:ko" v="화봉" /><tag k="note" v="영신2,영신3,화봉1" /><tag k="highway" v="bus_stop" /><tag k="public_transport" v="platform" /></node><node id="-200575" action="modify" visible="true" lat="35.49896388" lon="128.6305667"><tag k="name" v="화봉" /><tag k="name:ko" v="화봉" /><tag k="note" v="영신2,영신3,화봉1" /><tag k="highway" v="bus_stop" /><tag k="public_transport" v="platform" /></node><node id="-200576" action="modify" visible="true" lat="35.52573056" lon="128.731725"><tag k="name" v="화산마을" /><tag k="name:ko" v="화산마을" /><tag k="note" v="4대항4,4퇴로4,4퇴로7" /><tag k="highway" v="bus_stop" /><tag k="public_transport" v="platform" /></node><node id="-200577" action="modify" visible="true" lat="35.52563889" lon="128.7316472"><tag k="name" v="화산마을" /><tag k="name:ko" v="화산마을" /><tag k="note" v="4대항5,4대항9,4퇴로3" /><tag k="highway" v="bus_stop" /><tag k="public_transport" v="platform" /></node><node id="-200578" action="modify" visible="true" lat="35.40699444" lon="128.8013778"><tag k="name" v="화성" /><tag k="name:ko" v="화성" /><tag k="note" v="삼랑진" /><tag k="highway" v="bus_stop" /><tag k="public_transport" v="platform" /></node><node id="-200579" action="modify" visible="true" lat="35.40694722" lon="128.801225"><tag k="name" v="화성" /><tag k="name:ko" v="화성" /><tag k="note" v="삼랑진" /><tag k="highway" v="bus_stop" /><tag k="public_transport" v="platform" /></node><node id="-200580" action="modify" visible="true" lat="35.48493611" lon="128.8060222"><tag k="name" v="활성" /><tag k="name:ko" v="활성" /><tag k="note" v="6활성,6활성1" /><tag k="highway" v="bus_stop" /><tag k="public_transport" v="platform" /></node><node id="-200581" action="modify" visible="true" lat="35.57742778" lon="128.6732583"><tag k="name" v="횟골종점" /><tag k="name:ko" v="횟골종점" /><tag k="note" v="대촌1,대촌2" /><tag k="highway" v="bus_stop" /><tag k="public_transport" v="platform" /></node></osm>