<?xml version='1.0' encoding='utf-8'?>
<osm version="0.6" generator="JOSM">
	<node id="-200001" action="modify" visible="true" lat="37.49541" lon="127.98833">
		<tag k="name" v="금강산숯불구이"/>
		<tag k="cuisine" v="korean"/>
		<tag k="operator" v="정선용"/>
		<tag k="phone" v="+82 33 345 3377"/>
		<tag k="capacity" v="72"/>
		<tag k="opening_hours" v="Mo-Su 10:00-22:30"/>
		<tag k="source:date" v="2019-09-20"/>
		<tag k="addr:street" v="문화체육로"/>
		<tag k="addr:housenumber" v="54"/>
		<tag k="addr:subdistrict" v="횡성읍"/>
		<tag k="amenity" v="restaurant"/>
		<tag k="source" v="공공데이터포털"/>
	</node>
	<node id="-200002" action="modify" visible="true" lat="37.451448" lon="128.074264">
		<tag k="name" v="다래막국수"/>
		<tag k="cuisine" v="korean"/>
		<tag k="operator" v="이동옥"/>
		<tag k="phone" v="+82 33 344 2369"/>
		<tag k="capacity" v="120"/>
		<tag k="opening_hours" v="Mo-Su 09:00-20:00"/>
		<tag k="source:date" v="2019-09-20"/>
		<tag k="addr:street" v="한우로우항7길"/>
		<tag k="addr:housenumber" v="9"/>
		<tag k="addr:subdistrict" v="우천면"/>
		<tag k="amenity" v="restaurant"/>
		<tag k="source" v="공공데이터포털"/>
	</node>
	<node id="-200003" action="modify" visible="true" lat="37.526556" lon="127.908917">
		<tag k="name" v="동가래농장한우셀프점"/>
		<tag k="cuisine" v="korean"/>
		<tag k="operator" v="이승훈"/>
		<tag k="phone" v="+82 33 345 8840"/>
		<tag k="website" v="http://www.donggarae.com/home/subpage.php?f=user&amp;m=p2"/>
		<tag k="capacity" v="92"/>
		<tag k="opening_hours" v="Mo-Su 10:00-21:00"/>
		<tag k="source:date" v="2019-09-20"/>
		<tag k="addr:street" v="경강로"/>
		<tag k="addr:housenumber" v="1026"/>
		<tag k="addr:subdistrict" v="공근면"/>
		<tag k="amenity" v="restaurant"/>
		<tag k="source" v="공공데이터포털"/>
	</node>
	<node id="-200004" action="modify" visible="true" lat="37.495429" lon="127.987927">
		<tag k="name" v="마옥막국수횡성한우우거지탕"/>
		<tag k="cuisine" v="korean"/>
		<tag k="operator" v="조선혜"/>
		<tag k="phone" v="+82 33 343 9925"/>
		<tag k="capacity" v="105"/>
		<tag k="opening_hours" v="Mo-Su 10:00-21:00"/>
		<tag k="source:date" v="2019-09-20"/>
		<tag k="addr:street" v="읍하남로13번길"/>
		<tag k="addr:housenumber" v="42"/>
		<tag k="addr:subdistrict" v="횡성읍"/>
		<tag k="amenity" v="restaurant"/>
		<tag k="source" v="공공데이터포털"/>
	</node>
	<node id="-200005" action="modify" visible="true" lat="37.512918" lon="128.211432">
		<tag k="name" v="민들레닭갈비"/>
		<tag k="cuisine" v="korean"/>
		<tag k="operator" v="김순영"/>
		<tag k="phone" v="+82 33 345 0366"/>
		<tag k="website" v="http://mindlele.modoo.at/"/>
		<tag k="capacity" v="52"/>
		<tag k="opening_hours" v="Mo-Su 10:00-22:00"/>
		<tag k="source:date" v="2019-09-20"/>
		<tag k="addr:street" v="둔방로3번길"/>
		<tag k="addr:housenumber" v="5"/>
		<tag k="addr:subdistrict" v="둔내면"/>
		<tag k="amenity" v="restaurant"/>
		<tag k="source" v="공공데이터포털"/>
	</node>
	<node id="-200006" action="modify" visible="true" lat="37.512499" lon="128.216241">
		<tag k="name" v="삼정"/>
		<tag k="cuisine" v="korean"/>
		<tag k="operator" v="원인숙"/>
		<tag k="phone" v="+82 33 342 3365"/>
		<tag k="capacity" v="52"/>
		<tag k="opening_hours" v="Mo-Su 11:00-21:00; Fr off"/>
		<tag k="source:date" v="2019-09-20"/>
		<tag k="addr:street" v="둔내로"/>
		<tag k="addr:housenumber" v="52-1"/>
		<tag k="addr:subdistrict" v="둔내면"/>
		<tag k="amenity" v="restaurant"/>
		<tag k="source" v="공공데이터포털"/>
	</node>
	<node id="-200007" action="modify" visible="true" lat="37.479718" lon="127.982288">
		<tag k="name" v="선돌막국수"/>
		<tag k="cuisine" v="korean"/>
		<tag k="operator" v="윤순길"/>
		<tag k="phone" v="+82 33 343 3260"/>
		<tag k="capacity" v="80"/>
		<tag k="opening_hours" v="Mo-Sa 10:00-15:00; Su off"/>
		<tag k="source:date" v="2019-09-20"/>
		<tag k="addr:street" v="입석로"/>
		<tag k="addr:housenumber" v="34"/>
		<tag k="addr:subdistrict" v="횡성읍"/>
		<tag k="amenity" v="restaurant"/>
		<tag k="source" v="공공데이터포털"/>
	</node>
	<node id="-200008" action="modify" visible="true" lat="37.514089" lon="128.210553">
		<tag k="name" v="심우향"/>
		<tag k="cuisine" v="korean"/>
		<tag k="operator" v="차영순"/>
		<tag k="phone" v="+82 33 345 7321"/>
		<tag k="capacity" v="72"/>
		<tag k="opening_hours" v="Mo-Su 16:00-10:00; Fr off"/>
		<tag k="source:date" v="2019-09-20"/>
		<tag k="addr:street" v="둔방로14번길"/>
		<tag k="addr:housenumber" v="9"/>
		<tag k="addr:subdistrict" v="둔내면"/>
		<tag k="amenity" v="restaurant"/>
		<tag k="source" v="공공데이터포털"/>
	</node>
	<node id="-200009" action="modify" visible="true" lat="37.533698" lon="127.96675">
		<tag k="name" v="쌍둥이네미꾸라지탕"/>
		<tag k="cuisine" v="korean"/>
		<tag k="operator" v="변희선"/>
		<tag k="phone" v="+82 33 342 8996"/>
		<tag k="capacity" v="68"/>
		<tag k="opening_hours" v="Mo-Su 11:00-20:00"/>
		<tag k="source:date" v="2019-09-20"/>
		<tag k="addr:street" v="공근남로"/>
		<tag k="addr:housenumber" v="37"/>
		<tag k="addr:subdistrict" v="공근면"/>
		<tag k="amenity" v="restaurant"/>
		<tag k="source" v="공공데이터포털"/>
	</node>
	<node id="-200010" action="modify" visible="true" lat="37.492105" lon="127.986599">
		<tag k="name" v="우도바지락칼국수"/>
		<tag k="cuisine" v="korean"/>
		<tag k="operator" v="박정미"/>
		<tag k="phone" v="+82 33 344  7677"/>
		<tag k="capacity" v="88"/>
		<tag k="opening_hours" v="Mo-Su 10:30-21:00"/>
		<tag k="source:date" v="2019-09-20"/>
		<tag k="addr:street" v="태기로19번길"/>
		<tag k="addr:housenumber" v="17"/>
		<tag k="addr:subdistrict" v="횡성읍"/>
		<tag k="amenity" v="restaurant"/>
		<tag k="source" v="공공데이터포털"/>
	</node>
	<node id="-200011" action="modify" visible="true" lat="37.57961" lon="128.196039">
		<tag k="name" v="윤가이가"/>
		<tag k="cuisine" v="korean"/>
		<tag k="operator" v="윤옥자"/>
		<tag k="phone" v="+82 33 343  1208"/>
		<tag k="capacity" v="50"/>
		<tag k="opening_hours" v="Mo-Su 11:00-20:00"/>
		<tag k="source:date" v="2019-09-20"/>
		<tag k="addr:street" v="큰고시길"/>
		<tag k="addr:housenumber" v="41"/>
		<tag k="addr:subdistrict" v="청일면"/>
		<tag k="amenity" v="restaurant"/>
		<tag k="source" v="공공데이터포털"/>
	</node>
	<node id="-200012" action="modify" visible="true" lat="37.45276" lon="128.075212">
		<tag k="name" v="축협횡성한우프라자"/>
		<tag k="cuisine" v="korean"/>
		<tag k="operator" v="엄경익"/>
		<tag k="phone" v="+82 33 342 6680"/>
		<tag k="capacity" v="100"/>
		<tag k="opening_hours" v="Mo-Su 10:00-21:30"/>
		<tag k="source:date" v="2019-09-20"/>
		<tag k="addr:street" v="한우로"/>
		<tag k="addr:housenumber" v="1401"/>
		<tag k="addr:subdistrict" v="우천면"/>
		<tag k="amenity" v="restaurant"/>
		<tag k="source" v="공공데이터포털"/>
	</node>
	<node id="-200013" action="modify" visible="true" lat="37.487316" lon="128.002465">
		<tag k="name" v="토토기사식당"/>
		<tag k="cuisine" v="korean"/>
		<tag k="operator" v="박명옥"/>
		<tag k="phone" v="+82 33 342 5858"/>
		<tag k="capacity" v="64"/>
		<tag k="opening_hours" v="Mo-Su 06:00-20:00"/>
		<tag k="source:date" v="2019-09-20"/>
		<tag k="addr:street" v="한우로"/>
		<tag k="addr:housenumber" v="455"/>
		<tag k="addr:subdistrict" v="횡성읍"/>
		<tag k="amenity" v="restaurant"/>
		<tag k="source" v="공공데이터포털"/>
	</node>
	<node id="-200014" action="modify" visible="true" lat="37.498951" lon="127.98914">
		<tag k="name" v="함밭식당"/>
		<tag k="cuisine" v="korean"/>
		<tag k="operator" v="김남규"/>
		<tag k="phone" v="+82 33 343 2549"/>
		<tag k="capacity" v="130"/>
		<tag k="opening_hours" v="Mo-Su 10:00-21:30"/>
		<tag k="source:date" v="2019-09-20"/>
		<tag k="addr:street" v="섬강로"/>
		<tag k="addr:housenumber" v="88"/>
		<tag k="addr:subdistrict" v="횡성읍"/>
		<tag k="amenity" v="restaurant"/>
		<tag k="source" v="공공데이터포털"/>
	</node>
	<node id="-200015" action="modify" visible="true" lat="37.493397" lon="127.988985">
		<tag k="name" v="향토추어탕"/>
		<tag k="cuisine" v="korean"/>
		<tag k="operator" v="박우경"/>
		<tag k="phone" v="+82 33 345 0067"/>
		<tag k="capacity" v="70"/>
		<tag k="opening_hours" v="Mo-Sa 09:00-21:00; Su off"/>
		<tag k="source:date" v="2019-09-20"/>
		<tag k="addr:street" v="화성로"/>
		<tag k="addr:housenumber" v="27-1"/>
		<tag k="addr:subdistrict" v="횡성읍"/>
		<tag k="amenity" v="restaurant"/>
		<tag k="source" v="공공데이터포털"/>
	</node>
	<node id="-200016" action="modify" visible="true" lat="37.463071" lon="128.134671">
		<tag k="name" v="회성반상야미레스토"/>
		<tag k="cuisine" v="korean"/>
		<tag k="operator" v="박종화"/>
		<tag k="phone" v="+82 33 343 4231"/>
		<tag k="capacity" v="160"/>
		<tag k="opening_hours" v="24/7"/>
		<tag k="source:date" v="2019-09-20"/>
		<tag k="addr:street" v="영동고속도로"/>
		<tag k="addr:housenumber" v="154"/>
		<tag k="addr:subdistrict" v="안흥면"/>
		<tag k="amenity" v="restaurant"/>
		<tag k="source" v="공공데이터포털"/>
	</node>
	<node id="-200017" action="modify" visible="true" lat="37.464919" lon="128.13505">
		<tag k="name" v="횡성(상)휴게소 한식양식"/>
		<tag k="cuisine" v="korean"/>
		<tag k="operator" v="이문자"/>
		<tag k="phone" v="+82 33 342 4200"/>
		<tag k="capacity" v="150"/>
		<tag k="opening_hours" v="24/7"/>
		<tag k="source:date" v="2019-09-20"/>
		<tag k="addr:street" v="영동고속도로"/>
		<tag k="addr:housenumber" v="153"/>
		<tag k="addr:subdistrict" v="안흥면"/>
		<tag k="amenity" v="restaurant"/>
		<tag k="source" v="공공데이터포털"/>
	</node>
	<node id="-200018" action="modify" visible="true" lat="37.51554" lon="128.011777">
		<tag k="name" v="횡성송어횟집"/>
		<tag k="cuisine" v="fish"/>
		<tag k="operator" v="최창성"/>
		<tag k="phone" v="+82 33 343 5353"/>
		<tag k="capacity" v="36"/>
		<tag k="opening_hours" v="Mo-Sa 11:30-21:00; Su off"/>
		<tag k="source:date" v="2019-09-20"/>
		<tag k="addr:street" v="섬강로388번길"/>
		<tag k="addr:housenumber" v="75"/>
		<tag k="addr:subdistrict" v="횡성읍"/>
		<tag k="amenity" v="restaurant"/>
		<tag k="source" v="공공데이터포털"/>
	</node>
	<node id="-200019" action="modify" visible="true" lat="37.490481" lon="127.989263">
		<tag k="name" v="횡성족발"/>
		<tag k="cuisine" v="korean"/>
		<tag k="operator" v="박덕식"/>
		<tag k="phone" v="+82 33 343 8384"/>
		<tag k="capacity" v="50"/>
		<tag k="opening_hours" v="Mo-Su 10:00-23:00"/>
		<tag k="source:date" v="2019-09-20"/>
		<tag k="addr:street" v="문정로55번길"/>
		<tag k="addr:housenumber" v="24"/>
		<tag k="addr:subdistrict" v="횡성읍"/>
		<tag k="amenity" v="restaurant"/>
		<tag k="source" v="공공데이터포털"/>
	</node>
	<node id="-200020" action="modify" visible="true" lat="37.459958" lon="128.063706">
		<tag k="name" v="횡성축협한우프라자"/>
		<tag k="cuisine" v="korean"/>
		<tag k="operator" v="엄경익"/>
		<tag k="phone" v="+82 33 345 6160"/>
		<tag k="website" v="http://www.hsplaza.co.kr/"/>
		<tag k="capacity" v="130"/>
		<tag k="opening_hours" v="Mo-Su 10:30-21:30"/>
		<tag k="source:date" v="2019-09-20"/>
		<tag k="addr:street" v="우항3길"/>
		<tag k="addr:housenumber" v="6"/>
		<tag k="addr:subdistrict" v="우천면"/>
		<tag k="amenity" v="restaurant"/>
		<tag k="source" v="공공데이터포털"/>
	</node>
	<node id="-200021" action="modify" visible="true" lat="37.484022" lon="127.981563">
		<tag k="name" v="횡성축협한우프라자본점"/>
		<tag k="cuisine" v="korean"/>
		<tag k="operator" v="엄경익"/>
		<tag k="phone" v="+82 33 343 9908"/>
		<tag k="website" v="http://www.hsplaza.co.kr/dnb/resource/main/index.php"/>
		<tag k="capacity" v="224"/>
		<tag k="opening_hours" v="Mo-Su 10:00-21:00"/>
		<tag k="source:date" v="2019-09-20"/>
		<tag k="addr:street" v="횡성로"/>
		<tag k="addr:housenumber" v="337"/>
		<tag k="addr:subdistrict" v="횡성읍"/>
		<tag k="amenity" v="restaurant"/>
		<tag k="source" v="공공데이터포털"/>
	</node>
	<node id="-200022" action="modify" visible="true" lat="37.489725" lon="127.984102">
		<tag k="name" v="횡성토종한우프라자"/>
		<tag k="cuisine" v="korean"/>
		<tag k="operator" v="최옥선"/>
		<tag k="phone" v="+82 33 344 2626"/>
		<tag k="website" v="http://tojonghanwoo.com/"/>
		<tag k="capacity" v="130"/>
		<tag k="opening_hours" v="Mo-Su 09:30-21:00"/>
		<tag k="source:date" v="2019-09-20"/>
		<tag k="addr:street" v="한우로"/>
		<tag k="addr:housenumber" v="272"/>
		<tag k="addr:subdistrict" v="횡성읍"/>
		<tag k="amenity" v="restaurant"/>
		<tag k="source" v="공공데이터포털"/>
	</node>
	<node id="-200023" action="modify" visible="true" lat="37.49542" lon="127.98738">
		<tag k="name" v="횡성한우국밥"/>
		<tag k="cuisine" v="korean"/>
		<tag k="operator" v="손창숙"/>
		<tag k="phone" v="+82 33 343 4959"/>
		<tag k="capacity" v="68"/>
		<tag k="opening_hours" v="Mo-Su 06:30-19:00; Th off"/>
		<tag k="source:date" v="2019-09-20"/>
		<tag k="addr:street" v="문화체육로"/>
		<tag k="addr:housenumber" v="46"/>
		<tag k="addr:subdistrict" v="횡성읍"/>
		<tag k="amenity" v="restaurant"/>
		<tag k="source" v="공공데이터포털"/>
	</node>
	<node id="-200024" action="modify" visible="true" lat="37.459687" lon="128.064223">
		<tag k="name" v="횡성한우마을"/>
		<tag k="cuisine" v="korean"/>
		<tag k="operator" v="송순영"/>
		<tag k="phone" v="+82 33 343 6005"/>
		<tag k="website" v="http://www.hanuvil.com/cs/index.php"/>
		<tag k="capacity" v="64"/>
		<tag k="opening_hours" v="Mo-Su 10:00-21:30"/>
		<tag k="source:date" v="2019-09-20"/>
		<tag k="addr:street" v="수남로"/>
		<tag k="addr:housenumber" v="348"/>
		<tag k="addr:subdistrict" v="우천면"/>
		<tag k="amenity" v="restaurant"/>
		<tag k="source" v="공공데이터포털"/>
	</node>
	<node id="-200025" action="modify" visible="true" lat="37.511335" lon="128.221915">
		<tag k="name" v="횡성한우피아"/>
		<tag k="cuisine" v="korean"/>
		<tag k="operator" v="이인영"/>
		<tag k="phone" v="+82 33 342 4231"/>
		<tag k="capacity" v="200"/>
		<tag k="opening_hours" v="Mo-Su 10:30-22:00"/>
		<tag k="source:date" v="2019-09-20"/>
		<tag k="addr:street" v="고원로"/>
		<tag k="addr:housenumber" v="141"/>
		<tag k="addr:subdistrict" v="둔내면"/>
		<tag k="amenity" v="restaurant"/>
		<tag k="source" v="공공데이터포털"/>
	</node>
</osm>
