<?xml version='1.0' encoding='utf-8'?>
<osm version="0.6" generator="JOSM">
	<node id="-200001" action="modify" visible="true" lat="35.9052" lon="128.612405">
		<tag k="amenity" v="restaurant"/>
		<tag k="name" v="(맥)참숯불한우갈비살돼지항정살"/>
		<tag k="cuisine" v="korean"/>
		<tag k="source" v="공공데이터포털"/>
		<tag k="source:date" v="2020-10-13"/>
		<tag k="addr:street" v="유통단지로8길"/>
		<tag k="addr:housenumber" v="70"/>
		<tag k="addr:subdistrict" v="산격동"/>
		<tag k="level" v="3"/>
	</node>
	<node id="-200002" action="modify" visible="true" lat="35.925153" lon="128.543372">
		<tag k="amenity" v="restaurant"/>
		<tag k="name" v="24시교동촌콩나물해장국밥"/>
		<tag k="cuisine" v="korean"/>
		<tag k="source" v="공공데이터포털"/>
		<tag k="source:date" v="2020-10-13"/>
		<tag k="addr:street" v="태전로"/>
		<tag k="addr:housenumber" v="55"/>
		<tag k="addr:subdistrict" v="태전동"/>
	</node>
	<node id="-200003" action="modify" visible="true" lat="35.93951" lon="128.569584">
		<tag k="amenity" v="restaurant"/>
		<tag k="name" v="3바다낙지해물"/>
		<tag k="cuisine" v="korean"/>
		<tag k="source" v="공공데이터포털"/>
		<tag k="source:date" v="2020-10-13"/>
		<tag k="addr:street" v="구암로60길"/>
		<tag k="addr:housenumber" v="58"/>
		<tag k="addr:subdistrict" v="구암동"/>
	</node>
	<node id="-200004" action="modify" visible="true" lat="35.889164" lon="128.579806">
		<tag k="amenity" v="restaurant"/>
		<tag k="name" v="감포생밀복"/>
		<tag k="cuisine" v="korean"/>
		<tag k="source" v="공공데이터포털"/>
		<tag k="source:date" v="2020-10-13"/>
		<tag k="addr:street" v="침산남로7길"/>
		<tag k="addr:housenumber" v="2-1"/>
		<tag k="addr:subdistrict" v="노원동1가"/>
		<tag k="level" v="2; 3"/>
	</node>
	<node id="-200005" action="modify" visible="true" lat="35.940191" lon="128.570345">
		<tag k="amenity" v="restaurant"/>
		<tag k="name" v="강북오리박사"/>
		<tag k="cuisine" v="korean"/>
		<tag k="source" v="공공데이터포털"/>
		<tag k="source:date" v="2020-10-13"/>
		<tag k="addr:street" v="구암로60길"/>
		<tag k="addr:housenumber" v="66"/>
		<tag k="addr:subdistrict" v="구암동"/>
	</node>
	<node id="-200006" action="modify" visible="true" lat="35.938613" lon="128.604032">
		<tag k="amenity" v="restaurant"/>
		<tag k="name" v="거산이가네더덕밥"/>
		<tag k="cuisine" v="korean"/>
		<tag k="source" v="공공데이터포털"/>
		<tag k="source:date" v="2020-10-13"/>
		<tag k="addr:street" v="이곡길"/>
		<tag k="addr:housenumber" v="35-41"/>
		<tag k="addr:subdistrict" v="서변동"/>
	</node>
	<node id="-200007" action="modify" visible="true" lat="35.888422" lon="128.603406">
		<tag k="amenity" v="restaurant"/>
		<tag k="name" v="고기한마당"/>
		<tag k="cuisine" v="korean; meat"/>
		<tag k="source" v="공공데이터포털"/>
		<tag k="source:date" v="2020-10-13"/>
		<tag k="addr:street" v="대현로9길"/>
		<tag k="addr:housenumber" v="52"/>
		<tag k="addr:subdistrict" v="산격동"/>
	</node>
	<node id="-200008" action="modify" visible="true" lat="35.877836" lon="128.591413">
		<tag k="amenity" v="restaurant"/>
		<tag k="name" v="곰내미"/>
		<tag k="cuisine" v="korean"/>
		<tag k="source" v="공공데이터포털"/>
		<tag k="source:date" v="2020-10-13"/>
		<tag k="addr:street" v="칠성남로26길"/>
		<tag k="addr:housenumber" v="32"/>
		<tag k="addr:subdistrict" v="칠성동2가"/>
		<tag k="level" v="2"/>
	</node>
	<node id="-200009" action="modify" visible="true" lat="35.938106" lon="128.553347">
		<tag k="amenity" v="restaurant"/>
		<tag k="name" v="기와집보쌈"/>
		<tag k="cuisine" v="korean"/>
		<tag k="source" v="공공데이터포털"/>
		<tag k="source:date" v="2020-10-13"/>
		<tag k="addr:street" v="대천로7길"/>
		<tag k="addr:housenumber" v="6-10"/>
		<tag k="addr:subdistrict" v="읍내동"/>
	</node>
	<node id="-200010" action="modify" visible="true" lat="35.950688" lon="128.566379">
		<tag k="amenity" v="restaurant"/>
		<tag k="name" v="꽃바위낙지"/>
		<tag k="cuisine" v="korean"/>
		<tag k="source" v="공공데이터포털"/>
		<tag k="source:date" v="2020-10-13"/>
		<tag k="addr:street" v="학남로1길"/>
		<tag k="addr:housenumber" v="24"/>
		<tag k="addr:subdistrict" v="학정동"/>
		<tag k="level" v="1"/>
	</node>
	<node id="-200011" action="modify" visible="true" lat="35.900256" lon="128.609522">
		<tag k="amenity" v="restaurant"/>
		<tag k="name" v="남다른감자탕대구산격점"/>
		<tag k="cuisine" v="korean"/>
		<tag k="source" v="공공데이터포털"/>
		<tag k="source:date" v="2020-10-13"/>
		<tag k="addr:street" v="동북로"/>
		<tag k="addr:housenumber" v="149-2"/>
		<tag k="addr:subdistrict" v="산격동"/>
	</node>
	<node id="-200012" action="modify" visible="true" lat="35.892621" lon="128.589012">
		<tag k="amenity" v="restaurant"/>
		<tag k="name" v="남도뚝배기"/>
		<tag k="cuisine" v="korean"/>
		<tag k="source" v="공공데이터포털"/>
		<tag k="source:date" v="2020-10-13"/>
		<tag k="addr:street" v="성북로"/>
		<tag k="addr:housenumber" v="47"/>
		<tag k="addr:subdistrict" v="침산동"/>
		<tag k="level" v="1"/>
	</node>
	<node id="-200013" action="modify" visible="true" lat="35.918694" lon="128.606325">
		<tag k="amenity" v="restaurant"/>
		<tag k="name" v="내고향식당"/>
		<tag k="cuisine" v="korean"/>
		<tag k="source" v="공공데이터포털"/>
		<tag k="source:date" v="2020-10-13"/>
		<tag k="addr:street" v="동변로18길"/>
		<tag k="addr:housenumber" v="43"/>
		<tag k="addr:subdistrict" v="동변동"/>
	</node>
	<node id="-200014" action="modify" visible="true" lat="35.943258" lon="128.564546">
		<tag k="amenity" v="restaurant"/>
		<tag k="name" v="녹야원대구칠곡점"/>
		<tag k="cuisine" v="korean"/>
		<tag k="source" v="공공데이터포털"/>
		<tag k="source:date" v="2020-10-13"/>
		<tag k="addr:street" v="동암로"/>
		<tag k="addr:housenumber" v="128-10"/>
		<tag k="addr:subdistrict" v="구암동"/>
		<tag k="level" v="3"/>
	</node>
	<node id="-200015" action="modify" visible="true" lat="35.895672" lon="128.515745">
		<tag k="amenity" v="restaurant"/>
		<tag k="name" v="놀부보쌈부대찌개(금호사수점)"/>
		<tag k="cuisine" v="korean"/>
		<tag k="source" v="공공데이터포털"/>
		<tag k="source:date" v="2020-10-13"/>
		<tag k="addr:street" v="한강로6길"/>
		<tag k="addr:housenumber" v="15"/>
		<tag k="addr:subdistrict" v="사수동"/>
		<tag k="level" v="2"/>
		<tag k="addr:door" v="203"/>
		<tag k="addr:housename" v="썸.필링타워"/>
	</node>
	<node id="-200016" action="modify" visible="true" lat="35.92407" lon="128.54374">
		<tag k="amenity" v="restaurant"/>
		<tag k="name" v="누리마을감자탕(태전점)"/>
		<tag k="cuisine" v="korean"/>
		<tag k="source" v="공공데이터포털"/>
		<tag k="source:date" v="2020-10-13"/>
		<tag k="addr:street" v="태전로"/>
		<tag k="addr:housenumber" v="43"/>
		<tag k="addr:subdistrict" v="태전동"/>
	</node>
	<node id="-200017" action="modify" visible="true" lat="35.898177" lon="128.616089">
		<tag k="amenity" v="restaurant"/>
		<tag k="name" v="누리마을감자탕,등뼈찜"/>
		<tag k="cuisine" v="korean"/>
		<tag k="source" v="공공데이터포털"/>
		<tag k="source:date" v="2020-10-13"/>
		<tag k="addr:street" v="공항로"/>
		<tag k="addr:housenumber" v="9"/>
		<tag k="addr:subdistrict" v="복현동"/>
		<tag k="level" v="2"/>
	</node>
	<node id="-200018" action="modify" visible="true" lat="35.943844" lon="128.554882">
		<tag k="amenity" v="restaurant"/>
		<tag k="name" v="대양횟집"/>
		<tag k="cuisine" v="japanese"/>
		<tag k="source" v="공공데이터포털"/>
		<tag k="source:date" v="2020-10-13"/>
		<tag k="addr:street" v="동천로23길"/>
		<tag k="addr:housenumber" v="62"/>
		<tag k="addr:subdistrict" v="동천동"/>
	</node>
	<node id="-200019" action="modify" visible="true" lat="35.882819" lon="128.603569">
		<tag k="amenity" v="restaurant"/>
		<tag k="name" v="대현옻닭식당"/>
		<tag k="cuisine" v="korean"/>
		<tag k="source" v="공공데이터포털"/>
		<tag k="source:date" v="2020-10-13"/>
		<tag k="addr:street" v="대현로10길"/>
		<tag k="addr:housenumber" v="54"/>
		<tag k="addr:subdistrict" v="대현동"/>
	</node>
	<node id="-200020" action="modify" visible="true" lat="35.940009" lon="128.570082">
		<tag k="amenity" v="restaurant"/>
		<tag k="name" v="돌고래회수산"/>
		<tag k="cuisine" v="japanese"/>
		<tag k="source" v="공공데이터포털"/>
		<tag k="source:date" v="2020-10-13"/>
		<tag k="addr:street" v="구암로60길"/>
		<tag k="addr:housenumber" v="64"/>
		<tag k="addr:subdistrict" v="구암동"/>
	</node>
	<node id="-200021" action="modify" visible="true" lat="35.953648" lon="128.56739">
		<tag k="amenity" v="restaurant"/>
		<tag k="name" v="돌판삼겹살미성칠곡3지구점"/>
		<tag k="cuisine" v="korean"/>
		<tag k="source" v="공공데이터포털"/>
		<tag k="source:date" v="2020-10-13"/>
		<tag k="addr:street" v="학정로"/>
		<tag k="addr:housenumber" v="504"/>
		<tag k="addr:subdistrict" v="학정동"/>
	</node>
	<node id="-200022" action="modify" visible="true" lat="35.914042" lon="128.54912">
		<tag k="amenity" v="restaurant"/>
		<tag k="name" v="동해해물탕"/>
		<tag k="cuisine" v="korean"/>
		<tag k="source" v="공공데이터포털"/>
		<tag k="source:date" v="2020-10-13"/>
		<tag k="addr:street" v="칠곡중앙대로"/>
		<tag k="addr:housenumber" v="202"/>
		<tag k="addr:subdistrict" v="태전동"/>
	</node>
	<node id="-200023" action="modify" visible="true" lat="35.940963" lon="128.569865">
		<tag k="amenity" v="restaurant"/>
		<tag k="name" v="뚱보냉면"/>
		<tag k="cuisine" v="korean"/>
		<tag k="source" v="공공데이터포털"/>
		<tag k="source:date" v="2020-10-13"/>
		<tag k="addr:street" v="동암로38길"/>
		<tag k="addr:housenumber" v="29-45"/>
		<tag k="addr:subdistrict" v="구암동"/>
	</node>
	<node id="-200024" action="modify" visible="true" lat="35.942855" lon="128.56244">
		<tag k="amenity" v="restaurant"/>
		<tag k="name" v="련칠곡3지구본점"/>
		<tag k="cuisine" v="japanese"/>
		<tag k="source" v="공공데이터포털"/>
		<tag k="source:date" v="2020-10-13"/>
		<tag k="addr:street" v="동천로"/>
		<tag k="addr:housenumber" v="128-15"/>
		<tag k="addr:subdistrict" v="동천동"/>
		<tag k="level" v="2; 3"/>
	</node>
	<node id="-200025" action="modify" visible="true" lat="35.891822" lon="128.610749">
		<tag k="amenity" v="restaurant"/>
		<tag k="name" v="르네상스 스카이뷰 2"/>
		<tag k="cuisine" v="international"/>
		<tag k="source" v="공공데이터포털"/>
		<tag k="source:date" v="2020-10-13"/>
		<tag k="addr:street" v="대학로"/>
		<tag k="addr:housenumber" v="80"/>
		<tag k="addr:subdistrict" v="산격동"/>
		<tag k="level" v="17"/>
		<tag k="addr:housename" v="경북대학교 글로벌플라자"/>
	</node>
	<node id="-200026" action="modify" visible="true" lat="35.886346" lon="128.579721">
		<tag k="amenity" v="restaurant"/>
		<tag k="name" v="명성가든"/>
		<tag k="cuisine" v="korean"/>
		<tag k="source" v="공공데이터포털"/>
		<tag k="source:date" v="2020-10-13"/>
		<tag k="addr:street" v="옥산로"/>
		<tag k="addr:housenumber" v="33"/>
		<tag k="addr:subdistrict" v="노원동1가"/>
	</node>
	<node id="-200027" action="modify" visible="true" lat="35.899577" lon="128.622306">
		<tag k="amenity" v="restaurant"/>
		<tag k="name" v="백록담"/>
		<tag k="cuisine" v="korean"/>
		<tag k="source" v="공공데이터포털"/>
		<tag k="source:date" v="2020-10-13"/>
		<tag k="addr:street" v="복현로"/>
		<tag k="addr:housenumber" v="90-3"/>
		<tag k="addr:subdistrict" v="복현동"/>
		<tag k="level" v="1"/>
	</node>
	<node id="-200028" action="modify" visible="true" lat="35.890564" lon="128.574467">
		<tag k="amenity" v="restaurant"/>
		<tag k="name" v="복어명가 임진강"/>
		<tag k="cuisine" v="seafood; blowfish"/>
		<tag k="source" v="공공데이터포털"/>
		<tag k="source:date" v="2020-10-13"/>
		<tag k="addr:street" v="노원로10길"/>
		<tag k="addr:housenumber" v="132"/>
		<tag k="addr:subdistrict" v="노원동2가"/>
	</node>
	<node id="-200029" action="modify" visible="true" lat="35.922824" lon="128.547291">
		<tag k="amenity" v="restaurant"/>
		<tag k="name" v="복어잡는사람들"/>
		<tag k="cuisine" v="seafood; blowfish"/>
		<tag k="source" v="공공데이터포털"/>
		<tag k="source:date" v="2020-10-13"/>
		<tag k="addr:street" v="칠곡중앙대로"/>
		<tag k="addr:housenumber" v="306"/>
		<tag k="addr:subdistrict" v="태전동"/>
	</node>
	<node id="-200030" action="modify" visible="true" lat="35.905016" lon="128.612092">
		<tag k="amenity" v="restaurant"/>
		<tag k="name" v="봉창이해물칼국수"/>
		<tag k="cuisine" v="korean"/>
		<tag k="source" v="공공데이터포털"/>
		<tag k="source:date" v="2020-10-13"/>
		<tag k="addr:street" v="유통단지로8길"/>
		<tag k="addr:housenumber" v="66"/>
		<tag k="addr:subdistrict" v="산격동"/>
	</node>
	<node id="-200031" action="modify" visible="true" lat="35.882938" lon="128.590796">
		<tag k="amenity" v="restaurant"/>
		<tag k="name" v="빡빡이참숯화로구이(침산점)"/>
		<tag k="cuisine" v="korean; meat"/>
		<tag k="source" v="공공데이터포털"/>
		<tag k="source:date" v="2020-10-13"/>
		<tag k="addr:street" v="호암로"/>
		<tag k="addr:housenumber" v="4"/>
		<tag k="addr:subdistrict" v="칠성동2가"/>
	</node>
	<node id="-200032" action="modify" visible="true" lat="35.895107" lon="128.515616">
		<tag k="amenity" v="restaurant"/>
		<tag k="name" v="뼈마시감자탕부대찌개(금호점)"/>
		<tag k="cuisine" v="korean"/>
		<tag k="source" v="공공데이터포털"/>
		<tag k="source:date" v="2020-10-13"/>
		<tag k="addr:street" v="한강로6길"/>
		<tag k="addr:housenumber" v="19"/>
		<tag k="addr:subdistrict" v="사수동"/>
		<tag k="level" v="2"/>
		<tag k="addr:door" v="201; 202; 203"/>
	</node>
	<node id="-200033" action="modify" visible="true" lat="35.896403" lon="128.514833">
		<tag k="amenity" v="restaurant"/>
		<tag k="name" v="뼈큰감자탕금호점"/>
		<tag k="cuisine" v="korean"/>
		<tag k="source" v="공공데이터포털"/>
		<tag k="source:date" v="2020-10-13"/>
		<tag k="addr:street" v="내곡로"/>
		<tag k="addr:housenumber" v="30"/>
		<tag k="addr:subdistrict" v="사수동"/>
		<tag k="level" v="2"/>
		<tag k="addr:door" v="201; 202; 203"/>
	</node>
	<node id="-200034" action="modify" visible="true" lat="35.937502" lon="128.604727">
		<tag k="amenity" v="restaurant"/>
		<tag k="name" v="뼈큰청진동해장국"/>
		<tag k="cuisine" v="korean"/>
		<tag k="source" v="공공데이터포털"/>
		<tag k="source:date" v="2020-10-13"/>
		<tag k="addr:street" v="호국로"/>
		<tag k="addr:housenumber" v="201"/>
		<tag k="addr:subdistrict" v="서변동"/>
	</node>
	<node id="-200035" action="modify" visible="true" lat="35.942201" lon="128.559754">
		<tag k="amenity" v="restaurant"/>
		<tag k="name" v="삼백찬가"/>
		<tag k="cuisine" v="korean"/>
		<tag k="source" v="공공데이터포털"/>
		<tag k="source:date" v="2020-10-13"/>
		<tag k="addr:street" v="동천로23길"/>
		<tag k="addr:housenumber" v="8"/>
		<tag k="addr:subdistrict" v="동천동"/>
		<tag k="level" v="2"/>
	</node>
	<node id="-200036" action="modify" visible="true" lat="35.904367" lon="128.610476">
		<tag k="amenity" v="restaurant"/>
		<tag k="name" v="샤브향엑스코점"/>
		<tag k="cuisine" v="korean"/>
		<tag k="source" v="공공데이터포털"/>
		<tag k="source:date" v="2020-10-13"/>
		<tag k="addr:street" v="유통단지로8길"/>
		<tag k="addr:housenumber" v="50"/>
		<tag k="addr:subdistrict" v="산격동"/>
		<tag k="level" v="3"/>
	</node>
	<node id="-200037" action="modify" visible="true" lat="35.954709" lon="128.564285">
		<tag k="amenity" v="restaurant"/>
		<tag k="name" v="서원돼지갈비본점"/>
		<tag k="cuisine" v="korean"/>
		<tag k="source" v="공공데이터포털"/>
		<tag k="source:date" v="2020-10-13"/>
		<tag k="addr:street" v="학정로"/>
		<tag k="addr:housenumber" v="524"/>
		<tag k="addr:subdistrict" v="학정동"/>
	</node>
	<node id="-200038" action="modify" visible="true" lat="35.885794" lon="128.58607">
		<tag k="amenity" v="restaurant"/>
		<tag k="name" v="석경"/>
		<tag k="cuisine" v="korean"/>
		<tag k="source" v="공공데이터포털"/>
		<tag k="source:date" v="2020-10-13"/>
		<tag k="addr:street" v="옥산로17길"/>
		<tag k="addr:housenumber" v="14"/>
		<tag k="addr:subdistrict" v="칠성동"/>
		<tag k="level" v="1"/>
		<tag k="addr:door" v="108; 109"/>
		<tag k="addr:housename" v="리치프라자 "/>
	</node>
	<node id="-200039" action="modify" visible="true" lat="35.892099" lon="128.605438">
		<tag k="amenity" v="restaurant"/>
		<tag k="name" v="송정가든"/>
		<tag k="cuisine" v="korean"/>
		<tag k="source" v="공공데이터포털"/>
		<tag k="source:date" v="2020-10-13"/>
		<tag k="addr:street" v="산격로"/>
		<tag k="addr:housenumber" v="18"/>
		<tag k="addr:subdistrict" v="산격동"/>
	</node>
	<node id="-200040" action="modify" visible="true" lat="35.934693" lon="128.566831">
		<tag k="amenity" v="restaurant"/>
		<tag k="name" v="신천불주꾸미"/>
		<tag k="cuisine" v="korean"/>
		<tag k="source" v="공공데이터포털"/>
		<tag k="source:date" v="2020-10-13"/>
		<tag k="addr:street" v="구암로54길"/>
		<tag k="addr:housenumber" v="4"/>
		<tag k="addr:subdistrict" v="구암동"/>
	</node>
	<node id="-200041" action="modify" visible="true" lat="35.904731" lon="128.609105">
		<tag k="amenity" v="restaurant"/>
		<tag k="name" v="아라쭈꾸미"/>
		<tag k="cuisine" v="korean"/>
		<tag k="source" v="공공데이터포털"/>
		<tag k="source:date" v="2020-10-13"/>
		<tag k="addr:street" v="유통단지로8길"/>
		<tag k="addr:housenumber" v="21-25"/>
		<tag k="addr:subdistrict" v="산격동"/>
	</node>
	<node id="-200042" action="modify" visible="true" lat="35.90965" lon="128.541677">
		<tag k="amenity" v="restaurant"/>
		<tag k="name" v="안동황소식육식당"/>
		<tag k="cuisine" v="korean; meat"/>
		<tag k="source" v="공공데이터포털"/>
		<tag k="source:date" v="2020-10-13"/>
		<tag k="addr:street" v="매천로"/>
		<tag k="addr:housenumber" v="139"/>
		<tag k="addr:subdistrict" v="매천동"/>
		<tag k="level" v="1; 2"/>
	</node>
	<node id="-200043" action="modify" visible="true" lat="35.875894" lon="128.596312">
		<tag k="amenity" v="restaurant"/>
		<tag k="name" v="약전골목원조국수"/>
		<tag k="cuisine" v="korean"/>
		<tag k="source" v="공공데이터포털"/>
		<tag k="source:date" v="2020-10-13"/>
		<tag k="addr:street" v="태평로"/>
		<tag k="addr:housenumber" v="161"/>
		<tag k="addr:subdistrict" v="칠성동2가"/>
		<tag k="level" v="10"/>
		<tag k="addr:housename" v="롯데백화점"/>
	</node>
	<node id="-200044" action="modify" visible="true" lat="35.88807" lon="128.603717">
		<tag k="amenity" v="restaurant"/>
		<tag k="name" v="언덕아래집"/>
		<tag k="cuisine" v="korean"/>
		<tag k="source" v="공공데이터포털"/>
		<tag k="source:date" v="2020-10-13"/>
		<tag k="addr:street" v="대현로9길"/>
		<tag k="addr:housenumber" v="49-6"/>
		<tag k="addr:subdistrict" v="대현동"/>
	</node>
	<node id="-200045" action="modify" visible="true" lat="35.904459" lon="128.608919">
		<tag k="amenity" v="restaurant"/>
		<tag k="name" v="연화정"/>
		<tag k="cuisine" v="korean"/>
		<tag k="source" v="공공데이터포털"/>
		<tag k="source:date" v="2020-10-13"/>
		<tag k="addr:street" v="유통단지로8길"/>
		<tag k="addr:housenumber" v="21-19"/>
		<tag k="addr:subdistrict" v="산격동"/>
	</node>
	<node id="-200046" action="modify" visible="true" lat="35.938615" lon="128.569416">
		<tag k="amenity" v="restaurant"/>
		<tag k="name" v="영진갈비"/>
		<tag k="cuisine" v="korean; meat"/>
		<tag k="source" v="공공데이터포털"/>
		<tag k="source:date" v="2020-10-13"/>
		<tag k="addr:street" v="구암로60길"/>
		<tag k="addr:housenumber" v="45"/>
		<tag k="addr:subdistrict" v="구암동"/>
	</node>
	<node id="-200047" action="modify" visible="true" lat="35.946456" lon="128.550384">
		<tag k="amenity" v="restaurant"/>
		<tag k="name" v="옛살나비추어탕"/>
		<tag k="cuisine" v="korean"/>
		<tag k="source" v="공공데이터포털"/>
		<tag k="source:date" v="2020-10-13"/>
		<tag k="addr:street" v="칠곡중앙대로"/>
		<tag k="addr:housenumber" v="563-8"/>
		<tag k="addr:subdistrict" v="읍내동"/>
	</node>
	<node id="-200048" action="modify" visible="true" lat="35.948307" lon="128.5721">
		<tag k="amenity" v="restaurant"/>
		<tag k="name" v="오늘잡은소"/>
		<tag k="cuisine" v="korean"/>
		<tag k="source" v="공공데이터포털"/>
		<tag k="source:date" v="2020-10-13"/>
		<tag k="addr:street" v="구리로"/>
		<tag k="addr:housenumber" v="183-8"/>
		<tag k="addr:subdistrict" v="국우동"/>
	</node>
	<node id="-200049" action="modify" visible="true" lat="35.923139" lon="128.598669">
		<tag k="amenity" v="restaurant"/>
		<tag k="name" v="와촌식육식당 동.서변점"/>
		<tag k="cuisine" v="korean"/>
		<tag k="source" v="공공데이터포털"/>
		<tag k="source:date" v="2020-10-13"/>
		<tag k="addr:street" v="호국로51길"/>
		<tag k="addr:housenumber" v="5-29"/>
		<tag k="addr:subdistrict" v="서변동"/>
	</node>
	<node id="-200050" action="modify" visible="true" lat="35.888061" lon="128.603247">
		<tag k="amenity" v="restaurant"/>
		<tag k="name" v="왕추"/>
		<tag k="cuisine" v="korean"/>
		<tag k="source" v="공공데이터포털"/>
		<tag k="source:date" v="2020-10-13"/>
		<tag k="addr:street" v="대현로9길"/>
		<tag k="addr:housenumber" v="55"/>
		<tag k="addr:subdistrict" v="대현동"/>
	</node>
	<node id="-200051" action="modify" visible="true" lat="35.875894" lon="128.596312">
		<tag k="amenity" v="restaurant"/>
		<tag k="name" v="용수산한상차림"/>
		<tag k="cuisine" v="korean"/>
		<tag k="source" v="공공데이터포털"/>
		<tag k="source:date" v="2020-10-13"/>
		<tag k="addr:street" v="태평로"/>
		<tag k="addr:housenumber" v="161"/>
		<tag k="addr:subdistrict" v="칠성동2가"/>
		<tag k="level" v="10"/>
		<tag k="addr:housename" v="롯데백화점"/>
	</node>
	<node id="-200052" action="modify" visible="true" lat="35.889942" lon="128.618035">
		<tag k="amenity" v="restaurant"/>
		<tag k="name" v="우돈생고기"/>
		<tag k="cuisine" v="korean; meat"/>
		<tag k="source" v="공공데이터포털"/>
		<tag k="source:date" v="2020-10-13"/>
		<tag k="addr:street" v="경대로"/>
		<tag k="addr:housenumber" v="107"/>
		<tag k="addr:subdistrict" v="복현동"/>
	</node>
	<node id="-200053" action="modify" visible="true" lat="35.90461" lon="128.608818">
		<tag k="amenity" v="restaurant"/>
		<tag k="name" v="우뚝해장국"/>
		<tag k="cuisine" v="korean"/>
		<tag k="source" v="공공데이터포털"/>
		<tag k="source:date" v="2020-10-13"/>
		<tag k="addr:street" v="유통단지로8길"/>
		<tag k="addr:housenumber" v="21-23"/>
		<tag k="addr:subdistrict" v="산격동"/>
	</node>
	<node id="-200054" action="modify" visible="true" lat="35.882904" lon="128.590301">
		<tag k="amenity" v="restaurant"/>
		<tag k="name" v="우야지막창"/>
		<tag k="cuisine" v="korean"/>
		<tag k="source" v="공공데이터포털"/>
		<tag k="source:date" v="2020-10-13"/>
		<tag k="addr:street" v="침산로"/>
		<tag k="addr:housenumber" v="74"/>
		<tag k="addr:subdistrict" v="칠성동2가"/>
		<tag k="level" v="1; 2"/>
	</node>
	<node id="-200055" action="modify" visible="true" lat="35.888462" lon="128.58263">
		<tag k="amenity" v="restaurant"/>
		<tag k="name" v="원할머니보쌈대구침산점"/>
		<tag k="cuisine" v="korean"/>
		<tag k="source" v="공공데이터포털"/>
		<tag k="source:date" v="2020-10-13"/>
		<tag k="addr:street" v="원대로"/>
		<tag k="addr:housenumber" v="123"/>
		<tag k="addr:subdistrict" v="노원동1가"/>
	</node>
	<node id="-200056" action="modify" visible="true" lat="35.904676" lon="128.60855">
		<tag k="amenity" v="restaurant"/>
		<tag k="name" v="유통복어"/>
		<tag k="cuisine" v="seafood; blowfish"/>
		<tag k="source" v="공공데이터포털"/>
		<tag k="source:date" v="2020-10-13"/>
		<tag k="addr:street" v="유통단지로8길"/>
		<tag k="addr:housenumber" v="13-14"/>
		<tag k="addr:subdistrict" v="산격동"/>
	</node>
	<node id="-200057" action="modify" visible="true" lat="35.952989" lon="128.553654">
		<tag k="amenity" v="restaurant"/>
		<tag k="name" v="이비가짬뽕대구칠곡점"/>
		<tag k="cuisine" v="korean"/>
		<tag k="source" v="공공데이터포털"/>
		<tag k="source:date" v="2020-10-13"/>
		<tag k="addr:street" v="칠곡중앙대로"/>
		<tag k="addr:housenumber" v="643"/>
		<tag k="addr:subdistrict" v="읍내동"/>
		<tag k="level" v="1"/>
	</node>
	<node id="-200058" action="modify" visible="true" lat="35.893505" lon="128.619609">
		<tag k="amenity" v="restaurant"/>
		<tag k="name" v="이화수전통육개장복현점"/>
		<tag k="cuisine" v="korean"/>
		<tag k="source" v="공공데이터포털"/>
		<tag k="source:date" v="2020-10-13"/>
		<tag k="addr:street" v="동북로"/>
		<tag k="addr:housenumber" v="289"/>
		<tag k="addr:subdistrict" v="복현동"/>
	</node>
	<node id="-200059" action="modify" visible="true" lat="35.892154" lon="128.623556">
		<tag k="amenity" v="restaurant"/>
		<tag k="name" v="자연숯불갈비"/>
		<tag k="cuisine" v="korean; meat"/>
		<tag k="source" v="공공데이터포털"/>
		<tag k="source:date" v="2020-10-13"/>
		<tag k="addr:street" v="동북로"/>
		<tag k="addr:housenumber" v="307"/>
		<tag k="addr:subdistrict" v="복현동"/>
		<tag k="level" v="1"/>
	</node>
	<node id="-200060" action="modify" visible="true" lat="35.892236" lon="128.603249">
		<tag k="amenity" v="restaurant"/>
		<tag k="name" v="장원"/>
		<tag k="cuisine" v="korean"/>
		<tag k="source" v="공공데이터포털"/>
		<tag k="source:date" v="2020-10-13"/>
		<tag k="addr:street" v="대구체육관로8길"/>
		<tag k="addr:housenumber" v="6"/>
		<tag k="addr:subdistrict" v="산격동"/>
	</node>
	<node id="-200061" action="modify" visible="true" lat="35.919323" lon="128.545837">
		<tag k="amenity" v="restaurant"/>
		<tag k="name" v="전원숯불(태전점)"/>
		<tag k="cuisine" v="korean; meat"/>
		<tag k="source" v="공공데이터포털"/>
		<tag k="source:date" v="2020-10-13"/>
		<tag k="addr:street" v="칠곡중앙대로"/>
		<tag k="addr:housenumber" v="269"/>
		<tag k="addr:subdistrict" v="태전동"/>
		<tag k="level" v="2"/>
	</node>
	<node id="-200062" action="modify" visible="true" lat="35.882358" lon="128.590203">
		<tag k="amenity" v="restaurant"/>
		<tag k="name" v="전원숯불침산점"/>
		<tag k="cuisine" v="korean; meat"/>
		<tag k="source" v="공공데이터포털"/>
		<tag k="source:date" v="2020-10-13"/>
		<tag k="addr:street" v="침산로"/>
		<tag k="addr:housenumber" v="66"/>
		<tag k="addr:subdistrict" v="칠성동2가"/>
		<tag k="level" v="1"/>
	</node>
	<node id="-200063" action="modify" visible="true" lat="35.904657" lon="128.611728">
		<tag k="amenity" v="restaurant"/>
		<tag k="name" v="정동진해물찜"/>
		<tag k="cuisine" v="korean"/>
		<tag k="source" v="공공데이터포털"/>
		<tag k="source:date" v="2020-10-13"/>
		<tag k="addr:street" v="대불서길"/>
		<tag k="addr:housenumber" v="63"/>
		<tag k="addr:subdistrict" v="산격동"/>
	</node>
	<node id="-200064" action="modify" visible="true" lat="35.94968" lon="128.551636">
		<tag k="amenity" v="restaurant"/>
		<tag k="name" v="정코다리(칠곡점)"/>
		<tag k="cuisine" v="korean"/>
		<tag k="source" v="공공데이터포털"/>
		<tag k="source:date" v="2020-10-13"/>
		<tag k="addr:street" v="칠곡중앙대로"/>
		<tag k="addr:housenumber" v="605"/>
		<tag k="addr:subdistrict" v="읍내동"/>
	</node>
	<node id="-200065" action="modify" visible="true" lat="35.883213" lon="128.58876">
		<tag k="amenity" v="restaurant"/>
		<tag k="name" v="짬뽕신"/>
		<tag k="cuisine" v="chinese"/>
		<tag k="source" v="공공데이터포털"/>
		<tag k="source:date" v="2020-10-13"/>
		<tag k="addr:street" v="옥산로"/>
		<tag k="addr:housenumber" v="98"/>
		<tag k="level" v="1"/>
	</node>
	<node id="-200066" action="modify" visible="true" lat="35.904778" lon="128.611632">
		<tag k="amenity" v="restaurant"/>
		<tag k="name" v="천안문"/>
		<tag k="cuisine" v="chinese"/>
		<tag k="source" v="공공데이터포털"/>
		<tag k="source:date" v="2020-10-13"/>
		<tag k="addr:street" v="유통단지로8길"/>
		<tag k="addr:housenumber" v="62"/>
		<tag k="addr:subdistrict" v="산격동"/>
	</node>
	<node id="-200067" action="modify" visible="true" lat="35.940523" lon="128.569401">
		<tag k="amenity" v="restaurant"/>
		<tag k="name" v="칼치본가"/>
		<tag k="cuisine" v="korean"/>
		<tag k="source" v="공공데이터포털"/>
		<tag k="source:date" v="2020-10-13"/>
		<tag k="addr:street" v="구암로65길"/>
		<tag k="addr:housenumber" v="2"/>
		<tag k="addr:subdistrict" v="구암동"/>
	</node>
	<node id="-200068" action="modify" visible="true" lat="35.894439" lon="128.61956">
		<tag k="amenity" v="restaurant"/>
		<tag k="name" v="큐브30"/>
		<tag k="cuisine" v="korean"/>
		<tag k="source" v="공공데이터포털"/>
		<tag k="source:date" v="2020-10-13"/>
		<tag k="addr:street" v="동북로"/>
		<tag k="addr:housenumber" v="261"/>
		<tag k="addr:subdistrict" v="복현동"/>
	</node>
	<node id="-200069" action="modify" visible="true" lat="35.925145" lon="128.546731">
		<tag k="amenity" v="restaurant"/>
		<tag k="name" v="팔공산맥"/>
		<tag k="cuisine" v="korean"/>
		<tag k="source" v="공공데이터포털"/>
		<tag k="source:date" v="2020-10-13"/>
		<tag k="addr:street" v="칠곡중앙대로"/>
		<tag k="addr:housenumber" v="329"/>
		<tag k="addr:subdistrict" v="고성동3가"/>
		<tag k="level" v="1"/>
	</node>
	<node id="-200070" action="modify" visible="true" lat="35.942889" lon="128.559044">
		<tag k="amenity" v="restaurant"/>
		<tag k="name" v="피제리아칠곡점"/>
		<tag k="cuisine" v="international"/>
		<tag k="source" v="공공데이터포털"/>
		<tag k="source:date" v="2020-10-13"/>
		<tag k="addr:street" v="동천로"/>
		<tag k="addr:housenumber" v="125-15"/>
		<tag k="addr:subdistrict" v="동천동"/>
		<tag k="level" v="2"/>
	</node>
	<node id="-200071" action="modify" visible="true" lat="35.885673" lon="128.587758">
		<tag k="amenity" v="restaurant"/>
		<tag k="name" v="한가네"/>
		<tag k="cuisine" v="korean"/>
		<tag k="source" v="공공데이터포털"/>
		<tag k="source:date" v="2020-10-13"/>
		<tag k="addr:street" v="침산로21길"/>
		<tag k="addr:housenumber" v="23"/>
		<tag k="addr:subdistrict" v="칠성동2가"/>
	</node>
	<node id="-200072" action="modify" visible="true" lat="35.932328" lon="128.556463">
		<tag k="amenity" v="restaurant"/>
		<tag k="name" v="한만수의통영멸치국수"/>
		<tag k="cuisine" v="korean"/>
		<tag k="source" v="공공데이터포털"/>
		<tag k="source:date" v="2020-10-13"/>
		<tag k="addr:street" v="동천로"/>
		<tag k="addr:housenumber" v="5-15"/>
		<tag k="addr:subdistrict" v="동천동"/>
	</node>
	<node id="-200073" action="modify" visible="true" lat="35.934982" lon="128.556317">
		<tag k="amenity" v="restaurant"/>
		<tag k="name" v="한서회"/>
		<tag k="cuisine" v="japanese"/>
		<tag k="source" v="공공데이터포털"/>
		<tag k="source:date" v="2020-10-13"/>
		<tag k="addr:street" v="팔거천동로"/>
		<tag k="addr:housenumber" v="122"/>
		<tag k="addr:subdistrict" v="동천동"/>
	</node>
	<node id="-200074" action="modify" visible="true" lat="35.924882" lon="128.546697">
		<tag k="amenity" v="restaurant"/>
		<tag k="name" v="한통정육식당"/>
		<tag k="cuisine" v="korean; meat"/>
		<tag k="source" v="공공데이터포털"/>
		<tag k="source:date" v="2020-10-13"/>
		<tag k="addr:street" v="칠곡중앙대로"/>
		<tag k="addr:housenumber" v="327"/>
		<tag k="addr:subdistrict" v="태전동"/>
	</node>
	<node id="-200075" action="modify" visible="true" lat="35.897046" lon="128.616622">
		<tag k="amenity" v="restaurant"/>
		<tag k="name" v="해바라기숯불갈비"/>
		<tag k="cuisine" v="korean; meat"/>
		<tag k="source" v="공공데이터포털"/>
		<tag k="source:date" v="2020-10-13"/>
		<tag k="addr:street" v="공항로"/>
		<tag k="addr:housenumber" v="10-10"/>
		<tag k="addr:subdistrict" v="복현동"/>
	</node>
	<node id="-200076" action="modify" visible="true" lat="35.9046" lon="128.609203">
		<tag k="amenity" v="restaurant"/>
		<tag k="name" v="해송"/>
		<tag k="cuisine" v="korean"/>
		<tag k="source" v="공공데이터포털"/>
		<tag k="source:date" v="2020-10-13"/>
		<tag k="addr:street" v="유통단지로8길"/>
		<tag k="addr:housenumber" v="21-29"/>
		<tag k="addr:subdistrict" v="산격동"/>
	</node>
	<node id="-200077" action="modify" visible="true" lat="35.93715" lon="128.605665">
		<tag k="amenity" v="restaurant"/>
		<tag k="name" v="호야암소한마리"/>
		<tag k="cuisine" v="korean; meat"/>
		<tag k="source" v="공공데이터포털"/>
		<tag k="source:date" v="2020-10-13"/>
		<tag k="addr:street" v="이곡길"/>
		<tag k="addr:housenumber" v="24-1"/>
		<tag k="addr:subdistrict" v="서변동"/>
	</node>
	<node id="-200078" action="modify" visible="true" lat="35.875894" lon="128.596312">
		<tag k="amenity" v="restaurant"/>
		<tag k="name" v="화요옥대구점"/>
		<tag k="cuisine" v="korean"/>
		<tag k="source" v="공공데이터포털"/>
		<tag k="source:date" v="2020-10-13"/>
		<tag k="addr:street" v="태평로"/>
		<tag k="addr:housenumber" v="161"/>
		<tag k="addr:subdistrict" v="칠성동2가"/>
		<tag k="level" v="10"/>
		<tag k="addr:housename" v="롯데백화점"/>
	</node>
	<node id="-200079" action="modify" visible="true" lat="35.947952" lon="128.5741">
		<tag k="amenity" v="restaurant"/>
		<tag k="name" v="황금코다리대구칠곡점"/>
		<tag k="cuisine" v="korean"/>
		<tag k="source" v="공공데이터포털"/>
		<tag k="source:date" v="2020-10-13"/>
		<tag k="addr:street" v="구리로"/>
		<tag k="addr:housenumber" v="173"/>
		<tag k="addr:subdistrict" v="국우동"/>
	</node>
	<node id="-200080" action="modify" visible="true" lat="35.904367" lon="128.610476">
		<tag k="amenity" v="restaurant"/>
		<tag k="name" v="황장군유통단지점"/>
		<tag k="cuisine" v="korean"/>
		<tag k="source" v="공공데이터포털"/>
		<tag k="source:date" v="2020-10-13"/>
		<tag k="addr:street" v="유통단지로8길"/>
		<tag k="addr:housenumber" v="50"/>
		<tag k="addr:subdistrict" v="산격동"/>
	</node>
	<node id="-200081" action="modify" visible="true" lat="35.88381" lon="128.586928">
		<tag k="amenity" v="restaurant"/>
		<tag k="name" v="황장군침산점"/>
		<tag k="cuisine" v="korean"/>
		<tag k="source" v="공공데이터포털"/>
		<tag k="source:date" v="2020-10-13"/>
		<tag k="addr:street" v="옥산로"/>
		<tag k="addr:housenumber" v="106"/>
		<tag k="addr:subdistrict" v="고성동3가"/>
	</node>
</osm>
