<?xml version='1.0' encoding='utf-8'?>
<osm version="0.6" generator="JOSM"><node id="-200001" action="modify" visible="true" lat="37.54040696" lon="126.9947589"><tag k="amenity" v="restaurant" /><tag k="cuisine" v="japanese" /><tag k="name" v="도쿄살롱" /><tag k="phone" v="+82 2 792 3068" /><tag k="description" v="매일 신선한 재료로 정성껏 만든 수제꼬치" /><tag k="addr:street" v="회나무로" /><tag k="addr:housenumber" v="74" /><tag k="level" v="1" /><tag k="source" v="공공데이터포털" /></node><node id="-200002" action="modify" visible="true" lat="37.53546566" lon="126.9911929"><tag k="amenity" v="restaurant" /><tag k="cuisine" v="french" /><tag k="name" v="바이휴고" /><tag k="phone" v="+82 70 4063 1642" /><tag k="description" v="캐쥬얼한 프렌치 레스토랑" /><tag k="addr:street" v="이태원로17길" /><tag k="addr:housenumber" v="23-13" /><tag k="level" v="1" /><tag k="source" v="공공데이터포털" /></node><node id="-200003" action="modify" visible="true" lat="37.53319874" lon="126.9912158"><tag k="amenity" v="restaurant" /><tag k="cuisine" v="cameroonian" /><tag k="name" v="Africanport" /><tag k="phone" v="+82 2 792 9214" /><tag k="description" v="아프리카의 품속으로" /><tag k="addr:street" v="이태원로14길" /><tag k="addr:housenumber" v="29-1" /><tag k="level" v="2" /><tag k="source" v="공공데이터포털" /></node><node id="-200004" action="modify" visible="true" lat="37.53963898" lon="126.9898573"><tag k="amenity" v="restaurant" /><tag k="cuisine" v="japanese" /><tag k="name" v="고로킹" /><tag k="phone" v="+82 2 792 9214" /><tag k="description" v="지구에서 제일 맛있는 고로케" /><tag k="addr:street" v="회나무로" /><tag k="addr:housenumber" v="29" /><tag k="level" v="1" /><tag k="source" v="공공데이터포털" /></node><node id="-200005" action="modify" visible="true" lat="37.53334665" lon="126.9935239"><tag k="amenity" v="restaurant" /><tag k="cuisine" v="american" /><tag k="name" v="매덕스피자이태원점" /><tag k="phone" v="+82 2 792 2420" /><tag k="description" v="뉴욕스타일의 조각피자" /><tag k="addr:street" v="이태원로26길" /><tag k="addr:housenumber" v="26" /><tag k="level" v="2" /><tag k="source" v="공공데이터포털" /></node><node id="-200006" action="modify" visible="true" lat="37.53678504" lon="127.0016067"><tag k="amenity" v="restaurant" /><tag k="cuisine" v="american" /><tag k="name" v="미트볼라운지" /><tag k="phone" v="+82 2 790 1102" /><tag k="description" v="Fast casual dining pub 미트볼전문점으로 다양한 미국식 퓨전음식과 맥주를 트렌디하게 즐길 수 있습니다" /><tag k="addr:street" v="이태원로54길" /><tag k="addr:housenumber" v="36" /><tag k="level" v="1" /><tag k="source" v="공공데이터포털" /></node><node id="-200007" action="modify" visible="true" lat="37.54086836" lon="127.0024848"><tag k="amenity" v="restaurant" /><tag k="cuisine" v="italian" /><tag k="name" v="스테이지비" /><tag k="phone" v="+82 2 6399 7545" /><tag k="description" v="외식과 문화가 공존하는 예술의 공간" /><tag k="addr:street" v="이태원로" /><tag k="addr:housenumber" v="294" /><tag k="level" v="2" /><tag k="source" v="공공데이터포털" /></node><node id="-200008" action="modify" visible="true" lat="37.54086836" lon="127.0024848"><tag k="amenity" v="restaurant" /><tag k="cuisine" v="japanese" /><tag k="name" v="솔로스키친" /><tag k="phone" v="+82 2 6399 7447" /><tag k="description" v="'혼공족'을 위해 간편하게 테이크아웃해서 어디서든 편안하게 먹을 수 있는 건강한 한그릇 메뉴" /><tag k="addr:street" v="이태원로" /><tag k="addr:housenumber" v="294" /><tag k="level" v="2" /><tag k="source" v="공공데이터포털" /></node><node id="-200009" action="modify" visible="true" lat="37.53563537" lon="126.998855"><tag k="amenity" v="restaurant" /><tag k="cuisine" v="jordanian" /><tag k="name" v="아라베스크이태원" /><tag k="phone" v="+82 2 790 6910" /><tag k="description" v="할랄요리 전문점, 아랍요리 전문점" /><tag k="addr:street" v="이태원로" /><tag k="addr:housenumber" v="227" /><tag k="level" v="2" /><tag k="source" v="공공데이터포털" /></node><node id="-200010" action="modify" visible="true" lat="37.53666612" lon="126.9990948"><tag k="amenity" v="restaurant" /><tag k="cuisine" v="american" /><tag k="name" v="앤와이비엔비버거엔베이글" /><tag k="phone" v="+82 2 553 7792" /><tag k="description" v="한국에서 느낄 수 있는 뉴욕 맨하탄의 버거 맛" /><tag k="addr:street" v="이태원로55나길" /><tag k="addr:housenumber" v="6" /><tag k="level" v="1" /><tag k="source" v="공공데이터포털" /></node><node id="-200011" action="modify" visible="true" lat="37.53468751" lon="126.9981354"><tag k="amenity" v="restaurant" /><tag k="cuisine" v="japanese" /><tag k="name" v="유타로" /><tag k="phone" v="+82 2 797 5776" /><tag k="description" v="먹는 것 이상의 맛있는 즐거운, 하키타 일본라면" /><tag k="addr:street" v="이태원로" /><tag k="addr:housenumber" v="216" /><tag k="level" v="1" /><tag k="source" v="공공데이터포털" /></node><node id="-200012" action="modify" visible="true" lat="37.53453972" lon="126.9970583"><tag k="amenity" v="restaurant" /><tag k="cuisine" v="japanese" /><tag k="name" v="후지야마소바" /><tag k="phone" v="+82 2 749 4129" /><tag k="description" v="일본에서 먹어본 맛을 즐길 수 있어요" /><tag k="addr:street" v="이태원로" /><tag k="addr:housenumber" v="208" /><tag k="level" v="1" /><tag k="source" v="공공데이터포털" /></node><node id="-200013" action="modify" visible="true" lat="37.53737971" lon="127.000258"><tag k="amenity" v="restaurant" /><tag k="cuisine" v="italian" /><tag k="name" v="일키아쏘" /><tag k="phone" v="+82 2 792 5588" /><tag k="description" v="한남동에 위치한 이탈리아 본고장의 맛과 분위기를 느낄 수 있는 이탈리아 레스토랑" /><tag k="addr:street" v="이태원로55가길" /><tag k="addr:housenumber" v="21" /><tag k="level" v="1" /><tag k="source" v="공공데이터포털" /></node><node id="-200014" action="modify" visible="true" lat="37.53393038" lon="126.9915235"><tag k="amenity" v="restaurant" /><tag k="cuisine" v="vietnamese" /><tag k="name" v="포하우스" /><tag k="phone" v="+82 2 793 5220" /><tag k="description" v="베트남쌀국수가 맛있는 이태원 포하우스" /><tag k="addr:street" v="이태원로20길" /><tag k="addr:housenumber" v="2-12" /><tag k="level" v="2" /><tag k="source" v="공공데이터포털" /></node><node id="-200015" action="modify" visible="true" lat="37.53695027" lon="127.0115182"><tag k="amenity" v="restaurant" /><tag k="cuisine" v="american" /><tag k="name" v="매덕스피자한남점" /><tag k="phone" v="+82 2 790 2420" /><tag k="description" v="뉴욕스타일의 조각피자" /><tag k="addr:street" v="독서당로29길" /><tag k="addr:housenumber" v="5-6" /><tag k="addr:unit" v="G" /><tag k="level" v="2" /><tag k="addr:door" v="202" /><tag k="addr:housename" v="리플레이스 한남" /><tag k="source" v="공공데이터포털" /></node><node id="-200016" action="modify" visible="true" lat="37.53713401" lon="126.9877893"><tag k="amenity" v="restaurant" /><tag k="cuisine" v="american" /><tag k="name" v="빌리스팬케이크" /><tag k="phone" v="+82 2 790 3315" /><tag k="description" v="맛있는 팬케이크와 루프탑이 있는 경리단 대표카페" /><tag k="addr:street" v="녹사평대로46길" /><tag k="addr:housenumber" v="16-4" /><tag k="level" v="2" /><tag k="source" v="공공데이터포털" /></node><node id="-200017" action="modify" visible="true" lat="37.53726011" lon="126.9874137"><tag k="amenity" v="restaurant" /><tag k="cuisine" v="dessert" /><tag k="name" v="도쿄빙수경리단길점" /><tag k="phone" v="+82 70 7812 9584" /><tag k="description" v="지구상에서 가장 맛있는 빙수가 있는 도쿄빙수" /><tag k="addr:street" v="녹사평대로46길" /><tag k="addr:housenumber" v="10" /><tag k="level" v="1" /><tag k="source" v="공공데이터포털" /></node><node id="-200018" action="modify" visible="true" lat="37.53745125" lon="126.9886492"><tag k="amenity" v="restaurant" /><tag k="cuisine" v="chinese" /><tag k="name" v="누랑즈뉘" /><tag k="phone" v="+82 2 797 0709" /><tag k="description" v="칠석, 견우직녀가 일년에 한번 만나는 뜻깊고 소중한 시간인 만큼, 누랑즈뉘에서 인연과 낭만을 공유할 수 있는 여유로운 시간이 되기를 기원합니다." /><tag k="addr:street" v="녹사평대로46길" /><tag k="addr:housenumber" v="34-2" /><tag k="level" v="1" /><tag k="source" v="공공데이터포털" /></node><node id="-200019" action="modify" visible="true" lat="37.53230503" lon="126.9924288"><tag k="amenity" v="restaurant" /><tag k="cuisine" v="american" /><tag k="name" v="로코스핑크솔트" /><tag k="phone" v="+82 2 792 3235" /><tag k="description" v="고기가 듬뿍 들어있는 미국식 수제버거 맛집" /><tag k="addr:street" v="녹사평대로26가길" /><tag k="addr:housenumber" v="14" /><tag k="level" v="1" /><tag k="source" v="공공데이터포털" /></node><node id="-200020" action="modify" visible="true" lat="37.53369994" lon="126.9954472"><tag k="amenity" v="restaurant" /><tag k="cuisine" v="indian" /><tag k="name" v="타지펠리스" /><tag k="phone" v="+82 2 790 5786" /><tag k="addr:street" v="우사단로" /><tag k="addr:housenumber" v="39" /><tag k="source" v="공공데이터포털" /></node><node id="-200021" action="modify" visible="true" lat="37.54011499" lon="126.9938492"><tag k="amenity" v="restaurant" /><tag k="cuisine" v="italian" /><tag k="name" v="비스테까 토레엔" /><tag k="phone" v="+82 2 797 7746" /><tag k="description" v="서울에서 N타워가 가장 아름답게 보이는 torre N" /><tag k="addr:street" v="회나무로" /><tag k="addr:housenumber" v="66" /><tag k="level" v="3" /><tag k="source" v="공공데이터포털" /></node><node id="-200022" action="modify" visible="true" lat="37.53707697" lon="127.0013804"><tag k="amenity" v="restaurant" /><tag k="cuisine" v="italian" /><tag k="name" v="골든불" /><tag k="phone" v="+82 2 794 7073" /><tag k="description" v="steak가 맛있는 집" /><tag k="addr:street" v="이태원로42길" /><tag k="addr:housenumber" v="60" /><tag k="source" v="공공데이터포털" /></node><node id="-200023" action="modify" visible="true" lat="37.53386563" lon="126.9934514"><tag k="amenity" v="restaurant" /><tag k="cuisine" v="thai" /><tag k="name" v="부아" /><tag k="phone" v="+82 2 792 3340" /><tag k="description" v="미슐랭 빕구르망에서 선정된 고전타이 음식점 부아" /><tag k="addr:street" v="보광로59길" /><tag k="addr:housenumber" v="9" /><tag k="source" v="공공데이터포털" /></node><node id="-200024" action="modify" visible="true" lat="37.53386563" lon="126.9934514"><tag k="amenity" v="restaurant" /><tag k="cuisine" v="thai" /><tag k="name" v="낭낭" /><tag k="phone" v="+82 2 792 3340" /><tag k="description" v="국내에서 처음 선보이는 태국북부지방 국수 전문점" /><tag k="addr:street" v="보광로59길" /><tag k="addr:housenumber" v="9" /><tag k="source" v="공공데이터포털" /></node><node id="-200025" action="modify" visible="true" lat="37.53751306" lon="126.9999004"><tag k="amenity" v="restaurant" /><tag k="cuisine" v="chinese" /><tag k="name" v="우육미엔 이태원점" /><tag k="phone" v="+82 2 798 5556" /><tag k="description" v="대만현지 30년 경력의 Tony Kang쉐프와 국내 3인이 모여 대만 본토보다 맛있는 우육면을 만들자는 각오로 오랫동안 연구하고 대만을 넘나들며 합작하여 만들었습니다." /><tag k="addr:street" v="이태원로55가길" /><tag k="addr:housenumber" v="26-8" /><tag k="source" v="공공데이터포털" /></node><node id="-200026" action="modify" visible="true" lat="37.53919195" lon="126.9884"><tag k="amenity" v="restaurant" /><tag k="cuisine" v="chinese" /><tag k="name" v="완차이야" /><tag k="phone" v="+82 2 798 5556" /><tag k="description" v="홍콩의 분위기와 맛을 그대로 재현해 드립니다." /><tag k="addr:street" v="녹사평대로54길" /><tag k="addr:housenumber" v="19" /><tag k="source" v="공공데이터포털" /></node><node id="-200027" action="modify" visible="true" lat="37.53666612" lon="126.9990948"><tag k="amenity" v="restaurant" /><tag k="cuisine" v="italian" /><tag k="name" v="파스타 프레스카" /><tag k="phone" v="+82 2 795 6004" /><tag k="description" v="생면파스타와 이탈리안 가정식요리를 드실 수 있는 곳" /><tag k="addr:street" v="이태원로55나길" /><tag k="addr:housenumber" v="6" /><tag k="source" v="공공데이터포털" /></node><node id="-200028" action="modify" visible="true" lat="37.54011499" lon="126.9938492"><tag k="amenity" v="restaurant" /><tag k="cuisine" v="vietnamese" /><tag k="name" v="베트남고향식당3호점" /><tag k="phone" v="+82 2 796 7436" /><tag k="description" v="베트남 현지의 맛, 고향의 맛을 느껴보세요." /><tag k="addr:street" v="회나무로" /><tag k="addr:housenumber" v="66" /><tag k="source" v="공공데이터포털" /></node><node id="-200029" action="modify" visible="true" lat="37.53558131" lon="126.9994162"><tag k="amenity" v="restaurant" /><tag k="cuisine" v="japanese" /><tag k="name" v="유다 야키토리" /><tag k="phone" v="+82 2 388 5081" /><tag k="description" v="최고의 야끼도리 전문점" /><tag k="addr:street" v="이태원로" /><tag k="addr:housenumber" v="230-2" /><tag k="source" v="공공데이터포털" /></node><node id="-200030" action="modify" visible="true" lat="37.53562096" lon="127.0006653"><tag k="amenity" v="restaurant" /><tag k="cuisine" v="japanese" /><tag k="name" v="도쿄쟁반" /><tag k="phone" v="+82 2 3785 0913" /><tag k="description" v="식물들과 함께하는 도쿄가정식" /><tag k="addr:street" v="이태원로54길" /><tag k="addr:housenumber" v="58-9" /><tag k="source" v="공공데이터포털" /></node><node id="-200031" action="modify" visible="true" lat="37.53520608" lon="127.0099204"><tag k="amenity" v="restaurant" /><tag k="cuisine" v="thai" /><tag k="name" v="소이연남 한남점" /><tag k="phone" v="+82 2 792 5130" /><tag k="description" v="한국에서 가장 핫한 태국음식점" /><tag k="addr:street" v="한남대로20길" /><tag k="addr:housenumber" v="47-10" /><tag k="source" v="공공데이터포털" /></node><node id="-200032" action="modify" visible="true" lat="37.53622282" lon="127.0011948"><tag k="amenity" v="restaurant" /><tag k="cuisine" v="japanese" /><tag k="name" v="하나마치" /><tag k="phone" v="+82 505 1440 8556" /><tag k="description" v="꽃길 그대와 함께 하겠습니다." /><tag k="addr:street" v="이태원로54길" /><tag k="addr:housenumber" v="52" /><tag k="source" v="공공데이터포털" /></node><node id="-200033" action="modify" visible="true" lat="37.53695027" lon="127.0115182"><tag k="amenity" v="restaurant" /><tag k="cuisine" v="mexican" /><tag k="name" v="감성타코 한남점" /><tag k="phone" v="+82 2 798 8889" /><tag k="description" v="멋진 공간에서 멕시코요리를 즐길 수 있는 곳" /><tag k="addr:street" v="독서당로29길" /><tag k="addr:housenumber" v="5-6" /><tag k="addr:unit" v="G" /><tag k="level" v="3" /><tag k="addr:door" v="301" /><tag k="addr:housename" v="리플레이스 한남" /><tag k="source" v="공공데이터포털" /></node><node id="-200034" action="modify" visible="true" lat="37.53461123" lon="126.9880296"><tag k="amenity" v="restaurant" /><tag k="cuisine" v="japanese" /><tag k="name" v="노리테이블" /><tag k="phone" v="+82 2 792 4427" /><tag k="description" v="캐쥬얼 일식 및 사케바" /><tag k="addr:street" v="녹사평대로40나길" /><tag k="addr:housenumber" v="1" /><tag k="level" v="-1" /><tag k="source" v="공공데이터포털" /></node><node id="-200035" action="modify" visible="true" lat="37.53472705" lon="126.9947819"><tag k="amenity" v="restaurant" /><tag k="cuisine" v="pakistani" /><tag k="name" v="더 할랄 가이즈" /><tag k="phone" v="+82 2 794 8308" /><tag k="description" v="뉴욕 최고의 스트릿 푸드" /><tag k="addr:street" v="이태원로" /><tag k="addr:housenumber" v="187" /><tag k="level" v="2" /><tag k="diet:halal" v="only" /><tag k="source" v="공공데이터포털" /></node><node id="-200036" action="modify" visible="true" lat="37.54011499" lon="126.9938492"><tag k="amenity" v="restaurant" /><tag k="cuisine" v="vietnamese" /><tag k="name" v="반미리" /><tag k="phone" v="+82 70 8289 4190" /><tag k="description" v="베트남 샌드위치 전문점" /><tag k="addr:street" v="회나무로" /><tag k="addr:housenumber" v="66" /><tag k="level" v="1" /><tag k="source" v="공공데이터포털" /></node><node id="-200037" action="modify" visible="true" lat="37.53343651" lon="126.9900346"><tag k="amenity" v="restaurant" /><tag k="cuisine" v="american" /><tag k="name" v="이태원 더 버거" /><tag k="phone" v="+82 2 797 8940" /><tag k="description" v="숯불에 구워 육즙이 풍부하고 스모크향의 맛을 느낄 수 있는 수제버거" /><tag k="addr:street" v="녹사평대로32길" /><tag k="addr:housenumber" v="22" /><tag k="level" v="1" /><tag k="source" v="공공데이터포털" /></node><node id="-200038" action="modify" visible="true" lat="37.53496086" lon="126.988455"><tag k="amenity" v="restaurant" /><tag k="cuisine" v="japanese" /><tag k="name" v="토키바야마" /><tag k="phone" v="+82 2 797 1028" /><tag k="description" v="도쿄의 '토키바야마' 한국 분점" /><tag k="addr:street" v="녹사평대로40다길" /><tag k="addr:housenumber" v="2" /><tag k="level" v="2" /><tag k="addr:housename" v="그린빌라트" /><tag k="source" v="공공데이터포털" /></node><node id="-200039" action="modify" visible="true" lat="37.53416845" lon="126.9951711"><tag k="amenity" v="restaurant" /><tag k="cuisine" v="indian" /><tag k="name" v="알라딘" /><tag k="phone" v="+82 2 797 1028" /><tag k="addr:street" v="보광로60길" /><tag k="addr:housenumber" v="17" /><tag k="level" v="1" /><tag k="source" v="공공데이터포털" /></node><node id="-200040" action="modify" visible="true" lat="37.53445277" lon="126.9892832"><tag k="amenity" v="restaurant" /><tag k="cuisine" v="american" /><tag k="name" v="플라잉볼 익스프레스 이태원점" /><tag k="phone" v="+82 2 790 0511" /><tag k="description" v="최고의 맛은 번으로 결정된다." /><tag k="addr:street" v="녹사평대로40길" /><tag k="addr:housenumber" v="59-2" /><tag k="level" v="2" /><tag k="source" v="공공데이터포털" /></node><node id="-200041" action="modify" visible="true" lat="37.53962103" lon="126.9905995"><tag k="amenity" v="restaurant" /><tag k="cuisine" v="dessert" /><tag k="name" v="크리에잇쿠키" /><tag k="phone" v="+82 2 792 8890" /><tag k="description" v="유기농 밀로 만든 미국식 쿠키 전문점" /><tag k="addr:street" v="회나무로" /><tag k="addr:housenumber" v="36" /><tag k="level" v="1" /><tag k="source" v="공공데이터포털" /></node><node id="-200042" action="modify" visible="true" lat="37.53680307" lon="127.0000181"><tag k="amenity" v="restaurant" /><tag k="cuisine" v="italian" /><tag k="name" v="덥스텝 비" /><tag k="phone" v="+82 2 796 7015" /><tag k="description" v="외국의 다양한 국적 분들도 무난하게 식사를 즐기실수 있는 메뉴들로 구성되어 있습니다. 깔끔하고 정갈한 내부 인테리어와 예쁜 테라스가 있는 dubstep B는 Dining &amp; Pub이지만, 조만간 커피도 됩니다.  ^ ^;;  `dubstep B`는 연인들의 데이트 코스로  `성지`와도 같은 곳입니다." /><tag k="addr:street" v="이태원로" /><tag k="addr:housenumber" v="243" /><tag k="level" v="1" /><tag k="name:en" v="dubstep B " /><tag k="name:ko" v="덥스텝 비" /><tag k="source" v="공공데이터포털" /></node><node id="-200043" action="modify" visible="true" lat="37.54126082" lon="126.9902554"><tag k="amenity" v="restaurant" /><tag k="cuisine" v="italian" /><tag k="name" v="알레딴떼" /><tag k="phone" v="+82 2 792 1881" /><tag k="description" v="나폴리 스테파노 페라리 화덕, 100%장작, 유럽 현지 경험 셰프" /><tag k="addr:street" v="회나무로13나길" /><tag k="addr:housenumber" v="8" /><tag k="level" v="-1; 1; 2; 3" /><tag k="source" v="공공데이터포털" /></node><node id="-200044" action="modify" visible="true" lat="37.53979415" lon="126.9923782"><tag k="amenity" v="restaurant" /><tag k="cuisine" v="italian" /><tag k="name" v="스윗비" /><tag k="phone" v="+82 2 792 0749" /><tag k="description" v="프리미엄 이탈리안 아이스크림 전문점" /><tag k="addr:street" v="회나무로32길" /><tag k="addr:housenumber" v="2-1" /><tag k="level" v="1" /><tag k="source" v="공공데이터포털" /></node><node id="-200045" action="modify" visible="true" lat="37.53566032" lon="126.991831"><tag k="amenity" v="restaurant" /><tag k="cuisine" v="french" /><tag k="name" v="르푸도레" /><tag k="phone" v="+82 2 797 8893" /><tag k="description" v="아담하고 이쁜 프렌치 빵 전문점" /><tag k="addr:street" v="이태원로23길" /><tag k="addr:housenumber" v="34" /><tag k="level" v="1" /><tag k="source" v="공공데이터포털" /></node><node id="-200046" action="modify" visible="true" lat="37.53734296" lon="126.9870652"><tag k="amenity" v="restaurant" /><tag k="cuisine" v="italian" /><tag k="name" v="그린내" /><tag k="phone" v="+82 2 794 8793" /><tag k="description" v="윤현찬 셰프의 이탈리아 파스타 전문점" /><tag k="addr:street" v="녹사평대로" /><tag k="addr:housenumber" v="222" /><tag k="level" v="2" /><tag k="source" v="공공데이터포털" /></node><node id="-200047" action="modify" visible="true" lat="37.53597055" lon="126.9999728"><tag k="amenity" v="restaurant" /><tag k="cuisine" v="russian" /><tag k="name" v="마트료시카" /><tag k="phone" v="+82 70 7591 1112" /><tag k="description" v="한남동 러시아 음식 전문점" /><tag k="addr:street" v="이태원로" /><tag k="addr:housenumber" v="238" /><tag k="level" v="2" /><tag k="source" v="공공데이터포털" /></node><node id="-200048" action="modify" visible="true" lat="37.53446021" lon="127.0078747"><tag k="amenity" v="restaurant" /><tag k="cuisine" v="japanese" /><tag k="name" v="스시고코로" /><tag k="phone" v="+82 2 790 1182" /><tag k="description" v="즐겁게 맛있는 시스릴 즐길 수 있는 곳" /><tag k="addr:street" v="한남대로" /><tag k="addr:housenumber" v="60" /><tag k="addr:unit" v="D" /><tag k="level" v="1" /><tag k="addr:door" v="108" /><tag k="addr:housename" v="금호리첸시아" /><tag k="source" v="공공데이터포털" /></node><node id="-200049" action="modify" visible="true" lat="37.53724997" lon="126.9997149"><tag k="amenity" v="restaurant" /><tag k="cuisine" v="italian" /><tag k="name" v="포카사" /><tag k="phone" v="+82 2 2038 2488" /><tag k="description" v="정통 이탈리안 델리 카페" /><tag k="addr:street" v="이태원로49길" /><tag k="addr:housenumber" v="14-2" /><tag k="level" v="1; 2" /><tag k="source" v="공공데이터포털" /></node><node id="-200050" action="modify" visible="true" lat="37.53726438" lon="126.9995881"><tag k="amenity" v="restaurant" /><tag k="cuisine" v="german" /><tag k="name" v="스톤그라운드" /><tag k="phone" v="+82 2 790 8906" /><tag k="description" v="갓 구운 독일식 빵과 건강 샌드위치" /><tag k="addr:street" v="이태원로49길" /><tag k="addr:housenumber" v="14-3" /><tag k="level" v="1; 2" /><tag k="source" v="공공데이터포털" /></node><node id="-200051" action="modify" visible="true" lat="37.53588045" lon="127.0003937"><tag k="amenity" v="restaurant" /><tag k="cuisine" v="american" /><tag k="name" v="다운타우너" /><tag k="phone" v="+82 70 8820 3696" /><tag k="description" v="한남동 수제버거" /><tag k="addr:street" v="이태원로42길" /><tag k="addr:housenumber" v="28-4" /><tag k="level" v="1; 2" /><tag k="source" v="공공데이터포털" /></node><node id="-200052" action="modify" visible="true" lat="37.53397352" lon="127.0098297"><tag k="amenity" v="restaurant" /><tag k="cuisine" v="italian" /><tag k="name" v="오만지아" /><tag k="phone" v="+82 2 749 2900" /><tag k="description" v="시칠리아 스타일의 이태리 정통레스토랑" /><tag k="addr:street" v="유엔빌리지길" /><tag k="addr:housenumber" v="14" /><tag k="source" v="공공데이터포털" /></node><node id="-200053" action="modify" visible="true" lat="37.53294317" lon="126.9980676"><tag k="amenity" v="restaurant" /><tag k="cuisine" v="egyptian" /><tag k="name" v="카이로 바베큐" /><tag k="phone" v="+82 2 798 1253" /><tag k="description" v="이집트 음식 전문점" /><tag k="addr:street" v="우사단로10길" /><tag k="addr:housenumber" v="45" /><tag k="level" v="1; 2" /><tag k="source" v="공공데이터포털" /></node><node id="-200054" action="modify" visible="true" lat="37.53726438" lon="126.9998009"><tag k="amenity" v="restaurant" /><tag k="cuisine" v="italian" /><tag k="name" v="핏제리아디부자 1호점" /><tag k="phone" v="+82 2 794 9474" /><tag k="description" v="PIZZERIA D’BUZZA(부자피자)는 최상급에 식재료를 사용하여 만드는 이탈리아 정통방식의 레스토랑입니다. 정통 화덕피자를 누구나 캐쥬얼하고 편하게 즐길 수 있도록 만들었으며 보다 합리적인 가격에 제공해드리고자 합니다." /><tag k="addr:street" v="이태원로55가길" /><tag k="addr:housenumber" v="28" /><tag k="source" v="공공데이터포털" /></node><node id="-200055" action="modify" visible="true" lat="37.5338367" lon="127.0081461"><tag k="amenity" v="restaurant" /><tag k="cuisine" v="vietnamese" /><tag k="name" v="사이공그릴" /><tag k="phone" v="+82 2 749 7783" /><tag k="description" v="베트남 및 동남아시아요리의 수준급 요리를 맛볼수 있습니다." /><tag k="addr:street" v="독서당로" /><tag k="addr:housenumber" v="67" /><tag k="level" v="2" /><tag k="addr:housename" v="이춘근치과의원" /><tag k="source" v="공공데이터포털" /></node><node id="-200056" action="modify" visible="true" lat="37.54036368" lon="126.9941162"><tag k="amenity" v="restaurant" /><tag k="cuisine" v="italian" /><tag k="name" v="더 젤 " /><tag k="phone" v="+82 2 797 6846" /><tag k="description" v="미국 타임지가 선정한 한국 대표 와인다이닝레스토랑. 아름다운 남산 전망과 한우 스테이크를 와인과 함께 즐길 수 있고 경리단길 24년 역사와 전통을 자랑하는 한국 와인 문화의 성지" /><tag k="addr:street" v="회나무로" /><tag k="addr:housenumber" v="67" /><tag k="level" v="1; 2" /><tag k="source" v="공공데이터포털" /></node><node id="-200057" action="modify" visible="true" lat="37.53495049" lon="126.9945692"><tag k="amenity" v="restaurant" /><tag k="cuisine" v="australian" /><tag k="name" v="더플라잉팬블루" /><tag k="phone" v="+82 2 793 5285" /><tag k="description" v="여러나라의 다양한 음식문화를 더플라잉팬블루의 감각으로 세련되고 모던하게 재해석하여 선보이고자 합니다" /><tag k="addr:street" v="이태원로27가길" /><tag k="addr:housenumber" v="13" /><tag k="level" v="-1" /><tag k="source" v="공공데이터포털" /></node><node id="-200058" action="modify" visible="true" lat="37.53074831" lon="127.0028782"><tag k="amenity" v="restaurant" /><tag k="cuisine" v="american" /><tag k="name" v="유피피" /><tag k="phone" v="+82 2 793 5285" /><tag k="description" v="남산을 볼 수 있는 공간 UPP입니다. 편안한 분위기를 즐겨보세요" /><tag k="addr:street" v="장문로49길" /><tag k="addr:housenumber" v="104" /><tag k="level" v="3" /><tag k="source" v="공공데이터포털" /></node><node id="-200059" action="modify" visible="true" lat="37.53516312" lon="126.9944198"><tag k="amenity" v="restaurant" /><tag k="cuisine" v="american" /><tag k="name" v="래미스" /><tag k="phone" v="+82 2 6237 2020" /><tag k="description" v="New American Plates, Small Plates" /><tag k="addr:street" v="이태원로27가길" /><tag k="addr:housenumber" v="16" /><tag k="level" v="-1; 1; 2" /><tag k="name:en" v="Ramie`s" /><tag k="name:ko" v="래미스" /><tag k="source" v="공공데이터포털" /></node><node id="-200060" action="modify" visible="true" lat="37.5351559" lon="126.9942705"><tag k="amenity" v="restaurant" /><tag k="cuisine" v="italian" /><tag k="name" v="나인티모" /><tag k="phone" v="+82 2 790 4285" /><tag k="description" v="한국인 입맛에 맞춘 맛있는 이탈리안 레스토랑" /><tag k="addr:street" v="이태원로27가길" /><tag k="addr:housenumber" v="18" /><tag k="level" v="-1" /><tag k="source" v="공공데이터포털" /></node><node id="-200061" action="modify" visible="true" lat="37.53505492" lon="126.9929897"><tag k="amenity" v="restaurant" /><tag k="cuisine" v="italian" /><tag k="name" v="(주)마이첼시" /><tag k="phone" v="+82 2 749 1373" /><tag k="description" v="빈티지한 분위기 피자, 파스타 맛집으로 유명한 레스토랑" /><tag k="addr:street" v="이태원로27가길" /><tag k="addr:housenumber" v="40" /><tag k="level" v="1; 2" /><tag k="source" v="공공데이터포털" /></node><node id="-200062" action="modify" visible="true" lat="37.53482786" lon="126.9928992"><tag k="amenity" v="restaurant" /><tag k="cuisine" v="greek" /><tag k="name" v="산토리니" /><tag k="phone" v="+82 2 790 3474" /><tag k="description" v="정통 웰빙 지중해 식단" /><tag k="addr:street" v="이태원로27가길" /><tag k="addr:housenumber" v="43" /><tag k="level" v="2; 3" /><tag k="source" v="공공데이터포털" /></node><node id="-200063" action="modify" visible="true" lat="37.53506931" lon="126.9925552"><tag k="amenity" v="restaurant" /><tag k="cuisine" v="american" /><tag k="name" v="팻앨버트" /><tag k="phone" v="+82 2 749 3336" /><tag k="description" v="이태원 초창기의 펍, 외국인들 사이에서 알려짐, 저렴하고 맛있는 음식과 술" /><tag k="addr:street" v="이태원로27가길" /><tag k="addr:housenumber" v="50" /><tag k="level" v="1; 2" /><tag k="source" v="공공데이터포털" /></node><node id="-200064" action="modify" visible="true" lat="37.53496491" lon="126.9947819"><tag k="amenity" v="restaurant" /><tag k="cuisine" v="chinese" /><tag k="name" v="쟈니덤플링2호점" /><tag k="phone" v="+82 2 790 8839" /><tag k="description" v="만두 귀신들의 성지" /><tag k="addr:street" v="이태원로27가길" /><tag k="addr:housenumber" v="9" /><tag k="level" v="1; 2" /><tag k="source" v="공공데이터포털" /></node><node id="-200065" action="modify" visible="true" lat="37.53581197" lon="126.999828"><tag k="amenity" v="restaurant" /><tag k="cuisine" v="american" /><tag k="name" v="호머" /><tag k="phone" v="+82 2 790 8839" /><tag k="description" v="매일 구워내는 수제피자를 조각으로 맥주&amp;진토닉과 즐길 수 있는 곳" /><tag k="addr:street" v="이태원로42길" /><tag k="addr:housenumber" v="19" /><tag k="level" v="2" /><tag k="source" v="공공데이터포털" /></node><node id="-200066" action="modify" visible="true" lat="37.53660843" lon="126.9978186"><tag k="amenity" v="restaurant" /><tag k="cuisine" v="american" /><tag k="name" v="인더랩" /><tag k="phone" v="+82 70 7718 0190" /><tag k="description" v="IN THE LAB : 요리연구소. 다양한 요리를 연구, 접목시켜 새로운 요리를 만들어내는 Mix &amp; Match Restaurant " /><tag k="addr:street" v="이태원로45길" /><tag k="addr:housenumber" v="34" /><tag k="level" v="2" /><tag k="name:en" v="In The Lab" /><tag k="name:ko" v="인더랩" /><tag k="source" v="공공데이터포털" /></node><node id="-200067" action="modify" visible="true" lat="37.5361976" lon="126.9993438"><tag k="amenity" v="restaurant" /><tag k="cuisine" v="japanese" /><tag k="name" v="타베모노" /><tag k="phone" v="+82 2 790 2023" /><tag k="description" v="신선한 초밥과 롤을 맛있게 드실 수 있는 음식점" /><tag k="addr:street" v="이태원로45길" /><tag k="addr:housenumber" v="4" /><tag k="level" v="-1" /><tag k="source" v="공공데이터포털" /></node><node id="-200068" action="modify" visible="true" lat="37.53719951" lon="127.0001312"><tag k="amenity" v="restaurant" /><tag k="cuisine" v="italian" /><tag k="name" v="(주)마렘마트라토리아" /><tag k="phone" v="+82 2 790 2023" /><tag k="description" v="가정식 이탈리안" /><tag k="addr:street" v="이태원로49길" /><tag k="addr:housenumber" v="8" /><tag k="level" v="1" /><tag k="source" v="공공데이터포털" /></node><node id="-200069" action="modify" visible="true" lat="37.53772928" lon="127.0021769"><tag k="amenity" v="restaurant" /><tag k="cuisine" v="french" /><tag k="name" v="루틴" /><tag k="phone" v="+82 2 790 6686" /><tag k="description" v="프랑스 가정식" /><tag k="addr:street" v="이태원로54길" /><tag k="addr:housenumber" v="13" /><tag k="level" v="1" /><tag k="source" v="공공데이터포털" /></node><node id="-200070" action="modify" visible="true" lat="37.53772928" lon="127.0021769"><tag k="amenity" v="restaurant" /><tag k="cuisine" v="thai" /><tag k="name" v="스파이시바이트" /><tag k="phone" v="+82 70 4028 8011" /><tag k="description" v="동남1 퓨전식당" /><tag k="addr:street" v="이태원로54길" /><tag k="addr:housenumber" v="13" /><tag k="name:en" v="Spicy Bite" /><tag k="name:ko" v="스파이시바이트" /><tag k="source" v="공공데이터포털" /></node><node id="-200071" action="modify" visible="true" lat="37.53643906" lon="127.0013804"><tag k="amenity" v="restaurant" /><tag k="cuisine" v="japanese" /><tag k="name" v="라운드 어바웃" /><tag k="phone" v="+82 70 5055 2258" /><tag k="description" v="카레전문점으로 카레를 제외한 요일별로 다른 일본가정석을 즐길 수 있는 매장입니다" /><tag k="addr:street" v="이태원로54길" /><tag k="addr:housenumber" v="46" /><tag k="level" v="1" /><tag k="name:en" v="ROUND ABOUT" /><tag k="name:ko" v="라운드 어바웃" /><tag k="source" v="공공데이터포털" /></node><node id="-200072" action="modify" visible="true" lat="37.53627327" lon="127.0014437"><tag k="amenity" v="restaurant" /><tag k="cuisine" v="italian" /><tag k="name" v="알밤" /><tag k="phone" v="+82 70 8773 8479" /><tag k="description" v="한국식재료를 이용해 편안한 가정에서 즐길 수있는 가정식 양식 레스토랑" /><tag k="addr:street" v="이태원로54길" /><tag k="addr:housenumber" v="47" /><tag k="level" v="1" /><tag k="name:en" v="ALBAM" /><tag k="name:ko" v="알밤" /><tag k="source" v="공공데이터포털" /></node><node id="-200073" action="modify" visible="true" lat="37.53600658" lon="127.0012898"><tag k="amenity" v="restaurant" /><tag k="cuisine" v="american" /><tag k="name" v="스모키러버스" /><tag k="phone" v="+82 2 792 1772" /><tag k="description" v="스모키러버는 아메리칸 바비큐 다이닝입니다" /><tag k="addr:street" v="이태원로54길" /><tag k="addr:housenumber" v="53" /><tag k="level" v="1" /><tag k="source" v="공공데이터포털" /></node><node id="-200074" action="modify" visible="true" lat="37.53802841" lon="127.0022041"><tag k="amenity" v="restaurant" /><tag k="cuisine" v="chinese" /><tag k="name" v="자리" /><tag k="phone" v="+82 70 8278 2947" /><tag k="description" v="밀가루를 사용하지 않는 건강한 중국요리 드시러 오세요" /><tag k="addr:street" v="이태원로54길" /><tag k="addr:housenumber" v="5-5" /><tag k="level" v="1" /><tag k="source" v="공공데이터포털" /></node><node id="-200075" action="modify" visible="true" lat="37.53766803" lon="127.0004978"><tag k="amenity" v="restaurant" /><tag k="cuisine" v="italian" /><tag k="name" v="아방뮤제" /><tag k="phone" v="+82 2 790 7392" /><tag k="description" v="컨템퍼쳐리 계절식재료를 이용한 트렌드한 음식과 분위기를 제공" /><tag k="addr:street" v="이태원로55가길" /><tag k="addr:housenumber" v="13" /><tag k="level" v="1" /><tag k="addr:housename" v="스카이빌" /><tag k="source" v="공공데이터포털" /></node><node id="-200076" action="modify" visible="true" lat="37.53489987" lon="126.9917361"><tag k="amenity" v="restaurant" /><tag k="cuisine" v="czech " /><tag k="name" v="펍앤그릴 프라하" /><tag k="phone" v="+82 2 796 2181" /><tag k="description" v="체코스타일의 슈니첼과 직접 수입한 체코 생맥주를 즐길 수 있는 곳" /><tag k="addr:street" v="이태원로19길" /><tag k="addr:housenumber" v="9" /><tag k="level" v="1" /><tag k="source" v="공공데이터포털" /></node><node id="-200077" action="modify" visible="true" lat="37.53371778" lon="126.9921571"><tag k="amenity" v="restaurant" /><tag k="cuisine" v="italian" /><tag k="name" v="만조네" /><tag k="phone" v="+82 2 6095 3757" /><tag k="description" v="이탈리아 가정식 레스토랑입니다" /><tag k="addr:street" v="이태원로20길" /><tag k="addr:housenumber" v="13" /><tag k="level" v="-1" /><tag k="name:en" v="Mangione" /><tag k="name:ko" v="만조네" /><tag k="source" v="공공데이터포털" /></node><node id="-200078" action="modify" visible="true" lat="37.53403849" lon="126.9915008"><tag k="amenity" v="restaurant" /><tag k="cuisine" v="american" /><tag k="name" v="길티플레져" /><tag k="phone" v="+82 2 794 4332" /><tag k="description" v="Traditional American Classic Style" /><tag k="addr:street" v="이태원로20길" /><tag k="addr:housenumber" v="2-10" /><tag k="level" v="1" /><tag k="name:en" v="Guilty Pleasure" /><tag k="name:ko" v="길티플레져" /><tag k="source" v="공공데이터포털" /></node><node id="-200079" action="modify" visible="true" lat="37.53393038" lon="126.9915235"><tag k="amenity" v="restaurant" /><tag k="cuisine" v="chinese" /><tag k="name" v="시옹" /><tag k="phone" v="+82 2 794 4332" /><tag k="description" v="맛있는 중국요리와 술이있는 집" /><tag k="addr:street" v="이태원로20길" /><tag k="addr:housenumber" v="2-12" /><tag k="level" v="2" /><tag k="source" v="공공데이터포털" /></node><node id="-200080" action="modify" visible="true" lat="37.5332817" lon="126.9922431"><tag k="amenity" v="restaurant" /><tag k="cuisine" v="japanese" /><tag k="name" v="스시원" /><tag k="phone" v="+82 2 798 8588" /><tag k="description" v="이자카야" /><tag k="addr:street" v="이태원로20길" /><tag k="addr:housenumber" v="24" /><tag k="level" v="1" /><tag k="name:en" v="Sushi one" /><tag k="name:ko" v="스시원" /><tag k="source" v="공공데이터포털" /></node><node id="-200081" action="modify" visible="true" lat="37.53374652" lon="127.0091825"><tag k="amenity" v="restaurant" /><tag k="cuisine" v="british" /><tag k="name" v="더블린나나스트리트" /><tag k="phone" v="+82 2 749 9553" /><tag k="description" v="생 대구를 사용해서 신선한 음식점, 버거도 한우를 사용" /><tag k="addr:street" v="독서당로20길" /><tag k="addr:housenumber" v="5" /><tag k="level" v="1" /><tag k="source" v="공공데이터포털" /></node><node id="-200082" action="modify" visible="true" lat="37.53359876" lon="127.0091463"><tag k="amenity" v="restaurant" /><tag k="cuisine" v="french" /><tag k="name" v="도르프" /><tag k="phone" v="+82 2 797 7870" /><tag k="description" v="프랑스 가정식 요리를 맛볼 수 있는 음식점" /><tag k="addr:street" v="독서당로20길" /><tag k="addr:housenumber" v="9" /><tag k="level" v="1" /><tag k="source" v="공공데이터포털" /></node><node id="-200083" action="modify" visible="true" lat="37.53695027" lon="127.0115182"><tag k="amenity" v="restaurant" /><tag k="cuisine" v="international" /><tag k="name" v="아벡누" /><tag k="phone" v="+82 2 749 7303" /><tag k="description" v="유러피안 키친" /><tag k="addr:street" v="독서당로29길" /><tag k="addr:housenumber" v="5-6" /><tag k="level" v="2" /><tag k="source" v="공공데이터포털" /></node><node id="-200084" action="modify" visible="true" lat="37.53695027" lon="127.0115182"><tag k="amenity" v="restaurant" /><tag k="cuisine" v="italian" /><tag k="name" v="스티키팟한남점" /><tag k="phone" v="+82 2 795 6255" /><tag k="description" v="이색 치킨(새롭게 선보이는 이색스타일 치킨, 부띠크 치킨과 펍의 조화)" /><tag k="addr:street" v="독서당로29길" /><tag k="addr:housenumber" v="5-6" /><tag k="level" v="2" /><tag k="source" v="공공데이터포털" /></node><node id="-200085" action="modify" visible="true" lat="37.53477753" lon="126.9952978"><tag k="amenity" v="restaurant" /><tag k="cuisine" v="turkish" /><tag k="name" v="미스터케밥 본점" /><tag k="phone" v="+82 70 7758 1997" /><tag k="description" v="다양한 터키 케밥과 할랄 음식의 대표적 음식점" /><tag k="addr:street" v="이태원로" /><tag k="addr:housenumber" v="191" /><tag k="level" v="1; 2" /><tag k="source" v="공공데이터포털" /></node><node id="-200086" action="modify" visible="true" lat="37.53395223" lon="126.995764"><tag k="amenity" v="restaurant" /><tag k="cuisine" v="turkish" /><tag k="name" v="미스터케밥 2호점" /><tag k="phone" v="+82 70 7532 1997" /><tag k="description" v="다양한 터키 케밥과 할랄 음식의 대표적 음식점" /><tag k="addr:street" v="우사단로" /><tag k="addr:housenumber" v="42" /><tag k="source" v="공공데이터포털" /></node><node id="-200087" action="modify" visible="true" lat="37.53402424" lon="126.9942253"><tag k="amenity" v="restaurant" /><tag k="cuisine" v="turkish" /><tag k="name" v="술탄베이케밥" /><tag k="phone" v="+82 2 749 3890" /><tag k="description" v="다양한 터키 케밥과 할랄 음식의 대표적 음식점" /><tag k="addr:street" v="보광로" /><tag k="addr:housenumber" v="126" /><tag k="source" v="공공데이터포털" /></node><node id="-200088" action="modify" visible="true" lat="37.53533596" lon="126.9918944"><tag k="amenity" v="restaurant" /><tag k="cuisine" v="american" /><tag k="name" v="디트로이트" /><tag k="phone" v="+82 2 792 1231" /><tag k="description" v="담백한 시카고 피자와 파스타" /><tag k="addr:street" v="이태원로19길" /><tag k="addr:housenumber" v="20" /><tag k="level" v="1" /><tag k="source" v="공공데이터포털" /></node><node id="-200089" action="modify" visible="true" lat="37.53359879" lon="127.0086982"><tag k="amenity" v="restaurant" /><tag k="cuisine" v="italian" /><tag k="name" v="오마일" /><tag k="phone" v="+82 2 796 0258" /><tag k="addr:street" v="독서당로" /><tag k="addr:housenumber" v="70" /><tag k="source" v="공공데이터포털" /></node><node id="-200090" action="modify" visible="true" lat="37.53419708" lon="127.008386"><tag k="amenity" v="restaurant" /><tag k="cuisine" v="chinese" /><tag k="name" v="웨스턴차이나" /><tag k="phone" v="+82 2 795 6751" /><tag k="addr:street" v="독서당로" /><tag k="addr:housenumber" v="73" /><tag k="addr:housename" v="성아맨숀" /><tag k="source" v="공공데이터포털" /></node><node id="-200091" action="modify" visible="true" lat="37.53419708" lon="127.008386"><tag k="amenity" v="restaurant" /><tag k="cuisine" v="vietnamese" /><tag k="name" v="굿모닝베트남" /><tag k="phone" v="+82 2 797 3933" /><tag k="description" v="수입한는 건면과 달리 저희업소는 생면을 씁니다" /><tag k="addr:street" v="독서당로" /><tag k="addr:housenumber" v="73" /><tag k="level" v="1" /><tag k="addr:housename" v="성아맨숀" /><tag k="source" v="공공데이터포털" /></node><node id="-200092" action="modify" visible="true" lat="37.53392312" lon="127.0090739"><tag k="amenity" v="restaurant" /><tag k="cuisine" v="japanese" /><tag k="name" v="함바그또카레야" /><tag k="phone" v="+82 2 793 8582" /><tag k="addr:street" v="독서당로" /><tag k="addr:housenumber" v="76" /><tag k="source" v="공공데이터포털" /></node><node id="-200093" action="modify" visible="true" lat="37.53401319" lon="127.0094676"><tag k="amenity" v="restaurant" /><tag k="cuisine" v="italian" /><tag k="name" v="퀸스파크 한남점" /><tag k="phone" v="+82 2 796 9580" /><tag k="addr:street" v="독서당로" /><tag k="addr:housenumber" v="80" /><tag k="level" v="1; 2" /><tag k="source" v="공공데이터포털" /></node><node id="-200094" action="modify" visible="true" lat="37.53449611" lon="127.0096849"><tag k="amenity" v="restaurant" /><tag k="cuisine" v="indian" /><tag k="name" v="챠크라" /><tag k="phone" v="+82 2 796 2255" /><tag k="addr:street" v="독서당로" /><tag k="addr:housenumber" v="83" /><tag k="source" v="공공데이터포털" /></node><node id="-200095" action="modify" visible="true" lat="37.5338367" lon="127.0081461"><tag k="amenity" v="restaurant" /><tag k="cuisine" v="italian" /><tag k="name" v="아날로그키친" /><tag k="phone" v="+82 2 749 2927" /><tag k="addr:street" v="독서당로" /><tag k="addr:housenumber" v="67" /><tag k="source" v="공공데이터포털" /></node><node id="-200096" action="modify" visible="true" lat="37.5338367" lon="127.0081461"><tag k="amenity" v="restaurant" /><tag k="cuisine" v="american" /><tag k="name" v="바나나그릴" /><tag k="phone" v="+82 2 792 3088" /><tag k="description" v="아메리칸 스타일의 수제버거집입니다" /><tag k="addr:street" v="독서당로" /><tag k="addr:housenumber" v="67" /><tag k="source" v="공공데이터포털" /></node><node id="-200097" action="modify" visible="true" lat="37.5338367" lon="127.0081461"><tag k="amenity" v="restaurant" /><tag k="cuisine" v="vietnamese" /><tag k="name" v="사이공그릴" /><tag k="phone" v="+82 2 749 7783" /><tag k="addr:street" v="독서당로" /><tag k="addr:housenumber" v="67" /><tag k="level" v="2" /><tag k="source" v="공공데이터포털" /></node><node id="-200098" action="modify" visible="true" lat="37.53484249" lon="127.0008599"><tag k="amenity" v="restaurant" /><tag k="cuisine" v="vietnamese" /><tag k="name" v="타마린드" /><tag k="phone" v="+82 2 794 8780" /><tag k="description" v="월남쌈과 베트남 파스타가 맛있는 집" /><tag k="addr:street" v="대사관로5길" /><tag k="addr:housenumber" v="12" /><tag k="level" v="1" /><tag k="source" v="공공데이터포털" /></node><node id="-200099" action="modify" visible="true" lat="37.53544436" lon="127.0003937"><tag k="amenity" v="restaurant" /><tag k="cuisine" v="american" /><tag k="name" v="샐러드셀러" /><tag k="phone" v="+82 2 794 0282" /><tag k="description" v="우리는 신선한 재료로 직접 샐러드를 만들고 샐러드 드레싱과 샌드위치 스프레드, 리코타 치즈 등을 직접 만들어 사용하고 있습니다" /><tag k="addr:street" v="대사관로5길" /><tag k="addr:housenumber" v="28" /><tag k="level" v="2" /><tag k="source" v="공공데이터포털" /></node><node id="-200100" action="modify" visible="true" lat="37.53641682" lon="127.0121563"><tag k="amenity" v="restaurant" /><tag k="cuisine" v="japanese" /><tag k="name" v="42사이" /><tag k="phone" v="+82 2 790 1142" /><tag k="description" v="신선한 제철 식자제를 사용하는 음식점" /><tag k="addr:street" v="독서당로" /><tag k="addr:housenumber" v="116" /><tag k="level" v="-1" /><tag k="source" v="공공데이터포털" /></node><node id="-200101" action="modify" visible="true" lat="37.53159508" lon="127.0070009"><tag k="amenity" v="restaurant" /><tag k="cuisine" v="japanese" /><tag k="name" v="야스라기" /><tag k="phone" v="+82 2 749 5675" /><tag k="description" v="오사카 요리의 맛집" /><tag k="addr:street" v="독서당로" /><tag k="addr:housenumber" v="39" /><tag k="level" v="1" /><tag k="addr:housename" v="신성미소시티" /><tag k="source" v="공공데이터포털" /></node><node id="-200102" action="modify" visible="true" lat="37.53012828" lon="127.0065211"><tag k="amenity" v="restaurant" /><tag k="cuisine" v="japanese" /><tag k="name" v="81번옥" /><tag k="phone" v="+82 70 8119 6770" /><tag k="description" v="소유,  미소가 유명한 맛집(점보라멘)" /><tag k="addr:street" v="대사관로34길" /><tag k="addr:housenumber" v="74" /><tag k="level" v="1" /><tag k="source" v="공공데이터포털" /></node><node id="-200103" action="modify" visible="true" lat="37.53034453" lon="127.006322"><tag k="amenity" v="restaurant" /><tag k="cuisine" v="chinese" /><tag k="name" v="래리성" /><tag k="phone" v="+82 2 795 1378" /><tag k="description" v="오룡해삼과 양장피가 맛있는 집" /><tag k="addr:street" v="대사관로34길" /><tag k="addr:housenumber" v="66" /><tag k="level" v="2" /><tag k="source" v="공공데이터포털" /></node><node id="-200104" action="modify" visible="true" lat="37.53477387" lon="127.0058246"><tag k="amenity" v="restaurant" /><tag k="cuisine" v="peruvian" /><tag k="name" v="티그레" /><tag k="phone" v="+82 2 790 4511" /><tag k="description" v="페루음식입니다" /><tag k="addr:street" v="대사관로31길" /><tag k="addr:housenumber" v="31" /><tag k="level" v="1" /><tag k="source" v="공공데이터포털" /></node><node id="-200105" action="modify" visible="true" lat="37.53439168" lon="127.0085444"><tag k="amenity" v="restaurant" /><tag k="cuisine" v="american" /><tag k="name" v="세컨드키친 한남" /><tag k="phone" v="+82 2 794 7435" /><tag k="description" v="다양한 국적과 연령이 찾는 뉴아메리칸 다이닝 레스토랑, 매년 1만병정도의 와인을 판매 할만큼 음식과 와인의 페어링으로 유명한 공간이다. 와인과 페어링하기 좋은 다이닝 메뉴는 물론 브런치 메뉴까지 선택의 폭이 넓다. 바닥에서 천장까지 11미터에 달하는 공간감과 시간에 따라 다르게 조명과 음악의 변화로 분위기를 다르게 연출하는 내부신도 독특하다." /><tag k="addr:street" v="한남대로18길" /><tag k="addr:housenumber" v="22" /><tag k="level" v="1; 2" /><tag k="source" v="공공데이터포털" /></node><node id="-200106" action="modify" visible="true" lat="37.53866932" lon="126.9878615"><tag k="amenity" v="restaurant" /><tag k="cuisine" v="japanese" /><tag k="name" v="미카" /><tag k="phone" v="+82 2 793 7982" /><tag k="description" v="전통일본요리와 현대적인 감각의 퓨전요리" /><tag k="addr:street" v="회나무로" /><tag k="addr:housenumber" v="9" /><tag k="level" v="1" /><tag k="source" v="공공데이터포털" /></node><node id="-200107" action="modify" visible="true" lat="37.53866932" lon="126.9878615"><tag k="amenity" v="restaurant" /><tag k="cuisine" v="japanese" /><tag k="name" v="오지상함박스테이크" /><tag k="phone" v="+82 70 4407 0712" /><tag k="description" v="2011년 오픈하여 매일 매장에서 직접 소고기를 반죽하여 제공하는 함박스테이크 전문점입니다" /><tag k="addr:street" v="회나무로" /><tag k="addr:housenumber" v="9" /><tag k="level" v="1" /><tag k="source" v="공공데이터포털" /></node><node id="-200108" action="modify" visible="true" lat="37.53958167" lon="126.9953926"><tag k="amenity" v="restaurant" /><tag k="cuisine" v="pakistani" /><tag k="name" v="알사바페르시안퀸" /><tag k="phone" v="+82 2 792 1488" /><tag k="description" v="점심메뉴(3~5시) 샐러드, 밥(or로티), 커리 제공, 1979년부터 용산에서 인도, 파키스탄 정통커리 운영" /><tag k="addr:street" v="회나무로44길" /><tag k="addr:housenumber" v="40" /><tag k="level" v="2" /><tag k="source" v="공공데이터포털" /></node><node id="-200109" action="modify" visible="true" lat="37.53858638" lon="126.9874044"><tag k="amenity" v="restaurant" /><tag k="cuisine" v="international" /><tag k="name" v="포르게따" /><tag k="phone" v="+82 2 797 8808" /><tag k="addr:street" v="회나무로" /><tag k="addr:housenumber" v="3" /><tag k="level" v="1" /><tag k="source" v="공공데이터포털" /></node><node id="-200110" action="modify" visible="true" lat="37.53858638" lon="126.9874044"><tag k="amenity" v="restaurant" /><tag k="cuisine" v="japanese" /><tag k="name" v="이치더힐" /><tag k="phone" v="+82 2 794 2664" /><tag k="description" v="편안한 좌석과 좋은 서비스!" /><tag k="addr:street" v="회나무로" /><tag k="addr:housenumber" v="3" /><tag k="level" v="2" /><tag k="source" v="공공데이터포털" /></node><node id="-200111" action="modify" visible="true" lat="37.53858638" lon="126.9874044"><tag k="amenity" v="restaurant" /><tag k="cuisine" v="international" /><tag k="name" v="피어39" /><tag k="phone" v="+82 2 749 0339" /><tag k="addr:street" v="회나무로" /><tag k="addr:housenumber" v="3" /><tag k="level" v="1" /><tag k="source" v="공공데이터포털" /></node><node id="-200112" action="modify" visible="true" lat="37.53461864" lon="126.9901929"><tag k="amenity" v="restaurant" /><tag k="cuisine" v="mexican" /><tag k="name" v="(주)어번그룹 바토스 이태원점" /><tag k="phone" v="+82 2 797 8226" /><tag k="description" v="뉴욕타임즈, CNN, 월드스트리트저널에 최고의 레스토랑 소개되고 있습니다 서울 방문시 꼭 들러야하는 레스토랑입니다. 단순한 퓨전이 아니라 자연스럽게 접해온 코리안 멕시칸 서울의 독창적인 음식입니다." /><tag k="addr:street" v="이태원로15길" /><tag k="addr:housenumber" v="1" /><tag k="source" v="공공데이터포털" /></node><node id="-200113" action="modify" visible="true" lat="37.53499719" lon="126.9919805"><tag k="amenity" v="restaurant" /><tag k="cuisine" v="italian" /><tag k="name" v="고블앤고" /><tag k="phone" v="+82 2 790 5390" /><tag k="addr:street" v="이태원로19길" /><tag k="addr:housenumber" v="12" /><tag k="source" v="공공데이터포털" /></node><node id="-200114" action="modify" visible="true" lat="37.53526027" lon="126.9917315"><tag k="amenity" v="restaurant" /><tag k="cuisine" v="serbian" /><tag k="name" v="벨그레이드" /><tag k="phone" v="+82 2 796 6933" /><tag k="addr:street" v="이태원로19길" /><tag k="addr:housenumber" v="19" /><tag k="name:en" v="Belgrade" /><tag k="name:ko" v="벨그레이드" /><tag k="source" v="공공데이터포털" /></node><node id="-200115" action="modify" visible="true" lat="37.54255503" lon="127.0024758"><tag k="amenity" v="restaurant" /><tag k="cuisine" v="italian; japanese" /><tag k="name" v="스탠다드키친" /><tag k="phone" v="+82 2 795 3375" /><tag k="description" v="이탈리아&amp;일본 가정식" /><tag k="addr:street" v="한남대로" /><tag k="addr:housenumber" v="164" /><tag k="level" v="1" /><tag k="source" v="공공데이터포털" /></node><node id="-200116" action="modify" visible="true" lat="37.53446021" lon="127.0078747"><tag k="amenity" v="restaurant" /><tag k="cuisine" v="italian" /><tag k="name" v="두에꼬제" /><tag k="phone" v="+82 2 795 1405" /><tag k="addr:street" v="한남대로" /><tag k="addr:housenumber" v="60" /><tag k="level" v="1" /><tag k="addr:housename" v="금호리첸시아" /><tag k="source" v="공공데이터포털" /></node><node id="-200117" action="modify" visible="true" lat="37.53454304" lon="127.0086531"><tag k="amenity" v="restaurant" /><tag k="cuisine" v="mexican" /><tag k="name" v="도스타코스" /><tag k="phone" v="+82 2 797 8525" /><tag k="addr:street" v="한남대로18길" /><tag k="addr:housenumber" v="26" /><tag k="level" v="-1" /><tag k="source" v="공공데이터포털" /></node><node id="-200118" action="modify" visible="true" lat="37.53454304" lon="127.0086531"><tag k="amenity" v="restaurant" /><tag k="cuisine" v="italian" /><tag k="name" v="갈로" /><tag k="phone" v="+82 2 793 8885" /><tag k="addr:street" v="한남대로18길" /><tag k="addr:housenumber" v="26" /><tag k="name:en" v="Gallo" /><tag k="name:ko" v="갈로" /><tag k="source" v="공공데이터포털" /></node><node id="-200119" action="modify" visible="true" lat="37.53538997" lon="127.0088342"><tag k="amenity" v="restaurant" /><tag k="cuisine" v="italian" /><tag k="name" v="도마622" /><tag k="phone" v="+82 2 793 9288" /><tag k="description" v="한남동 핫플레이스, 이탈리아 정통레스토랑 도마622" /><tag k="addr:street" v="한남대로20길" /><tag k="addr:housenumber" v="21-13" /><tag k="level" v="-1; 1; 2" /><tag k="source" v="공공데이터포털" /></node><node id="-200120" action="modify" visible="true" lat="37.53484577" lon="127.0087979"><tag k="amenity" v="restaurant" /><tag k="cuisine" v="japanese" /><tag k="name" v="마인드" /><tag k="phone" v="+82 2 797 9216" /><tag k="description" v="한국을 대표하는 맛집평가서 BLUE RIBBORN SURVEY에 등재된 식당입니다. 오뎅바가 유명하며 영어 메뉴판이 준비되어 있고 맛과 분위기가 검증된 식당입니다. BLUE RIBBORN SURVEY는 대한민국 대표 식당을 소개하는 곳입니다." /><tag k="addr:street" v="한남대로20길" /><tag k="addr:housenumber" v="36" /><tag k="level" v="1" /><tag k="source" v="공공데이터포털" /></node><node id="-200121" action="modify" visible="true" lat="37.53494296" lon="127.0102326"><tag k="amenity" v="restaurant" /><tag k="cuisine" v="italian" /><tag k="name" v="리스퀘어" /><tag k="phone" v="+82 2 797 7874" /><tag k="description" v="국내상 최상급 숙성한우 암소 스테이크" /><tag k="addr:street" v="한남대로20길" /><tag k="addr:housenumber" v="61" /><tag k="level" v="-1" /><tag k="source" v="공공데이터포털" /></node><node id="-200122" action="modify" visible="true" lat="37.53383682" lon="127.0061639"><tag k="amenity" v="restaurant" /><tag k="cuisine" v="international" /><tag k="name" v="그린바스켓" /><tag k="phone" v="+82 2 749 5055" /><tag k="description" v="고객들이 골라먹는 샐러드(자기만의 샐러드)" /><tag k="addr:street" v="한남대로21길" /><tag k="addr:housenumber" v="24" /><tag k="level" v="-1" /><tag k="source" v="공공데이터포털" /></node><node id="-200123" action="modify" visible="true" lat="37.53810409" lon="127.0025662"><tag k="amenity" v="restaurant" /><tag k="cuisine" v="japanese" /><tag k="name" v="코쿠라" /><tag k="phone" v="+82 2 6013 8012" /><tag k="description" v="한강진역에서 가까운 한남동 일본일식주점, 식사처입니다" /><tag k="addr:street" v="한남대로27가길" /><tag k="addr:housenumber" v="32" /><tag k="level" v="1" /><tag k="source" v="공공데이터포털" /></node><node id="-200124" action="modify" visible="true" lat="37.53846089" lon="127.0020367"><tag k="amenity" v="restaurant" /><tag k="cuisine" v="italian" /><tag k="name" v="엘본더테이블 이태원점" /><tag k="phone" v="+82 2 790 0700" /><tag k="addr:street" v="이태원로" /><tag k="addr:housenumber" v="270" /><tag k="source" v="공공데이터포털" /></node><node id="-200125" action="modify" visible="true" lat="37.53846089" lon="127.0020367"><tag k="amenity" v="restaurant" /><tag k="cuisine" v="chinese" /><tag k="name" v="챠이(Chai)797이태원점" /><tag k="phone" v="+82 2 749 7972" /><tag k="addr:street" v="이태원로" /><tag k="addr:housenumber" v="270" /><tag k="source" v="공공데이터포털" /></node><node id="-200126" action="modify" visible="true" lat="37.53871317" lon="127.0020774"><tag k="amenity" v="restaurant" /><tag k="cuisine" v="italian" /><tag k="name" v="베라나폴리" /><tag k="phone" v="+82 2 796 7223" /><tag k="addr:street" v="이태원로" /><tag k="addr:housenumber" v="272" /><tag k="source" v="공공데이터포털" /></node><node id="-200127" action="modify" visible="true" lat="37.53871317" lon="127.0020774"><tag k="amenity" v="restaurant" /><tag k="cuisine" v="italian" /><tag k="name" v="패션5라뜰리에" /><tag k="phone" v="+82 2 2071 9507" /><tag k="addr:street" v="이태원로" /><tag k="addr:housenumber" v="272" /><tag k="source" v="공공데이터포털" /></node><node id="-200128" action="modify" visible="true" lat="37.53467985" lon="126.9895231"><tag k="amenity" v="restaurant" /><tag k="cuisine" v="american" /><tag k="name" v="아피아" /><tag k="phone" v="+82 2 6497 1100" /><tag k="addr:street" v="이태원로" /><tag k="addr:housenumber" v="143-10" /><tag k="source" v="공공데이터포털" /></node><node id="-200129" action="modify" visible="true" lat="37.53458978" lon="126.9899077"><tag k="amenity" v="restaurant" /><tag k="cuisine" v="italian" /><tag k="name" v="스매싱펍" /><tag k="phone" v="+82 2 797 2231" /><tag k="addr:street" v="이태원로" /><tag k="addr:housenumber" v="145" /><tag k="source" v="공공데이터포털" /></node><node id="-200130" action="modify" visible="true" lat="37.53448173" lon="126.9907224"><tag k="amenity" v="restaurant" /><tag k="cuisine" v="thai" /><tag k="name" v="왕타이" /><tag k="phone" v="+82 2 749 2746~7" /><tag k="addr:street" v="이태원로" /><tag k="addr:housenumber" v="151" /><tag k="source" v="공공데이터포털" /></node><node id="-200131" action="modify" visible="true" lat="37.53459708" lon="126.9909894"><tag k="amenity" v="restaurant" /><tag k="cuisine" v="indian" /><tag k="name" v="아그라" /><tag k="phone" v="+82 70 8230 4230" /><tag k="addr:street" v="이태원로" /><tag k="addr:housenumber" v="153" /><tag k="name:en" v="Agra" /><tag k="name:ko" v="아그라" /><tag k="source" v="공공데이터포털" /></node><node id="-200132" action="modify" visible="true" lat="37.53459708" lon="126.9909894"><tag k="amenity" v="restaurant" /><tag k="cuisine" v="american" /><tag k="name" v="(주)오리지널팬케이크하우스(이태원점)" /><tag k="phone" v="+82 2 795 7481" /><tag k="addr:street" v="이태원로" /><tag k="addr:housenumber" v="153" /><tag k="source" v="공공데이터포털" /></node><node id="-200133" action="modify" visible="true" lat="37.53453947" lon="126.9918131"><tag k="amenity" v="restaurant" /><tag k="cuisine" v="brazilian" /><tag k="name" v="따봉브라질" /><tag k="phone" v="+82 2 797 3363" /><tag k="description" v="7가지 고기와 파인애플을 무제한으로 즐길 수 있습니다. 고기는 항상 옳아요." /><tag k="addr:street" v="이태원로" /><tag k="addr:housenumber" v="161" /><tag k="name:en" v="TABOMBRAZIL" /><tag k="name:ko" v="따봉브라질" /><tag k="source" v="공공데이터포털" /></node><node id="-200134" action="modify" visible="true" lat="37.5348135" lon="126.9937364"><tag k="amenity" v="restaurant" /><tag k="cuisine" v="american" /><tag k="name" v="에이치엘씨" /><tag k="phone" v="+82 2 793 0802" /><tag k="addr:street" v="이태원로" /><tag k="addr:housenumber" v="179" /><tag k="name:ko" v="에이치엘씨" /><tag k="source" v="공공데이터포털" /></node><node id="-200135" action="modify" visible="true" lat="37.53472705" lon="126.9947819"><tag k="amenity" v="restaurant" /><tag k="cuisine" v="american" /><tag k="name" v="라일리스탭하우스" /><tag k="phone" v="+82 2 792 6590" /><tag k="addr:street" v="이태원로" /><tag k="addr:housenumber" v="187" /><tag k="name:ko" v="라일리스탭하우스" /><tag k="source" v="공공데이터포털" /></node><node id="-200136" action="modify" visible="true" lat="37.53482082" lon="126.9966193"><tag k="amenity" v="restaurant" /><tag k="cuisine" v="turkish" /><tag k="name" v="알리바바" /><tag k="phone" v="+82 2 790 7754" /><tag k="addr:street" v="이태원로" /><tag k="addr:housenumber" v="203" /><tag k="source" v="공공데이터포털" /></node><node id="-200137" action="modify" visible="true" lat="37.53498662" lon="126.9972755"><tag k="amenity" v="restaurant" /><tag k="cuisine" v="mexican" /><tag k="name" v="온더보더 이태원점" /><tag k="phone" v="+82 2 792 0682" /><tag k="description" v="신선한 재료와 홈메이드 방식을 추구하는 정통 멕시칸 레스토랑 온더보더(ON THE BORDER)입니다.  서울 속 작은 멕시코로 여러분을 초대합니다" /><tag k="addr:street" v="이태원로" /><tag k="addr:housenumber" v="211" /><tag k="source" v="공공데이터포털" /></node><node id="-200138" action="modify" visible="true" lat="37.53547318" lon="126.9985337"><tag k="amenity" v="restaurant" /><tag k="cuisine" v="thai" /><tag k="name" v="(주)타이가든" /><tag k="phone" v="+82 2 792 8836" /><tag k="description" v="20년 전통의 태국전문 음식점, 태국보다 더 태국적인 맛을 자랑하는 음식점 " /><tag k="addr:street" v="이태원로" /><tag k="addr:housenumber" v="223" /><tag k="source" v="공공데이터포털" /></node><node id="-200139" action="modify" visible="true" lat="37.53563537" lon="126.998855"><tag k="amenity" v="restaurant" /><tag k="cuisine" v="vietnamese" /><tag k="name" v="포호아이태원점" /><tag k="phone" v="+82 2 792 8866" /><tag k="addr:street" v="이태원로" /><tag k="addr:housenumber" v="227" /><tag k="source" v="공공데이터포털" /></node><node id="-200140" action="modify" visible="true" lat="37.53597055" lon="126.9999728"><tag k="amenity" v="restaurant" /><tag k="cuisine" v="thai" /><tag k="name" v="어메이징타이" /><tag k="phone" v="+82 2 796 7377" /><tag k="addr:street" v="이태원로" /><tag k="addr:housenumber" v="238" /><tag k="source" v="공공데이터포털" /></node><node id="-200141" action="modify" visible="true" lat="37.53625887" lon="127.000344"><tag k="amenity" v="restaurant" /><tag k="cuisine" v="american" /><tag k="name" v="도미니크" /><tag k="phone" v="+82 2 790 7588" /><tag k="addr:street" v="이태원로" /><tag k="addr:housenumber" v="242" /><tag k="name:en" v="dominic" /><tag k="name:ko" v="도미니크" /><tag k="source" v="공공데이터포털" /></node><node id="-200142" action="modify" visible="true" lat="37.5369184" lon="127.000258"><tag k="amenity" v="restaurant" /><tag k="cuisine" v="italian" /><tag k="name" v="트레비아" /><tag k="phone" v="+82 2 795 6004" /><tag k="addr:street" v="이태원로" /><tag k="addr:housenumber" v="247" /><tag k="name:en" v="Trevia" /><tag k="name:ko" v="트레비아" /><tag k="source" v="공공데이터포털" /></node><node id="-200143" action="modify" visible="true" lat="37.53722834" lon="127.0011767"><tag k="amenity" v="restaurant" /><tag k="cuisine" v="italian" /><tag k="name" v="시화담그릴" /><tag k="phone" v="+82 2 793 7272" /><tag k="description" v="모던 한식과 와인의 만남" /><tag k="addr:street" v="이태원로" /><tag k="addr:housenumber" v="254" /><tag k="source" v="공공데이터포털" /></node><node id="-200144" action="modify" visible="true" lat="37.53750584" lon="127.0013713"><tag k="amenity" v="restaurant" /><tag k="cuisine" v="japanese" /><tag k="name" v="라멘81" /><tag k="phone" v="+82 2 749 6848" /><tag k="addr:street" v="이태원로" /><tag k="addr:housenumber" v="258" /><tag k="source" v="공공데이터포털" /></node><node id="-200145" action="modify" visible="true" lat="37.53849695" lon="127.0011315"><tag k="amenity" v="restaurant" /><tag k="cuisine" v="italian" /><tag k="name" v="핏제리아디부자 2호점" /><tag k="phone" v="+82 2 795 9474" /><tag k="description" v="PIZZERIA D’BUZZA(부자피자)는 최상급에 식재료를 사용하여 만드는 이탈리아 정통방식의 레스토랑입니다. 정통 화덕피자를 누구나 캐쥬얼하고 편하게 즐길 수 있도록 만들었으며 보다 합리적인 가격에 제공해드리고자 합니다." /><tag k="addr:street" v="이태원로" /><tag k="addr:housenumber" v="267" /><tag k="level" v="3" /><tag k="addr:housename" v="르베르지" /><tag k="source" v="공공데이터포털" /></node><node id="-200146" action="modify" visible="true" lat="37.53455366" lon="126.9889393"><tag k="amenity" v="restaurant" /><tag k="cuisine" v="american" /><tag k="name" v="길버트버거앤프라이즈이태원" /><tag k="phone" v="+82 2 792 7676" /><tag k="description" v="미국 본토 버거를 즐길 수 있는 곳" /><tag k="addr:street" v="녹사평대로40길" /><tag k="addr:housenumber" v="55-2" /><tag k="source" v="공공데이터포털" /></node><node id="-200147" action="modify" visible="true" lat="37.53692502" lon="126.9882329"><tag k="amenity" v="restaurant" /><tag k="cuisine" v="chinese" /><tag k="name" v="차찬텡" /><tag k="phone" v="+82 70 5043 4243" /><tag k="description" v="(차)와 (찬)식사를 함께 즐기는 공간(텡), 홍콩식 누들카페" /><tag k="addr:street" v="녹사평대로46가길" /><tag k="addr:housenumber" v="8" /><tag k="level" v="-1" /><tag k="source" v="공공데이터포털" /></node><node id="-200148" action="modify" visible="true" lat="37.53726011" lon="126.9874137"><tag k="amenity" v="restaurant" /><tag k="cuisine" v="american" /><tag k="name" v="오베이" /><tag k="phone" v="+82 2 794 5239" /><tag k="description" v="LA푸드트럭" /><tag k="addr:street" v="녹사평대로46길" /><tag k="addr:housenumber" v="10" /><tag k="level" v="2" /><tag k="name:en" v="5Bey" /><tag k="name:ko" v="오베이" /><tag k="source" v="공공데이터포털" /></node><node id="-200149" action="modify" visible="true" lat="37.53726011" lon="126.9874137"><tag k="amenity" v="restaurant" /><tag k="cuisine" v="australian" /><tag k="name" v="그데이" /><tag k="phone" v="+82 2 749 0085" /><tag k="description" v="Austrain style의 샌드위치 카페입니다" /><tag k="addr:street" v="녹사평대로46길" /><tag k="addr:housenumber" v="10" /><tag k="level" v="1" /><tag k="source" v="공공데이터포털" /></node><node id="-200150" action="modify" visible="true" lat="37.53713401" lon="126.9877893"><tag k="amenity" v="restaurant" /><tag k="cuisine" v="italian" /><tag k="name" v="빌리스테이블" /><tag k="phone" v="+82 2 790 3312" /><tag k="description" v="경리단길에서 파스타 제일 잘 하는 집" /><tag k="addr:street" v="녹사평대로46길" /><tag k="addr:housenumber" v="16-4" /><tag k="level" v="1" /><tag k="source" v="공공데이터포털" /></node><node id="-200151" action="modify" visible="true" lat="37.5391198" lon="126.9876668"><tag k="amenity" v="restaurant" /><tag k="cuisine" v="thai" /><tag k="name" v="까올리포차나" /><tag k="phone" v="+82 70 8872 1995" /><tag k="description" v="이태원 태국 음식 전문점" /><tag k="addr:street" v="녹사평대로52길" /><tag k="addr:housenumber" v="7" /><tag k="level" v="1" /><tag k="source" v="공공데이터포털" /></node><node id="-200152" action="modify" visible="true" lat="37.53913786" lon="126.9881013"><tag k="amenity" v="restaurant" /><tag k="cuisine" v="japanese" /><tag k="name" v="맷크로켓" /><tag k="phone" v="+82 2 790 0123" /><tag k="description" v="홈메이드 형식으로 소스,크로켓 모두 수제로 만들어집니다" /><tag k="addr:street" v="녹사평대로54길" /><tag k="addr:housenumber" v="16" /><tag k="level" v="1" /><tag k="source" v="공공데이터포털" /></node><node id="-200153" action="modify" visible="true" lat="37.53920996" lon="126.9883049"><tag k="amenity" v="restaurant" /><tag k="cuisine" v="cuban" /><tag k="name" v="삼이공" /><tag k="phone" v="+82 2 794 0310" /><tag k="description" v="영화 `아메리칸 쉐프`에 등장한 쿠바식 샌드위치점" /><tag k="addr:street" v="녹사평대로54길" /><tag k="addr:housenumber" v="17" /><tag k="level" v="1" /><tag k="name:en" v="320" /><tag k="name:ko" v="삼이공" /><tag k="source" v="공공데이터포털" /></node><node id="-200154" action="modify" visible="true" lat="37.53916314" lon="126.9886082"><tag k="amenity" v="restaurant" /><tag k="cuisine" v="greek" /><tag k="name" v="엘그레코스" /><tag k="phone" v="+82 70 8263 8678" /><tag k="description" v="이태원의 그리스 정통 음식적" /><tag k="addr:street" v="녹사평대로54길" /><tag k="addr:housenumber" v="23" /><tag k="level" v="1" /><tag k="source" v="공공데이터포털" /></node><node id="-200155" action="modify" visible="true" lat="37.53421538" lon="126.9983119"><tag k="amenity" v="restaurant" /><tag k="cuisine" v="american" /><tag k="name" v="자매즈" /><tag k="phone" v="+82 2 797 8520" /><tag k="addr:street" v="우사단로14길" /><tag k="addr:housenumber" v="48" /><tag k="name:en" v="JAMEZ" /><tag k="name:ko" v="자매즈" /><tag k="source" v="공공데이터포털" /></node><node id="-200156" action="modify" visible="true" lat="37.53398428" lon="127.0103954"><tag k="amenity" v="restaurant" /><tag k="cuisine" v="italian" /><tag k="name" v="로얄맨션" /><tag k="phone" v="+82 2 792 2655" /><tag k="description" v="한남동 유엔빌리지 내 위치 편안한 공간에서 퓨전 이탈리안을 즐기실 수 있습니다." /><tag k="addr:street" v="유엔빌리지길" /><tag k="addr:housenumber" v="11" /><tag k="level" v="2" /><tag k="addr:housename" v="TWIN VILL" /><tag k="source" v="공공데이터포털" /></node><node id="-200157" action="modify" visible="true" lat="37.53439861" lon="126.9882107"><tag k="amenity" v="restaurant" /><tag k="cuisine" v="american" /><tag k="name" v="지노스 피자" /><tag k="phone" v="+82 2 792 2234" /><tag k="description" v="Gino`s NewYork Pizza" /><tag k="addr:street" v="녹사평대로40길" /><tag k="addr:housenumber" v="46" /><tag k="name:en" v="Gino`s Pizza" /><tag k="name:ko" v="지노스 피자" /><tag k="source" v="공공데이터포털" /></node><node id="-200158" action="modify" visible="true" lat="37.53452117" lon="126.9884731"><tag k="amenity" v="restaurant" /><tag k="cuisine" v="american" /><tag k="name" v="매니멀스모크하우스" /><tag k="phone" v="+82 2 790 6788" /><tag k="description" v="미국식 전총 훈연 바비큐" /><tag k="addr:street" v="녹사평대로40길" /><tag k="addr:housenumber" v="47" /><tag k="level" v="2" /><tag k="source" v="공공데이터포털" /></node><node id="-200159" action="modify" visible="true" lat="37.53439142" lon="126.9883781"><tag k="amenity" v="restaurant" /><tag k="cuisine" v="thai" /><tag k="name" v="(주)부다스벨리" /><tag k="phone" v="+82 2 796 9330" /><tag k="description" v="아름다운 뷰와 분위기를 느낄 수 있는 타이레스토랑" /><tag k="addr:street" v="녹사평대로40길" /><tag k="addr:housenumber" v="48" /><tag k="level" v="1; 2" /><tag k="source" v="공공데이터포털" /></node><node id="-200160" action="modify" visible="true" lat="37.5343554" lon="126.9885727"><tag k="amenity" v="restaurant" /><tag k="cuisine" v="spanish" /><tag k="name" v="따뻬오" /><tag k="phone" v="+82 2 794 2848" /><tag k="description" v="스페니쉬 타파스바" /><tag k="addr:street" v="녹사평대로40길" /><tag k="addr:housenumber" v="52" /><tag k="level" v="1" /><tag k="name:en" v="Tapeo" /><tag k="name:ko" v="따뻬오" /><tag k="source" v="공공데이터포털" /></node><node id="-200161" action="modify" visible="true" lat="37.5343554" lon="126.9885727"><tag k="amenity" v="restaurant" /><tag k="cuisine" v="german" /><tag k="name" v="써스티 몽크 이태원점" /><tag k="phone" v="+82 2 792 6751" /><tag k="description" v="1000년 역사의 독일 정통 바이엔슈테판 맥주" /><tag k="addr:street" v="녹사평대로40길" /><tag k="addr:housenumber" v="52" /><tag k="level" v="1" /><tag k="source" v="공공데이터포털" /></node><node id="-200162" action="modify" visible="true" lat="37.5343554" lon="126.9885727"><tag k="amenity" v="restaurant" /><tag k="cuisine" v="american" /><tag k="name" v="킨덜스" /><tag k="phone" v="+82 2 720 2550" /><tag k="description" v="전통 오리지널 BBQ&amp;Grill 레스토랑" /><tag k="addr:street" v="녹사평대로40길" /><tag k="addr:housenumber" v="52" /><tag k="level" v="-1" /><tag k="source" v="공공데이터포털" /></node><node id="-200163" action="modify" visible="true" lat="37.53308337" lon="126.990718"><tag k="amenity" v="restaurant" /><tag k="cuisine" v="vietnamese" /><tag k="name" v="포88" /><tag k="phone" v="+82 2 790 8338" /><tag k="description" v="베트남 쌀국수, 가성비" /><tag k="addr:street" v="녹사평대로32길" /><tag k="addr:housenumber" v="39" /><tag k="level" v="1" /><tag k="name:en" v="Pho88" /><tag k="name:ko" v="포88" /><tag k="source" v="공공데이터포털" /></node><node id="-200164" action="modify" visible="true" lat="37.53465445" lon="126.9877218"><tag k="amenity" v="restaurant" /><tag k="cuisine" v="jordanian" /><tag k="name" v="페트라" /><tag k="phone" v="+82 2 790 4433" /><tag k="description" v="신선한 아라빅 할랄음식을 제공하는 집" /><tag k="addr:street" v="녹사평대로40길" /><tag k="addr:housenumber" v="33" /><tag k="source" v="공공데이터포털" /></node><node id="-200165" action="modify" visible="true" lat="37.53439861" lon="126.9882107"><tag k="amenity" v="restaurant" /><tag k="cuisine" v="mexican" /><tag k="name" v="코레아노스키친" /><tag k="phone" v="+82 2 795 4427" /><tag k="description" v="미국 텍사스주 인기 푸드트럭 한국상륙! 최고의 멕시칸 요리를 만나보세요!" /><tag k="addr:street" v="녹사평대로40길" /><tag k="addr:housenumber" v="46" /><tag k="level" v="-1; 1" /><tag k="source" v="공공데이터포털" /></node><node id="-200166" action="modify" visible="true" lat="37.53337887" lon="126.99027"><tag k="amenity" v="restaurant" /><tag k="cuisine" v="mexican" /><tag k="name" v="불앤배럴" /><tag k="phone" v="+82 2 797 7703" /><tag k="description" v="분위기와 친절한 직원이 생맥주와 멕시코음식을 제공하는 집" /><tag k="addr:street" v="녹사평대로32길" /><tag k="addr:housenumber" v="28" /><tag k="name:en" v="BULL&amp;BARREL" /><tag k="name:ko" v="불앤배럴" /><tag k="source" v="공공데이터포털" /></node><node id="-200167" action="modify" visible="true" lat="37.53318426" lon="126.9904374"><tag k="amenity" v="restaurant" /><tag k="cuisine" v="italian" /><tag k="name" v="어썸레스토랑" /><tag k="phone" v="+82 70 4131 2162" /><tag k="description" v="스테이크 맛집" /><tag k="addr:street" v="녹사평대로32길" /><tag k="addr:housenumber" v="36" /><tag k="level" v="1" /><tag k="source" v="공공데이터포털" /></node><node id="-200168" action="modify" visible="true" lat="37.53087416" lon="126.9913066"><tag k="amenity" v="restaurant" /><tag k="cuisine" v="chinese" /><tag k="name" v="대한각" /><tag k="phone" v="+82 2 798 9990" /><tag k="description" v="자영농장 100% 무농약 채소를 사용한 중국요리 전문점" /><tag k="addr:street" v="녹사평대로26길" /><tag k="addr:housenumber" v="21" /><tag k="level" v="2" /><tag k="source" v="공공데이터포털" /></node><node id="-200169" action="modify" visible="true" lat="37.53367074" lon="126.9896997"><tag k="amenity" v="restaurant" /><tag k="cuisine" v="uzbek" /><tag k="name" v="트(LAZZAT" /><tag k="phone" v="+82 2 792 7008" /><tag k="addr:street" v="녹사평대로32길" /><tag k="addr:housenumber" v="15" /><tag k="level" v="2" /><tag k="name:en" v="LAZZAT" /><tag k="name:ko" v="라자트" /><tag k="source" v="공공데이터포털" /></node><node id="-200170" action="modify" visible="true" lat="37.53969282" lon="126.9875581"><tag k="amenity" v="restaurant" /><tag k="cuisine" v="italian" /><tag k="name" v="치(Room H" /><tag k="phone" v="+82 2 796 5061" /><tag k="description" v="저렴한 음식 가격과 고퀄리티에 음식맛, 고급스러운 분위기 레스토랑" /><tag k="addr:street" v="녹사평대로" /><tag k="addr:housenumber" v="248" /><tag k="level" v="1" /><tag k="name:en" v="Room H" /><tag k="name:ko" v="룸에이치" /><tag k="source" v="공공데이터포털" /></node><node id="-200171" action="modify" visible="true" lat="37.53517754" lon="126.9945827"><tag k="amenity" v="restaurant" /><tag k="cuisine" v="mexican" /><tag k="name" v="토마틸로이태원" /><tag k="phone" v="+82 2 794 9225" /><tag k="description" v="멕시코 전문점 펍앤그릴 토마틸로" /><tag k="addr:street" v="이태원로27가길" /><tag k="addr:housenumber" v="12" /><tag k="source" v="공공데이터포털" /></node><node id="-200172" action="modify" visible="true" lat="37.53962434" lon="126.9874993"><tag k="amenity" v="restaurant" /><tag k="cuisine" v="vietnamese" /><tag k="name" v="포포유" /><tag k="phone" v="+82 2 749 8947" /><tag k="description" v="샌프란시스코의 유명베트남쉐프의 레시피를 받아 미국식 쌀국수를 정성스럽게 만들고 있습니다." /><tag k="addr:street" v="녹사평대로" /><tag k="addr:housenumber" v="246-1" /><tag k="source" v="공공데이터포털" /></node><node id="-200173" action="modify" visible="true" lat="37.53722403" lon="126.9870471"><tag k="amenity" v="restaurant" /><tag k="cuisine" v="american" /><tag k="name" v="예스버거" /><tag k="phone" v="+82 2 794 3312" /><tag k="description" v="맛있는 수제버거와 간단하게 맥주한잔하기 좋은집" /><tag k="addr:street" v="녹사평대로" /><tag k="addr:housenumber" v="220" /><tag k="level" v="2" /><tag k="name:en" v="Yes burger" /><tag k="name:ko" v="예스버거" /><tag k="source" v="공공데이터포털" /></node><node id="-200174" action="modify" visible="true" lat="37.53325625" lon="126.9893558"><tag k="amenity" v="restaurant" /><tag k="cuisine" v="cuban" /><tag k="name" v="더버뮤다" /><tag k="phone" v="+82 2 749 9447" /><tag k="description" v="단 하나의 쿠바와 남미를 담는 곳" /><tag k="addr:street" v="녹사평대로" /><tag k="addr:housenumber" v="168-6" /><tag k="source" v="공공데이터포털" /></node><node id="-200175" action="modify" visible="true" lat="37.53712312" lon="126.9870652"><tag k="amenity" v="restaurant" /><tag k="cuisine" v="mexican" /><tag k="name" v="칠리칠리" /><tag k="phone" v="+82 2 797 7219" /><tag k="description" v="멕시코 대중음식 따코 전문점" /><tag k="addr:street" v="녹사평대로" /><tag k="addr:housenumber" v="218" /><tag k="level" v="1; 2" /><tag k="source" v="공공데이터포털" /></node><node id="-200176" action="modify" visible="true" lat="37.53712312" lon="126.9870652"><tag k="amenity" v="restaurant" /><tag k="cuisine" v="arab" /><tag k="name" v="아라빅하우스" /><tag k="phone" v="+82 2 702 6559" /><tag k="description" v="정통 아랍 음식을 즐길 수 있는 아라빅하우스!" /><tag k="addr:street" v="녹사평대로" /><tag k="addr:housenumber" v="218" /><tag k="level" v="3" /><tag k="source" v="공공데이터포털" /></node><node id="-200177" action="modify" visible="true" lat="37.53773939" lon="126.986961"><tag k="amenity" v="restaurant" /><tag k="cuisine" v="spanish" /><tag k="name" v="미마드레" /><tag k="phone" v="+82 2 790 7875" /><tag k="description" v="스페인 정통 타파스 바" /><tag k="addr:street" v="녹사평대로" /><tag k="addr:housenumber" v="224-1" /><tag k="level" v="2" /><tag k="source" v="공공데이터포털" /></node><node id="-200178" action="modify" visible="true" lat="37.53799168" lon="126.9869972"><tag k="amenity" v="restaurant" /><tag k="cuisine" v="french; italian" /><tag k="name" v="(주)페어몬트인베스트먼트쁘띠발롱경리단" /><tag k="phone" v="+82 2 790 2277" /><tag k="description" v="프렌치 이태리 코스와 다양한 와인이 준비된 프라이빗한 공간" /><tag k="addr:street" v="녹사평대로" /><tag k="addr:housenumber" v="228-1" /><tag k="level" v="1" /><tag k="source" v="공공데이터포털" /></node><node id="-200179" action="modify" visible="true" lat="37.53871971" lon="126.9872007"><tag k="amenity" v="restaurant" /><tag k="cuisine" v="japanese" /><tag k="name" v="아자쓰" /><tag k="phone" v="+82 70 8849 6922" /><tag k="description" v="색다른 일본요리를 드시고 싶다면 아자쓰!" /><tag k="addr:street" v="녹사평대로" /><tag k="addr:housenumber" v="236" /><tag k="level" v="1" /><tag k="source" v="공공데이터포털" /></node><node id="-200180" action="modify" visible="true" lat="37.53884585" lon="126.9872188"><tag k="amenity" v="restaurant" /><tag k="cuisine" v="mexican" /><tag k="name" v="돈차를리세군도" /><tag k="phone" v="+82 70 4219 4475" /><tag k="description" v="경리단길 따꼬가 맛있는 집" /><tag k="addr:street" v="녹사평대로" /><tag k="addr:housenumber" v="238-1" /><tag k="level" v="2" /><tag k="name:en" v="Don Charly Segundo" /><tag k="name:ko" v="돈차를리세군도" /><tag k="source" v="공공데이터포털" /></node><node id="-200181" action="modify" visible="true" lat="37.53954866" lon="126.9874766"><tag k="amenity" v="restaurant" /><tag k="cuisine" v="mexican" /><tag k="name" v="빠꼬로꼬" /><tag k="phone" v="+82 70 8821 6445" /><tag k="description" v="경리단길 아담한 타코 집" /><tag k="addr:street" v="녹사평대로" /><tag k="addr:housenumber" v="246" /><tag k="level" v="1" /><tag k="name:en" v="Paco Loco" /><tag k="name:ko" v="빠꼬로꼬" /><tag k="source" v="공공데이터포털" /></node><node id="-200182" action="modify" visible="true" lat="37.5333211" lon="126.989125"><tag k="amenity" v="restaurant" /><tag k="cuisine" v="american" /><tag k="name" v="케이번버거 이태원" /><tag k="phone" v="+82 2 790 4948" /><tag k="description" v="빵, 패티, 소스를 직접 만드는 버거집" /><tag k="addr:street" v="녹사평대로" /><tag k="addr:housenumber" v="168" /><tag k="level" v="1" /><tag k="source" v="공공데이터포털" /></node><node id="-200183" action="modify" visible="true" lat="37.53372501" lon="126.9924241"><tag k="amenity" v="restaurant" /><tag k="cuisine" v="norwegian; italian" /><tag k="name" v="살모니스트" /><tag k="phone" v="+82 2 749 7918" /><tag k="description" v="특일급 호텔 주방장 출신 2명이 연어를 주제로 만든 분위기 좋은 레스토랑" /><tag k="addr:street" v="이태원로20가길" /><tag k="addr:housenumber" v="7-5" /><tag k="level" v="-1" /><tag k="source" v="공공데이터포털" /></node><node id="-200184" action="modify" visible="true" lat="37.53358448" lon="126.9929219"><tag k="amenity" v="restaurant" /><tag k="cuisine" v="thai" /><tag k="name" v="카오산" /><tag k="phone" v="+82 2 790 7029" /><tag k="description" v="태국 유명 호텔 조리장분께 음식을 전수받아 태국 맛에 가깝게 연출. 꽃게커리 등. 한국인 입맛을 사로잡는 음식이 많습니다." /><tag k="addr:street" v="이태원로20가길" /><tag k="addr:housenumber" v="13" /><tag k="level" v="1" /><tag k="source" v="공공데이터포털" /></node><node id="-200185" action="modify" visible="true" lat="37.53403849" lon="126.9915008"><tag k="amenity" v="restaurant" /><tag k="cuisine" v="nigerian" /><tag k="name" v="해피홈레스토랑" /><tag k="phone" v="+82 2 797 3185" /><tag k="description" v="서아프리카 전통음식" /><tag k="addr:street" v="이태원로20길" /><tag k="addr:housenumber" v="2-10" /><tag k="level" v="2" /><tag k="name:en" v="Happy Home Restaurant" /><tag k="name:ko" v="해피홈레스토랑" /><tag k="source" v="공공데이터포털" /></node><node id="-200186" action="modify" visible="true" lat="37.53327097" lon="126.9935058"><tag k="amenity" v="restaurant" /><tag k="cuisine" v="thai" /><tag k="name" v="스파이스마켓" /><tag k="phone" v="+82 2 516 0834" /><tag k="description" v="태국 현지 조리사가 조리하는 분위기 좋은 태국 레스토랑" /><tag k="addr:street" v="이태원로26길" /><tag k="addr:housenumber" v="28" /><tag k="level" v="2" /><tag k="source" v="공공데이터포털" /></node><node id="-200187" action="modify" visible="true" lat="37.53487473" lon="126.9930983"><tag k="amenity" v="restaurant" /><tag k="cuisine" v="american" /><tag k="name" v="시카고" /><tag k="phone" v="+82 2 794 8120" /><tag k="description" v="The original chicago pizza is O.N.L.Y found here" /><tag k="addr:street" v="이태원로27가길" /><tag k="addr:housenumber" v="37" /><tag k="level" v="4; 5" /><tag k="source" v="공공데이터포털" /></node><node id="-200188" action="modify" visible="true" lat="37.53486751" lon="126.9930033"><tag k="amenity" v="restaurant" /><tag k="cuisine" v="brazilian" /><tag k="name" v="(주)코파카바나그릴" /><tag k="phone" v="+82 2 796 1660" /><tag k="description" v="브라질 전통 바베큐요리를 무한으로 즐기세요" /><tag k="addr:street" v="이태원로27가길" /><tag k="addr:housenumber" v="41" /><tag k="level" v="1; 2" /><tag k="source" v="공공데이터포털" /></node><node id="-200189" action="modify" visible="true" lat="37.53482786" lon="126.9928992"><tag k="amenity" v="restaurant" /><tag k="cuisine" v="italian" /><tag k="name" v="올드스탠" /><tag k="phone" v="+82 2 793 3433" /><tag k="description" v="이탈리아 전문 음식점" /><tag k="addr:street" v="이태원로27가길" /><tag k="addr:housenumber" v="43" /><tag k="level" v="1" /><tag k="source" v="공공데이터포털" /></node><node id="-200190" action="modify" visible="true" lat="37.53486388" lon="126.9925462"><tag k="amenity" v="restaurant" /><tag k="cuisine" v="spanish" /><tag k="name" v="타파스바" /><tag k="phone" v="+82 2 790 0799" /><tag k="description" v="타파스 전문점. 스페니쉬 바" /><tag k="addr:street" v="이태원로27가길" /><tag k="addr:housenumber" v="49" /><tag k="level" v="1" /><tag k="source" v="공공데이터포털" /></node><node id="-200191" action="modify" visible="true" lat="37.53484945" lon="126.9923425"><tag k="amenity" v="restaurant" /><tag k="cuisine" v="spanish" /><tag k="name" v="미카사" /><tag k="phone" v="+82 2 790 0063" /><tag k="description" v="스페인 헤드쉐프가 총괄하는 오픈 키친 형태의 레스토랑과 와인 디스펜서가 있는 라운지의 매장" /><tag k="addr:street" v="이태원로27가길" /><tag k="addr:housenumber" v="51" /><tag k="level" v="1" /><tag k="source" v="공공데이터포털" /></node><node id="-200192" action="modify" visible="true" lat="37.53509812" lon="126.9921932"><tag k="amenity" v="restaurant" /><tag k="cuisine" v="thai" /><tag k="name" v="생어거스틴" /><tag k="phone" v="+82 2 790 5447" /><tag k="description" v="한국 속 프랑스거리 생어거스틴에서 선보이는 아시안 푸드" /><tag k="addr:street" v="이태원로27가길" /><tag k="addr:housenumber" v="54-4" /><tag k="level" v="-1" /><tag k="source" v="공공데이터포털" /></node><node id="-200193" action="modify" visible="true" lat="37.53548371" lon="126.9916184"><tag k="amenity" v="restaurant" /><tag k="cuisine" v="american" /><tag k="name" v="맥.앤" /><tag k="phone" v="+82 2 790 5447" /><tag k="description" v="마카로니 앤 치즈를 6가지 맛으로 맥주와 와인을 함께 즐길 수 있는 곳" /><tag k="addr:street" v="이태원로19길" /><tag k="addr:housenumber" v="23" /><tag k="level" v="1" /><tag k="source" v="공공데이터포털" /></node><node id="-200194" action="modify" visible="true" lat="37.53474131" lon="126.9919941"><tag k="amenity" v="restaurant" /><tag k="cuisine" v="british; italian" /><tag k="name" v="코타지카페보리" /><tag k="phone" v="+82 2 6012 3383" /><tag k="description" v="케주얼다이닝을 모토로한  코티지 레스토랑 &amp; 카페" /><tag k="addr:street" v="이태원로19길" /><tag k="addr:housenumber" v="6" /><tag k="level" v="1" /><tag k="source" v="공공데이터포털" /></node><node id="-200195" action="modify" visible="true" lat="37.53372863" lon="126.9926821"><tag k="amenity" v="restaurant" /><tag k="cuisine" v="american" /><tag k="name" v="피셔맨즈" /><tag k="phone" v="+82 2 790 9544" /><tag k="description" v="통통한 새우가 통채로 들어간 아메리칸 스타일 롤" /><tag k="addr:street" v="이태원로20가길" /><tag k="addr:housenumber" v="7-2" /><tag k="level" v="3" /><tag k="source" v="공공데이터포털" /></node><node id="-200196" action="modify" visible="true" lat="37.53372501" lon="126.9924241"><tag k="amenity" v="restaurant" /><tag k="cuisine" v="japanese" /><tag k="name" v="바램" /><tag k="phone" v="+82 2 795 8890" /><tag k="description" v="일본식 양고기 숯불구이점" /><tag k="addr:street" v="이태원로20가길" /><tag k="addr:housenumber" v="7-5" /><tag k="level" v="1" /><tag k="source" v="공공데이터포털" /></node><node id="-200197" action="modify" visible="true" lat="37.54244314" lon="126.9933466"><tag k="amenity" v="restaurant" /><tag k="cuisine" v="italian" /><tag k="name" v="(주)하베스트남산" /><tag k="phone" v="+82 2 793 2299" /><tag k="addr:street" v="소월로44가길" /><tag k="addr:housenumber" v="7" /><tag k="source" v="공공데이터포털" /></node><node id="-200198" action="modify" visible="true" lat="37.53322782" lon="126.9956916"><tag k="amenity" v="restaurant" /><tag k="cuisine" v="pakistani" /><tag k="name" v="(주)우스마니아인터내셔날레스토랑" /><tag k="phone" v="+82 2 798 7155" /><tag k="addr:street" v="우사단로" /><tag k="addr:housenumber" v="34" /><tag k="level" v="-1" /><tag k="source" v="공공데이터포털" /></node><node id="-200199" action="modify" visible="true" lat="37.53395223" lon="126.995764"><tag k="amenity" v="restaurant" /><tag k="cuisine" v="indian; turkish" /><tag k="name" v="포랜레스토랑" /><tag k="phone" v="+82 2 794 9292" /><tag k="description" v="다양한 메뉴를 접할 수 있고 이슬람분들이 믿고 먹을 수 있는 할랄 레스토랑" /><tag k="addr:street" v="우사단로" /><tag k="addr:housenumber" v="42" /><tag k="name:en" v="FOREIGN RESTAURANT" /><tag k="name:ko" v="포랜레스토랑" /><tag k="source" v="공공데이터포털" /></node><node id="-200200" action="modify" visible="true" lat="37.53435226" lon="126.9954924"><tag k="amenity" v="restaurant" /><tag k="cuisine" v="italian" /><tag k="name" v="피자레볼루션" /><tag k="phone" v="+82 2 797 8290" /><tag k="addr:street" v="우사단로" /><tag k="addr:housenumber" v="47" /><tag k="name:ko" v="피자레볼루션" /><tag k="source" v="공공데이터포털" /></node><node id="-200201" action="modify" visible="true" lat="37.53388371" lon="126.9947231"><tag k="amenity" v="restaurant" /><tag k="cuisine" v="iranian" /><tag k="name" v="페르시안랜드" /><tag k="phone" v="+82 2 797 7109" /><tag k="addr:street" v="보광로60길" /><tag k="addr:housenumber" v="10" /><tag k="source" v="공공데이터포털" /></node><node id="-200202" action="modify" visible="true" lat="37.53319901" lon="126.9962347"><tag k="amenity" v="restaurant" /><tag k="cuisine" v="indian; pakistani" /><tag k="name" v="봄베그릴" /><tag k="phone" v="+82 2 792 7155" /><tag k="description" v="탄두리 바비큐를 추천" /><tag k="addr:street" v="우사단로10길" /><tag k="addr:housenumber" v="11" /><tag k="level" v="1" /><tag k="diet:halal" v="yes" /><tag k="source" v="공공데이터포털" /></node><node id="-200203" action="modify" visible="true" lat="37.53326389" lon="126.9964203"><tag k="amenity" v="restaurant" /><tag k="cuisine" v="pakistani" /><tag k="name" v="AL- HOOR" /><tag k="phone" v="+82 2 792 7155" /><tag k="addr:street" v="우사단로10길" /><tag k="addr:housenumber" v="15" /><tag k="level" v="1" /><tag k="source" v="공공데이터포털" /></node><node id="-200204" action="modify" visible="true" lat="37.53326389" lon="126.9964203"><tag k="amenity" v="restaurant" /><tag k="cuisine" v="lebanese" /><tag k="name" v="알아지스" /><tag k="phone" v="+82 2 790 9865" /><tag k="description" v="Beef or Lamb를 추천람" /><tag k="addr:street" v="우사단로10길" /><tag k="addr:housenumber" v="15" /><tag k="level" v="1" /><tag k="name:en" v="ALAZIZ" /><tag k="name:ko" v="알아지스" /><tag k="source" v="공공데이터포털" /></node><node id="-200205" action="modify" visible="true" lat="37.5330873" lon="126.9966375"><tag k="amenity" v="restaurant" /><tag k="cuisine" v="pakistani" /><tag k="name" v="마리푸드" /><tag k="phone" v="+82 2 3785 1436" /><tag k="description" v="할랄 고기를 쓴 한국음식점" /><tag k="addr:street" v="우사단로10길" /><tag k="addr:housenumber" v="20" /><tag k="name:en" v="MARREE FOOD" /><tag k="name:ko" v="마리푸드" /><tag k="diet:halal" v="yes" /><tag k="source" v="공공데이터포털" /></node><node id="-200206" action="modify" visible="true" lat="37.53329273" lon="126.9967099"><tag k="amenity" v="restaurant" /><tag k="cuisine" v="indian" /><tag k="name" v="핑크보우트레이딩 리틀인디안서울 주식회사" /><tag k="phone" v="+82 2 793 5416" /><tag k="addr:street" v="우사단로10길" /><tag k="addr:housenumber" v="21" /><tag k="source" v="공공데이터포털" /></node><node id="-200207" action="modify" visible="true" lat="37.53315935" lon="126.9959587"><tag k="amenity" v="restaurant" /><tag k="cuisine" v="indonesian; egyptian" /><tag k="name" v="씨티사라" /><tag k="phone" v="+82 2 793 5416" /><tag k="addr:street" v="우사단로10길" /><tag k="addr:housenumber" v="7" /><tag k="level" v="1" /><tag k="source" v="공공데이터포털" /></node><node id="-200208" action="modify" visible="true" lat="37.53426214" lon="126.9949041"><tag k="amenity" v="restaurant" /><tag k="cuisine" v="turkish" /><tag k="name" v="파샤터키레스토랑" /><tag k="phone" v="+82 2 766 8445" /><tag k="addr:street" v="이태원로" /><tag k="addr:housenumber" v="188-1" /><tag k="source" v="공공데이터포털" /></node><node id="-200209" action="modify" visible="true" lat="37.53483521" lon="126.9959178"><tag k="amenity" v="restaurant" /><tag k="cuisine" v="turkish" /><tag k="name" v="페트라 팰리스" /><tag k="phone" v="+82 2 749 9329" /><tag k="addr:street" v="이태원로" /><tag k="addr:housenumber" v="197" /><tag k="name:en" v="PETRA PALACE" /><tag k="name:ko" v="페트라 팰리스" /><tag k="source" v="공공데이터포털" /></node><node id="-200210" action="modify" visible="true" lat="37.53442076" lon="126.9961668"><tag k="amenity" v="restaurant" /><tag k="cuisine" v="italian" /><tag k="name" v="라그릴리아 이태원점" /><tag k="phone" v="+82 2 790 9313" /><tag k="addr:street" v="이태원로" /><tag k="addr:housenumber" v="200" /><tag k="source" v="공공데이터포털" /></node><node id="-200211" action="modify" visible="true" lat="37.53450727" lon="126.9965198"><tag k="amenity" v="restaurant" /><tag k="cuisine" v="turkish" /><tag k="name" v="케르반베이커리" /><tag k="phone" v="+82 2 790 5585" /><tag k="addr:street" v="이태원로" /><tag k="addr:housenumber" v="204" /><tag k="source" v="공공데이터포털" /></node><node id="-200212" action="modify" visible="true" lat="37.53450728" lon="126.9967506"><tag k="amenity" v="restaurant" /><tag k="cuisine" v="japanese" /><tag k="name" v="멘야산다이메" /><tag k="phone" v="+82 2 790 4129" /><tag k="addr:street" v="이태원로" /><tag k="addr:housenumber" v="206" /><tag k="source" v="공공데이터포털" /></node><node id="-200213" action="modify" visible="true" lat="37.53549482" lon="126.9992895"><tag k="amenity" v="restaurant" /><tag k="cuisine" v="italian" /><tag k="name" v="라블루피제리아" /><tag k="phone" v="+82 2 807 7776" /><tag k="description" v="르꼬르동블루 출신 쉐프가 직접 요리하는 레스토랑으로 모든 음식은 수작업으로 하며 맛있고 깔끔한 맛을 느낄 수 있습니다." /><tag k="addr:street" v="이태원로" /><tag k="addr:housenumber" v="230" /><tag k="level" v="2; 3" /><tag k="source" v="공공데이터포털" /></node><node id="-200214" action="modify" visible="true" lat="37.53558131" lon="126.9994162"><tag k="amenity" v="restaurant" /><tag k="cuisine" v="thai" /><tag k="name" v="얌타이" /><tag k="phone" v="+82 2 6349 2122" /><tag k="addr:street" v="이태원로" /><tag k="addr:housenumber" v="230-2" /><tag k="source" v="공공데이터포털" /></node><node id="-200215" action="modify" visible="true" lat="37.53562816" lon="126.9994931"><tag k="amenity" v="restaurant" /><tag k="cuisine" v="japanese" /><tag k="name" v="니시키" /><tag k="phone" v="+82 2 749 0446" /><tag k="description" v="일본 사누끼우동 전국대회에서 1등 수상" /><tag k="addr:street" v="이태원로" /><tag k="addr:housenumber" v="232" /><tag k="name:en" v="NISIKI" /><tag k="name:ko" v="니시키" /><tag k="source" v="공공데이터포털" /></node><node id="-200216" action="modify" visible="true" lat="37.53483522" lon="126.9962075"><tag k="amenity" v="restaurant" /><tag k="cuisine" v="italian" /><tag k="name" v="피자무쪼" /><tag k="phone" v="+82 2 795 6164" /><tag k="addr:street" v="이태원로" /><tag k="addr:housenumber" v="199" /><tag k="name:en" v="pizza muzzo" /><tag k="name:ko" v="피자무쪼" /><tag k="source" v="공공데이터포털" /></node><node id="-200217" action="modify" visible="true" lat="37.54011499" lon="126.9938492"><tag k="amenity" v="restaurant" /><tag k="cuisine" v="american" /><tag k="name" v="믹존스피자" /><tag k="phone" v="+82 2 795 6164" /><tag k="description" v="오리지널 뉴욕스타일 피자" /><tag k="addr:street" v="회나무로" /><tag k="addr:housenumber" v="66" /><tag k="level" v="1" /><tag k="name:en" v="Mick jones`s pizza" /><tag k="name:ko" v="믹존스피자" /><tag k="source" v="공공데이터포털" /></node><node id="-200218" action="modify" visible="true" lat="37.53460821" lon="126.9979046"><tag k="amenity" v="restaurant" /><tag k="cuisine" v="lebanese" /><tag k="name" v="허머스키친" /><tag k="phone" v="+82 2 790 7922" /><tag k="description" v="중동 레바논 음식을 기초로한 건강한 느낌의 음식" /><tag k="addr:street" v="이태원로" /><tag k="addr:housenumber" v="214-1" /><tag k="source" v="공공데이터포털" /></node><node id="-200219" action="modify" visible="true" lat="37.53460821" lon="126.9979046"><tag k="amenity" v="restaurant" /><tag k="cuisine" v="thai" /><tag k="name" v="타이오키드" /><tag k="phone" v="+82 2 795 3338" /><tag k="addr:street" v="이태원로" /><tag k="addr:housenumber" v="214-1" /><tag k="source" v="공공데이터포털" /></node><node id="-200220" action="modify" visible="true" lat="37.53460821" lon="126.9979046"><tag k="amenity" v="restaurant" /><tag k="cuisine" v="french" /><tag k="name" v="브래드쇼" /><tag k="phone" v="+82 2 792 2233" /><tag k="addr:street" v="이태원로" /><tag k="addr:housenumber" v="214-1" /><tag k="name:en" v="Bread Show" /><tag k="name:ko" v="브래드쇼" /><tag k="source" v="공공데이터포털" /></node><node id="-200221" action="modify" visible="true" lat="37.53468751" lon="126.9981354"><tag k="amenity" v="restaurant" /><tag k="cuisine" v="american" /><tag k="name" v="투브로즈" /><tag k="phone" v="+82 2 790 0610" /><tag k="addr:street" v="이태원로" /><tag k="addr:housenumber" v="216" /><tag k="source" v="공공데이터포털" /></node><node id="-200222" action="modify" visible="true" lat="37.53468751" lon="126.9981354"><tag k="amenity" v="restaurant" /><tag k="cuisine" v="italian" /><tag k="name" v="안도" /><tag k="phone" v="+82 2 749 0619" /><tag k="addr:street" v="이태원로" /><tag k="addr:housenumber" v="216" /><tag k="name:en" v="ANDO" /><tag k="name:ko" v="안도" /><tag k="source" v="공공데이터포털" /></node><node id="-200223" action="modify" visible="true" lat="37.53468751" lon="126.9981354"><tag k="amenity" v="restaurant" /><tag k="cuisine" v="spanish" /><tag k="name" v="스페인클럽" /><tag k="phone" v="+82 2 795 1118" /><tag k="addr:street" v="이태원로" /><tag k="addr:housenumber" v="216" /><tag k="source" v="공공데이터포털" /></node><node id="-200224" action="modify" visible="true" lat="37.53481365" lon="126.9984794"><tag k="amenity" v="restaurant" /><tag k="cuisine" v="australian" /><tag k="name" v="쓰리앨리" /><tag k="phone" v="+82 2 792 0117" /><tag k="addr:street" v="이태원로" /><tag k="addr:housenumber" v="220" /><tag k="source" v="공공데이터포털" /></node><node id="-200225" action="modify" visible="true" lat="37.53481365" lon="126.9984794"><tag k="amenity" v="restaurant" /><tag k="cuisine" v="indian" /><tag k="name" v="이태원겐지스" /><tag k="phone" v="+82 2 6368 7376" /><tag k="addr:street" v="이태원로" /><tag k="addr:housenumber" v="228" /><tag k="source" v="공공데이터포털" /></node><node id="-200226" action="modify" visible="true" lat="37.54349889" lon="126.9901193"><tag k="amenity" v="restaurant" /><tag k="cuisine" v="french" /><tag k="name" v="키이츠" /><tag k="phone" v="+82 2 793 3081" /><tag k="addr:street" v="소월로38길" /><tag k="addr:housenumber" v="30-8" /><tag k="level" v="1" /><tag k="source" v="공공데이터포털" /></node><node id="-200227" action="modify" visible="true" lat="37.54210417" lon="126.9904227"><tag k="amenity" v="restaurant" /><tag k="cuisine" v="italian" /><tag k="name" v="브루터스" /><tag k="phone" v="+82 2 749 3830" /><tag k="addr:street" v="소월로38가길" /><tag k="addr:housenumber" v="30" /><tag k="source" v="공공데이터포털" /></node><node id="-200228" action="modify" visible="true" lat="37.5432322" lon="126.9901691"><tag k="amenity" v="restaurant" /><tag k="cuisine" v="vietnamese" /><tag k="name" v="레호이" /><tag k="phone" v="+82 70 4242 0426" /><tag k="addr:street" v="소월로38가길" /><tag k="addr:housenumber" v="5" /><tag k="level" v="1" /><tag k="source" v="공공데이터포털" /></node><node id="-200229" action="modify" visible="true" lat="37.53487473" lon="126.9930983"><tag k="amenity" v="restaurant" /><tag k="cuisine" v="mexican" /><tag k="name" v="로스아미고스" /><tag k="phone" v="+82 2 795 9711" /><tag k="description" v="한국에서 쉽게 접하지 못 할 여러가지 멕시코 음식들이 준비되어 있습니다" /><tag k="addr:street" v="이태원로27가길" /><tag k="addr:housenumber" v="37" /><tag k="level" v="3" /><tag k="name:en" v="Los Amigos" /><tag k="name:ko" v="로스아미고스" /><tag k="source" v="공공데이터포털" /></node><node id="-200230" action="modify" visible="true" lat="37.54014373" lon="126.9922832"><tag k="amenity" v="restaurant" /><tag k="cuisine" v="french" /><tag k="name" v="빔봄" /><tag k="phone" v="+82 70 8849 6245" /><tag k="addr:street" v="회나무로" /><tag k="addr:housenumber" v="51" /><tag k="level" v="2" /><tag k="name:en" v="bimbom" /><tag k="name:ko" v="빔봄" /><tag k="source" v="공공데이터포털" /></node><node id="-200231" action="modify" visible="true" lat="37.54011499" lon="126.9938492"><tag k="amenity" v="restaurant" /><tag k="cuisine" v="international" /><tag k="name" v="유니버스 샌드위치" /><tag k="phone" v="+82 70 8849 6245" /><tag k="description" v="다국적 샌드위치 메뉴 유럽식 루벤샌드위치(프랑스햄), 유럽 치킨샌드위치 중동식 후무스 샌드위치 계절별로 메뉴는 상시 바뀜." /><tag k="addr:street" v="회나무로" /><tag k="addr:housenumber" v="66" /><tag k="level" v="1" /><tag k="source" v="공공데이터포털" /></node><node id="-200232" action="modify" visible="true" lat="37.54011499" lon="126.9938492"><tag k="amenity" v="restaurant" /><tag k="cuisine" v="international" /><tag k="name" v="만나키친" /><tag k="phone" v="+82 70 8849 6245" /><tag k="addr:street" v="회나무로" /><tag k="addr:housenumber" v="66" /><tag k="level" v="1" /><tag k="name:en" v="MANNA Kitchen" /><tag k="name:ko" v="만나키친" /><tag k="source" v="공공데이터포털" /></node><node id="-200233" action="modify" visible="true" lat="37.54040696" lon="126.9947589"><tag k="amenity" v="restaurant" /><tag k="cuisine" v="italian" /><tag k="name" v="예환" /><tag k="phone" v="+82 2 798 798" /><tag k="description" v="홈메이트 가정식 이탈리안" /><tag k="addr:street" v="회나무로" /><tag k="addr:housenumber" v="74" /><tag k="name:en" v="Ye`hwan" /><tag k="name:ko" v="예환" /><tag k="source" v="공공데이터포털" /></node><node id="-200234" action="modify" visible="true" lat="37.54073136" lon="126.9958496"><tag k="amenity" v="restaurant" /><tag k="cuisine" v="international" /><tag k="name" v="올리아 키친 앤 그로서리" /><tag k="phone" v="+82 2 792 6004" /><tag k="description" v="제주도에서 공수한 한국식 재료를 접목한 퓨전 이탈리안 요리를 맛 볼 수 있고 그로서리 식료품점과 갤러리 공간이 공존하는 복합 문화 공간 입니다." /><tag k="addr:street" v="회나무로42길" /><tag k="addr:housenumber" v="4" /><tag k="source" v="공공데이터포털" /></node><node id="-200235" action="modify" visible="true" lat="37.53941567" lon="126.99155"><tag k="amenity" v="restaurant" /><tag k="cuisine" v="american" /><tag k="name" v="소울트럭" /><tag k="phone" v="+82 70 4230 0506" /><tag k="description" v="최고의 햄버거! 좋은음악!" /><tag k="addr:street" v="회나무로26길" /><tag k="addr:housenumber" v="7" /><tag k="source" v="공공데이터포털" /></node><node id="-200236" action="modify" visible="true" lat="37.53941567" lon="126.99155"><tag k="amenity" v="restaurant" /><tag k="cuisine" v="german; spanish" /><tag k="name" v="(주)존쿡델리미트이태원점" /><tag k="phone" v="+82 2 796 8050" /><tag k="addr:street" v="회나무로26길" /><tag k="addr:housenumber" v="7" /><tag k="source" v="공공데이터포털" /></node><node id="-200237" action="modify" visible="true" lat="37.53994185" lon="126.9914459"><tag k="amenity" v="restaurant" /><tag k="cuisine" v="italian" /><tag k="name" v="디코드" /><tag k="phone" v="+82 2 790 3228" /><tag k="description" v="이태리, 프렌치 음식을 중심으로 남산 전망과 테라스에서 식사를 하실 수 있습니다." /><tag k="addr:street" v="회나무로25길" /><tag k="addr:housenumber" v="1" /><tag k="source" v="공공데이터포털" /></node><node id="-200238" action="modify" visible="true" lat="37.53994185" lon="126.9914459"><tag k="amenity" v="restaurant" /><tag k="cuisine" v="italian" /><tag k="name" v="스테키" /><tag k="phone" v="+82 2 794 0127" /><tag k="description" v="친환경 한우 브랜드`녹색한우`를 이용한 한우전문 스테이크 하우스" /><tag k="addr:street" v="회나무로25길" /><tag k="addr:housenumber" v="1" /><tag k="source" v="공공데이터포털" /></node><node id="-200239" action="modify" visible="true" lat="37.53994185" lon="126.9914459"><tag k="amenity" v="restaurant" /><tag k="cuisine" v="american" /><tag k="name" v="팬스테이크키친경리단점" /><tag k="phone" v="+82 2 749 7017" /><tag k="addr:street" v="회나무로25길" /><tag k="addr:housenumber" v="1" /><tag k="source" v="공공데이터포털" /></node><node id="-200240" action="modify" visible="true" lat="37.53996696" lon="126.9899975"><tag k="amenity" v="restaurant" /><tag k="cuisine" v="japanese" /><tag k="name" v="오후정" /><tag k="phone" v="+82 2 749 5219" /><tag k="addr:street" v="회나무로13길" /><tag k="addr:housenumber" v="14-8" /><tag k="level" v="1; 2" /><tag k="source" v="공공데이터포털" /></node><node id="-200241" action="modify" visible="true" lat="37.54093292" lon="126.991052"><tag k="amenity" v="restaurant" /><tag k="cuisine" v="british" /><tag k="name" v="블루밍런던" /><tag k="phone" v="+82 2 749 5219" /><tag k="description" v="소박하지만 건강하고 따뜻한 한끼를 먹을 수 있는 영국 가정식" /><tag k="addr:street" v="회나무로13가길" /><tag k="addr:housenumber" v="28" /><tag k="level" v="1" /><tag k="source" v="공공데이터포털" /></node><node id="-200242" action="modify" visible="true" lat="37.54105904" lon="126.990794"><tag k="amenity" v="restaurant" /><tag k="cuisine" v="japanese" /><tag k="name" v="메시야" /><tag k="phone" v="+82 2 6402 0208" /><tag k="addr:street" v="회나무로13가길" /><tag k="addr:housenumber" v="23" /><tag k="name:en" v="mesiya" /><tag k="name:ko" v="메시야" /><tag k="source" v="공공데이터포털" /></node><node id="-200243" action="modify" visible="true" lat="37.54079234" lon="126.990785"><tag k="amenity" v="restaurant" /><tag k="cuisine" v="international" /><tag k="name" v="소셜테이블" /><tag k="phone" v="+82 2 796 7565" /><tag k="description" v="유러피안타파스 그릴&amp;바" /><tag k="addr:street" v="회나무로13가길" /><tag k="addr:housenumber" v="22" /><tag k="name:en" v="SOCIAL TABLE" /><tag k="name:ko" v="소셜테이블" /><tag k="source" v="공공데이터포털" /></node><node id="-200244" action="modify" visible="true" lat="37.54098723" lon="126.9955418"><tag k="amenity" v="restaurant" /><tag k="cuisine" v="american" /><tag k="name" v="로코스" /><tag k="phone" v="+82 2 794 3234" /><tag k="description" v="Weeping good!" /><tag k="addr:street" v="회나무로" /><tag k="addr:housenumber" v="83" /><tag k="name:en" v="LOCOS" /><tag k="name:ko" v="로코스" /><tag k="source" v="공공데이터포털" /></node><node id="-200245" action="modify" visible="true" lat="37.54055834" lon="126.9951345"><tag k="amenity" v="restaurant" /><tag k="cuisine" v="mexican" /><tag k="name" v="타코세뇨리타" /><tag k="phone" v="+82 2 794 3234" /><tag k="description" v="직접 만든 핫소스, 살사 등 신선한 가정식 타코" /><tag k="addr:street" v="회나무로" /><tag k="addr:housenumber" v="78" /><tag k="level" v="1" /><tag k="source" v="공공데이터포털" /></node><node id="-200246" action="modify" visible="true" lat="37.54011499" lon="126.9938492"><tag k="amenity" v="restaurant" /><tag k="cuisine" v="thai" /><tag k="name" v="소이연남" /><tag k="phone" v="+82 2 794 3234" /><tag k="description" v="진한 태국 소고기 국수!" /><tag k="addr:street" v="회나무로" /><tag k="addr:housenumber" v="66" /><tag k="level" v="1" /><tag k="source" v="공공데이터포털" /></node><node id="-200247" action="modify" visible="true" lat="37.54011499" lon="126.9938492"><tag k="amenity" v="restaurant" /><tag k="cuisine" v="american; italian" /><tag k="name" v="니키타" /><tag k="phone" v="+82 2 794 3234" /><tag k="description" v="최고급 소고기 패티가 들어간 수제버거와 생면 파스타!" /><tag k="addr:street" v="회나무로" /><tag k="addr:housenumber" v="66" /><tag k="level" v="1" /><tag k="source" v="공공데이터포털" /></node><node id="-200248" action="modify" visible="true" lat="37.53966437" lon="126.9918578"><tag k="amenity" v="restaurant" /><tag k="cuisine" v="italian" /><tag k="name" v="씨리어스델리" /><tag k="phone" v="+82 2 797 3354" /><tag k="description" v="씨리어스 델리 꽃 피자" /><tag k="addr:street" v="회나무로" /><tag k="addr:housenumber" v="46" /><tag k="source" v="공공데이터포털" /></node><node id="-200249" action="modify" visible="true" lat="37.53962103" lon="126.9906991"><tag k="amenity" v="restaurant" /><tag k="cuisine" v="italian" /><tag k="name" v="아워커뮨" /><tag k="phone" v="+82 2 792 8764" /><tag k="description" v="shop in shop 형태의 레스토랑 커피, 그린요거트 전문점 입점." /><tag k="addr:street" v="회나무로" /><tag k="addr:housenumber" v="38" /><tag k="level" v="1" /><tag k="source" v="공공데이터포털" /></node><node id="-200250" action="modify" visible="true" lat="37.53950926" lon="126.9901515"><tag k="amenity" v="restaurant" /><tag k="cuisine" v="american" /><tag k="name" v="포스트앨리동하드림" /><tag k="phone" v="+82 2 790 3483" /><tag k="addr:street" v="회나무로" /><tag k="addr:housenumber" v="32" /><tag k="level" v="-1; 1" /><tag k="source" v="공공데이터포털" /></node><node id="-200251" action="modify" visible="true" lat="37.53921728" lon="126.98945"><tag k="amenity" v="restaurant" /><tag k="cuisine" v="french" /><tag k="name" v="치즈어랏" /><tag k="phone" v="+82 2 796 8160" /><tag k="description" v="치즈 덕후라면 꼭 먹어봐야 할 치즈 어랏." /><tag k="addr:street" v="회나무로" /><tag k="addr:housenumber" v="24-1" /><tag k="level" v="-1; 1" /><tag k="source" v="공공데이터포털" /></node><node id="-200252" action="modify" visible="true" lat="37.5361976" lon="126.9993438"><tag k="amenity" v="restaurant" /><tag k="cuisine" v="chinese" /><tag k="name" v="마라" /><tag k="phone" v="+82 2 794 5559" /><tag k="description" v="마리샹리" /><tag k="addr:street" v="이태원로45길" /><tag k="addr:housenumber" v="4" /><tag k="level" v="1; 2" /><tag k="source" v="공공데이터포털" /></node><node id="-200253" action="modify" visible="true" lat="37.53502622" lon="126.9956146"><tag k="amenity" v="restaurant" /><tag k="cuisine" v="japanese; italian" /><tag k="name" v="탑펍앤이자카야" /><tag k="phone" v="+82 2 794 9919" /><tag k="description" v="스테이크, 이자카야, 맛집" /><tag k="addr:street" v="이태원로27길" /><tag k="addr:housenumber" v="6" /><tag k="level" v="5" /><tag k="source" v="공공데이터포털" /></node><node id="-200254" action="modify" visible="true" lat="37.53502622" lon="126.9956146"><tag k="amenity" v="restaurant" /><tag k="cuisine" v="italian" /><tag k="name" v="까사안토니오" /><tag k="phone" v="+82 2 794 8803" /><tag k="description" v="오리지널 이탈리안 푸드" /><tag k="addr:street" v="이태원로27길" /><tag k="addr:housenumber" v="6" /><tag k="level" v="2" /><tag k="source" v="공공데이터포털" /></node><node id="-200255" action="modify" visible="true" lat="37.53568929" lon="126.9942342"><tag k="amenity" v="restaurant" /><tag k="cuisine" v="swiss" /><tag k="name" v="알트스위스샬레" /><tag k="phone" v="+82 2 797 9664" /><tag k="description" v="이태원에서 37년 동안 스위스 대표음식`퐁듀`를 전문적으로 판매하고 있는 스위스풍의 레스토랑입니다. 스위스 전통가옥 샬레의  내부를 그대로재현하여 특히 외국분들이 많이 좋아하시는 분위기 입니다." /><tag k="addr:street" v="이태원로27길" /><tag k="addr:housenumber" v="38" /><tag k="level" v="2" /><tag k="source" v="공공데이터포털" /></node><node id="-200256" action="modify" visible="true" lat="37.53770396" lon="126.9949129"><tag k="amenity" v="restaurant" /><tag k="cuisine" v="american" /><tag k="name" v="구에스티케이733" /><tag k="phone" v="+82 2 794 7339" /><tag k="description" v="미국식 스테이크" /><tag k="addr:street" v="이태원로27길" /><tag k="addr:housenumber" v="101" /><tag k="level" v="1" /><tag k="source" v="공공데이터포털" /></node><node id="-200257" action="modify" visible="true" lat="37.53770396" lon="126.9949129"><tag k="amenity" v="restaurant" /><tag k="cuisine" v="italian" /><tag k="name" v="비스트로 마미" /><tag k="phone" v="+82 2 701 6077" /><tag k="description" v="가정식 프렌치&amp;이탈리안 레스토랑" /><tag k="addr:street" v="이태원로27길" /><tag k="addr:housenumber" v="101" /><tag k="source" v="공공데이터포털" /></node><node id="-200258" action="modify" visible="true" lat="37.53770396" lon="126.9949129"><tag k="amenity" v="restaurant" /><tag k="cuisine" v="french" /><tag k="name" v="비손" /><tag k="phone" v="+82 2 790 0479" /><tag k="description" v="프랑스식 가정식(25년 전통)" /><tag k="addr:street" v="이태원로27길" /><tag k="addr:housenumber" v="101" /><tag k="source" v="공공데이터포털" /></node><node id="-200259" action="modify" visible="true" lat="37.53496491" lon="126.9947819"><tag k="amenity" v="restaurant" /><tag k="cuisine" v="american" /><tag k="name" v="스모키살룬" /><tag k="phone" v="+82 2 790 0479" /><tag k="description" v="The hamburger Grill" /><tag k="addr:street" v="이태원로27가길" /><tag k="addr:housenumber" v="9" /><tag k="name:en" v="SMOKEY SALOON" /><tag k="name:ko" v="스모키살룬" /><tag k="source" v="공공데이터포털" /></node><node id="-200260" action="modify" visible="true" lat="37.53513431" lon="126.9948995"><tag k="amenity" v="restaurant" /><tag k="cuisine" v="french; italian" /><tag k="name" v="오레노" /><tag k="phone" v="+82 2 794 0055" /><tag k="description" v="일본식 프렌치&amp;이탈리아의 고급 메뉴를 한번에 맛볼수 있다." /><tag k="addr:street" v="이태원로27가길" /><tag k="addr:housenumber" v="8" /><tag k="level" v="1" /><tag k="source" v="공공데이터포털" /></node><node id="-200261" action="modify" visible="true" lat="37.53508732" lon="126.9923968"><tag k="amenity" v="restaurant" /><tag k="cuisine" v="bulgarian" /><tag k="name" v="젤렌" /><tag k="phone" v="+82 2 749 0600" /><tag k="description" v="불가리아 전통식 레스토랑" /><tag k="addr:street" v="이태원로27가길" /><tag k="addr:housenumber" v="52" /><tag k="name:en" v="Zelen" /><tag k="name:ko" v="젤렌" /><tag k="source" v="공공데이터포털" /></node><node id="-200262" action="modify" visible="true" lat="37.53480623" lon="126.9927951"><tag k="amenity" v="restaurant" /><tag k="cuisine" v="japanese; thai" /><tag k="name" v="마이누들" /><tag k="phone" v="+82 2 794 8990" /><tag k="description" v="홍석천은 맛있다." /><tag k="addr:street" v="이태원로23길" /><tag k="addr:housenumber" v="6" /><tag k="level" v="2;3" /><tag k="name:ko" v="마이누들" /><tag k="source" v="공공데이터포털" /></node><node id="-200263" action="modify" visible="true" lat="37.53522072" lon="126.993225"><tag k="amenity" v="restaurant" /><tag k="cuisine" v="indian" /><tag k="name" v="모글인터내쇼날" /><tag k="phone" v="+82 2 796 5501~2" /><tag k="description" v="1984년 인도 레스토랑으로 오픈하였고 요리사와 써빙하는 웨이터 전원이 현지인으로 이국적인 맛과 분위기를 즐길 수 있는 도심속에서 보기드문 유럽풍 야외정원이 있어 특별함을 더 느낄 수 있습니다. 년중무휴로 매주 토,일요일에는 인도 정통 스페셜 뷔페가 운영되고 있습니다 " /><tag k="addr:street" v="이태원로27가길" /><tag k="addr:housenumber" v="36" /><tag k="source" v="공공데이터포털" /></node><node id="-200264" action="modify" visible="true" lat="37.53510542" lon="126.9937907"><tag k="amenity" v="restaurant" /><tag k="cuisine" v="italian" /><tag k="name" v="그릴" /><tag k="phone" v="+82 2 3786 6227" /><tag k="addr:street" v="이태원로27가길" /><tag k="addr:housenumber" v="26" /><tag k="level" v="-1" /><tag k="name:en" v="Grill" /><tag k="name:ko" v="그릴" /><tag k="source" v="공공데이터포털" /></node><node id="-200265" action="modify" visible="true" lat="37.53907671" lon="126.9893278"><tag k="amenity" v="restaurant" /><tag k="cuisine" v="thai" /><tag k="name" v="테이스트 오브 타이랜드" /><tag k="phone" v="+82 2 797 2722" /><tag k="addr:street" v="회나무로" /><tag k="addr:housenumber" v="22" /><tag k="level" v="2" /><tag k="name:en" v="Taste of Thailand" /><tag k="name:ko" v="테이스트 오브 타이랜드" /><tag k="source" v="공공데이터포털" /></node><node id="-200266" action="modify" visible="true" lat="37.53735448" lon="126.9999547"><tag k="amenity" v="restaurant" /><tag k="cuisine" v="italian" /><tag k="name" v="비스트로알리" /><tag k="phone" v="+82 2 798 2460" /><tag k="addr:street" v="이태원로55가길" /><tag k="addr:housenumber" v="26-4" /><tag k="name:en" v="Bistro AL`LI" /><tag k="name:ko" v="비스트로알리" /><tag k="source" v="공공데이터포털" /></node><node id="-200267" action="modify" visible="true" lat="37.53475931" lon="126.9917587"><tag k="amenity" v="restaurant" /><tag k="cuisine" v="american" /><tag k="name" v="제씨컴퍼니" /><tag k="phone" v="+82 2 795 1303" /><tag k="description" v="서양식 버거 &amp; 펍" /><tag k="addr:street" v="이태원로19길" /><tag k="addr:housenumber" v="5" /><tag k="level" v="3" /><tag k="source" v="공공데이터포털" /></node><node id="-200268" action="modify" visible="true" lat="37.53474131" lon="126.9919941"><tag k="amenity" v="restaurant" /><tag k="cuisine" v="italian" /><tag k="name" v="로즈앤크라운2" /><tag k="phone" v="+82 2 794 2555" /><tag k="addr:street" v="이태원로19길" /><tag k="addr:housenumber" v="6" /><tag k="level" v="3" /><tag k="source" v="공공데이터포털" /></node><node id="-200269" action="modify" visible="true" lat="37.53476294" lon="126.9921253"><tag k="amenity" v="restaurant" /><tag k="cuisine" v="italian" /><tag k="name" v="레뒤플라" /><tag k="phone" v="+82 2 797 2228" /><tag k="addr:street" v="이태원로19길" /><tag k="addr:housenumber" v="6-4" /><tag k="level" v="3" /><tag k="source" v="공공데이터포털" /></node><node id="-200270" action="modify" visible="true" lat="37.53489987" lon="126.9917361"><tag k="amenity" v="restaurant" /><tag k="cuisine" v="mexican" /><tag k="name" v="그릴5타코" /><tag k="phone" v="+82 2 790 5549" /><tag k="description" v="한국인 입맛에 맞는 멕시코 음식" /><tag k="addr:street" v="이태원로19길" /><tag k="addr:housenumber" v="9" /><tag k="level" v="1" /><tag k="source" v="공공데이터포털" /></node><node id="-200271" action="modify" visible="true" lat="37.53762839" lon="127.0001629"><tag k="amenity" v="restaurant" /><tag k="cuisine" v="japanese" /><tag k="name" v="사와강" /><tag k="phone" v="+82 2 797 1112" /><tag k="description" v="최고의 스시맛(스시강)" /><tag k="addr:street" v="이태원로55가길" /><tag k="addr:housenumber" v="18" /><tag k="source" v="공공데이터포털" /></node><node id="-200272" action="modify" visible="true" lat="37.53736169" lon="126.9998009"><tag k="amenity" v="restaurant" /><tag k="cuisine" v="american" /><tag k="name" v="잭슨피자주식회사" /><tag k="phone" v="+82 2 792 7374" /><tag k="description" v="미국스타일 오리지널 크러스트피자와 딥디쉬피자 그리고 윙과 스파게티&amp;맥주를 판매하는 아메리칸 펍앤다이닝 입니다." /><tag k="addr:street" v="이태원로55가길" /><tag k="addr:housenumber" v="26-1" /><tag k="level" v="1" /><tag k="source" v="공공데이터포털" /></node><node id="-200273" action="modify" visible="true" lat="37.53413235" lon="127.0060101"><tag k="amenity" v="restaurant" /><tag k="cuisine" v="japanese" /><tag k="name" v="하즈키친" /><tag k="phone" v="+82 2 792 0994" /><tag k="description" v="생활의 달인`일식4대천왕` 쉐프가 하는 집" /><tag k="addr:street" v="대사관로31길" /><tag k="addr:housenumber" v="20" /><tag k="level" v="2" /><tag k="source" v="공공데이터포털" /></node><node id="-200274" action="modify" visible="true" lat="37.53475931" lon="126.9917587"><tag k="amenity" v="restaurant" /><tag k="cuisine" v="italian" /><tag k="name" v="마이치치스" /><tag k="phone" v="+82 2 749 7753" /><tag k="addr:street" v="이태원로19길" /><tag k="addr:housenumber" v="5" /><tag k="level" v="1" /><tag k="name:en" v="my chichi`s" /><tag k="name:ko" v="마이치치스" /><tag k="source" v="공공데이터포털" /></node><node id="-200275" action="modify" visible="true" lat="37.53389463" lon="127.0011948"><tag k="amenity" v="restaurant" /><tag k="cuisine" v="italian" /><tag k="name" v="코로비아" /><tag k="phone" v="+82 2 795 9660" /><tag k="description" v="캐비어 이탈리안 레스토랑 미슐랭 출신의 주방장의 창의적인 메뉴를 선보임 분기별 전시 그림과 메뉴 리뉴얼 실시." /><tag k="addr:street" v="대사관로" /><tag k="addr:housenumber" v="25" /><tag k="level" v="1" /><tag k="source" v="공공데이터포털" /></node><node id="-200276" action="modify" visible="true" lat="37.53384057" lon="127.0017378"><tag k="amenity" v="restaurant" /><tag k="cuisine" v="italian" /><tag k="name" v="아르모니움" /><tag k="phone" v="+82 2 792 3972" /><tag k="description" v="운치있고 프로포즈하기 좋은 집" /><tag k="addr:street" v="대사관로" /><tag k="addr:housenumber" v="33" /><tag k="level" v="1; 2" /><tag k="source" v="공공데이터포털" /></node><node id="-200277" action="modify" visible="true" lat="37.53330715" lon="127.0030503"><tag k="amenity" v="restaurant" /><tag k="cuisine" v="german" /><tag k="name" v="도이취하우스" /><tag k="phone" v="+82 2 794 1313" /><tag k="description" v="직수입한 독일맥주를 넓은 홀에서 즐길 수 있는 집" /><tag k="addr:street" v="대사관로" /><tag k="addr:housenumber" v="46" /><tag k="level" v="1; 2" /><tag k="source" v="공공데이터포털" /></node><node id="-200278" action="modify" visible="true" lat="37.53335759" lon="127.0035481"><tag k="amenity" v="restaurant" /><tag k="cuisine" v="japanese" /><tag k="name" v="엔스시" /><tag k="phone" v="+82 2 790 8885" /><tag k="description" v="예쁜 스시와 깔끔함으로 고객을 끄는 집" /><tag k="addr:street" v="대사관로" /><tag k="addr:housenumber" v="48" /><tag k="level" v="1" /><tag k="source" v="공공데이터포털" /></node><node id="-200279" action="modify" visible="true" lat="37.53344762" lon="127.0054534"><tag k="amenity" v="restaurant" /><tag k="cuisine" v="vietnamese" /><tag k="name" v="월남집" /><tag k="phone" v="+82 2 749 5515" /><tag k="description" v="한남동 베트남음식 판매" /><tag k="addr:street" v="대사관로" /><tag k="addr:housenumber" v="65" /><tag k="level" v="1" /><tag k="source" v="공공데이터포털" /></node><node id="-200280" action="modify" visible="true" lat="37.53397019" lon="127.0057295"><tag k="amenity" v="restaurant" /><tag k="cuisine" v="italian" /><tag k="name" v="파올로데마리아" /><tag k="phone" v="+82 2 599 9936" /><tag k="addr:street" v="대사관로31길" /><tag k="addr:housenumber" v="13" /><tag k="name:en" v="Paolodemaria" /><tag k="name:ko" v="파올로데마리아" /><tag k="source" v="공공데이터포털" /></node><node id="-200281" action="modify" visible="true" lat="37.53413235" lon="127.0060101"><tag k="amenity" v="restaurant" /><tag k="cuisine" v="japanese" /><tag k="name" v="하즈벤" /><tag k="phone" v="+82 2 797 7272" /><tag k="description" v="초밥, 벤또가 맛있는 집" /><tag k="addr:street" v="대사관로31길" /><tag k="addr:housenumber" v="20" /><tag k="level" v="1" /><tag k="source" v="공공데이터포털" /></node><node id="-200282" action="modify" visible="true" lat="37.53433778" lon="127.0060463"><tag k="amenity" v="restaurant" /><tag k="cuisine" v="japanese" /><tag k="name" v="마구로센" /><tag k="phone" v="+82 2 792 1110" /><tag k="description" v="국내 최초 생참치 취급점(예약필수)" /><tag k="addr:street" v="대사관로31길" /><tag k="addr:housenumber" v="24" /><tag k="level" v="1" /><tag k="source" v="공공데이터포털" /></node><node id="-200283" action="modify" visible="true" lat="37.53274483" lon="126.9943883"><tag k="amenity" v="restaurant" /><tag k="cuisine" v="thai" /><tag k="name" v="마이면" /><tag k="phone" v="+82 2 794 3343" /><tag k="description" v="현지인 쉐프가 만든 태국길거리 음식" /><tag k="addr:street" v="보광로" /><tag k="addr:housenumber" v="111" /><tag k="level" v="1" /><tag k="source" v="공공데이터포털" /></node><node id="-200284" action="modify" visible="true" lat="37.53274483" lon="126.9943883"><tag k="amenity" v="restaurant" /><tag k="cuisine" v="japanese" /><tag k="name" v="시소스시" /><tag k="phone" v="+82 2 794 3343" /><tag k="addr:street" v="보광로" /><tag k="addr:housenumber" v="111" /><tag k="source" v="공공데이터포털" /></node><node id="-200285" action="modify" visible="true" lat="37.5328854" lon="126.9946553"><tag k="amenity" v="restaurant" /><tag k="cuisine" v="american" /><tag k="name" v="리버틴" /><tag k="phone" v="+82 2 790 9477" /><tag k="description" v="이태원 브런치문화를 선도하는 난봉꾼" /><tag k="addr:street" v="보광로" /><tag k="addr:housenumber" v="112-3" /><tag k="level" v="1" /><tag k="source" v="공공데이터포털" /></node><node id="-200286" action="modify" visible="true" lat="37.53344762" lon="126.99461"><tag k="amenity" v="restaurant" /><tag k="cuisine" v="french" /><tag k="name" v="꾸띠자르당" /><tag k="phone" v="+82 2 793 5072" /><tag k="description" v="이태원 대표 프랑스레스토랑" /><tag k="addr:street" v="보광로" /><tag k="addr:housenumber" v="120" /><tag k="level" v="1; 2" /><tag k="source" v="공공데이터포털" /></node><node id="-200287" action="modify" visible="true" lat="37.53404223" lon="126.9934967"><tag k="amenity" v="restaurant" /><tag k="cuisine" v="mexican" /><tag k="name" v="하시엔다" /><tag k="phone" v="+82 70 4405 6322" /><tag k="addr:street" v="보광로59길" /><tag k="addr:housenumber" v="10" /><tag k="source" v="공공데이터포털" /></node><node id="-200288" action="modify" visible="true" lat="37.53382233" lon="126.9925599"><tag k="amenity" v="restaurant" /><tag k="cuisine" v="french" /><tag k="name" v="도리키친" /><tag k="phone" v="+82 2 790 1553" /><tag k="description" v="분위기가 좋음" /><tag k="addr:street" v="보광로59길" /><tag k="addr:housenumber" v="25" /><tag k="source" v="공공데이터포털" /></node><node id="-200289" action="modify" visible="true" lat="37.53403496" lon="126.9925101"><tag k="amenity" v="restaurant" /><tag k="cuisine" v="american" /><tag k="name" v="더푸드트럭커스" /><tag k="phone" v="+82 2 3785 2015" /><tag k="addr:street" v="보광로59길" /><tag k="addr:housenumber" v="26" /><tag k="source" v="공공데이터포털" /></node><node id="-200290" action="modify" visible="true" lat="37.53375731" lon="126.9905912"><tag k="amenity" v="restaurant" /><tag k="cuisine" v="japanese" /><tag k="name" v="스시이태원" /><tag k="phone" v="+82 2 794 3937" /><tag k="addr:street" v="보광로59길" /><tag k="addr:housenumber" v="62" /><tag k="level" v="2" /><tag k="source" v="공공데이터포털" /></node><node id="-200291" action="modify" visible="true" lat="37.53300082" lon="126.9975698"><tag k="amenity" v="restaurant" /><tag k="cuisine" v="indian" /><tag k="name" v="자프란레스토랑" /><tag k="phone" v="+82 2 794 3570" /><tag k="description" v="인도 현지 요리사가 직접만드는 정통인도 요리" /><tag k="addr:street" v="우사단로10길" /><tag k="addr:housenumber" v="36" /><tag k="level" v="2;3" /><tag k="source" v="공공데이터포털" /></node><node id="-200292" action="modify" visible="true" lat="37.5332495" lon="126.997615"><tag k="amenity" v="restaurant" /><tag k="cuisine" v="turkish" /><tag k="name" v="쌀람" /><tag k="phone" v="+82 2 793 4323" /><tag k="description" v="케밥전문점" /><tag k="addr:street" v="우사단로10길" /><tag k="addr:housenumber" v="39" /><tag k="source" v="공공데이터포털" /></node><node id="-200293" action="modify" visible="true" lat="37.53281703" lon="126.9982486"><tag k="amenity" v="restaurant" /><tag k="cuisine" v="pakistani" /><tag k="name" v="피에이케이인디아" /><tag k="phone" v="+82 2 790 1509" /><tag k="description" v="아담하고 조용한 음식점" /><tag k="addr:street" v="우사단로10길" /><tag k="addr:housenumber" v="49" /><tag k="source" v="공공데이터포털" /></node><node id="-200294" action="modify" visible="true" lat="37.53263323" lon="126.9982622"><tag k="amenity" v="restaurant" /><tag k="cuisine" v="korean" /><tag k="name" v="마깐레스토랑" /><tag k="phone" v="+82 2 6012 2231" /><tag k="description" v="아담한 식당 분위기(불고기 전문점)" /><tag k="addr:street" v="우사단로10길" /><tag k="addr:housenumber" v="52" /><tag k="diet:halal" v="yes" /><tag k="source" v="공공데이터포털" /></node><node id="-200295" action="modify" visible="true" lat="37.53237735" lon="126.9991854"><tag k="amenity" v="restaurant" /><tag k="cuisine" v="korean" /><tag k="name" v="이드" /><tag k="phone" v="+82 2 6012 2231" /><tag k="description" v="국내 할랄 한식당" /><tag k="addr:street" v="우사단로10길" /><tag k="addr:housenumber" v="67" /><tag k="name:en" v="EID" /><tag k="name:ko" v="이드" /><tag k="diet:halal" v="yes" /><tag k="source" v="공공데이터포털" /></node><node id="-200296" action="modify" visible="true" lat="37.53396625" lon="126.9894372"><tag k="amenity" v="restaurant" /><tag k="cuisine" v="american" /><tag k="name" v="랍스터 바" /><tag k="phone" v="+82 70 8225 3963" /><tag k="description" v="국내 랍스터 열풍을 주도한 대표 랍스터 전문점 랍스터와 각종 해산물을 이용해 양식 및 퓨전 스타일 메뉴로 제공" /><tag k="addr:street" v="이태원로" /><tag k="addr:housenumber" v="140-1" /><tag k="name:en" v="Lobster Bar" /><tag k="name:ko" v="랍스터 바" /><tag k="addr:housename" v="빅토리타운" /><tag k="source" v="공공데이터포털" /></node><node id="-200297" action="modify" visible="true" lat="37.53397342" lon="126.9890299"><tag k="amenity" v="restaurant" /><tag k="cuisine" v="greek" /><tag k="name" v="산토리니 타베르나" /><tag k="phone" v="+82 2 749 4517" /><tag k="addr:street" v="이태원로" /><tag k="addr:housenumber" v="136-1" /><tag k="name:ko" v="산토리니 타베르나" /><tag k="source" v="공공데이터포털" /></node><node id="-200298" action="modify" visible="true" lat="37.53378967" lon="126.9896816"><tag k="amenity" v="restaurant" /><tag k="cuisine" v="argentinian" /><tag k="name" v="다코너" /><tag k="phone" v="+82 2 792 6013" /><tag k="addr:street" v="이태원로" /><tag k="addr:housenumber" v="136-13" /><tag k="source" v="공공데이터포털" /></node><node id="-200299" action="modify" visible="true" lat="37.53390854" lon="126.9890072"><tag k="amenity" v="restaurant" /><tag k="cuisine" v="italian" /><tag k="name" v="더피자필" /><tag k="phone" v="+82 2 795 3283" /><tag k="addr:street" v="이태원로" /><tag k="addr:housenumber" v="136-4" /><tag k="source" v="공공데이터포털" /></node><node id="-200300" action="modify" visible="true" lat="37.5341863" lon="126.9920801"><tag k="amenity" v="restaurant" /><tag k="cuisine" v="american" /><tag k="name" v="라이포스트 이태원1호점" /><tag k="phone" v="+82 2 792 9991" /><tag k="addr:street" v="이태원로" /><tag k="addr:housenumber" v="164" /><tag k="source" v="공공데이터포털" /></node><node id="-200301" action="modify" visible="true" lat="37.53422239" lon="126.9929445"><tag k="amenity" v="restaurant" /><tag k="cuisine" v="american" /><tag k="name" v="(유)아웃백스테이크하우스 이태원점" /><tag k="phone" v="+82 2 749 5101" /><tag k="addr:street" v="이태원로" /><tag k="addr:housenumber" v="172" /><tag k="source" v="공공데이터포털" /></node><node id="-200302" action="modify" visible="true" lat="37.53422967" lon="126.9941845"><tag k="amenity" v="restaurant" /><tag k="cuisine" v="mexican" /><tag k="name" v="타코벨 이태원지점" /><tag k="phone" v="+82 2 749 6696" /><tag k="addr:street" v="이태원로" /><tag k="addr:housenumber" v="180" /><tag k="source" v="공공데이터포털" /></node><node id="-200303" action="modify" visible="true" lat="37.53422967" lon="126.9941845"><tag k="amenity" v="restaurant" /><tag k="cuisine" v="arab" /><tag k="name" v="신밧드" /><tag k="phone" v="+82 2 792 0069" /><tag k="addr:street" v="이태원로" /><tag k="addr:housenumber" v="180" /><tag k="source" v="공공데이터포털" /></node><node id="-200304" action="modify" visible="true" lat="37.5343414" lon="126.9942886"><tag k="amenity" v="restaurant" /><tag k="cuisine" v="turkish" /><tag k="name" v="앙카라피크닉" /><tag k="phone" v="+82 2 793 2550" /><tag k="addr:street" v="이태원로" /><tag k="addr:housenumber" v="182" /><tag k="source" v="공공데이터포털" /></node><node id="-200305" action="modify" visible="true" lat="37.5348568" lon="126.9949131"><tag k="amenity" v="restaurant" /><tag k="cuisine" v="turkish" /><tag k="name" v="파샤" /><tag k="phone" v="+82 2 793 6144" /><tag k="addr:street" v="이태원로" /><tag k="addr:housenumber" v="189" /><tag k="name:en" v="PASHA" /><tag k="name:ko" v="파샤" /><tag k="source" v="공공데이터포털" /></node><node id="-200306" action="modify" visible="true" lat="37.53435585" lon="126.9951485"><tag k="amenity" v="restaurant" /><tag k="cuisine" v="turkish" /><tag k="name" v="케르반레스토랑" /><tag k="phone" v="+82 2 792 4767" /><tag k="addr:street" v="이태원로" /><tag k="addr:housenumber" v="190" /><tag k="source" v="공공데이터포털" /></node><node id="-200307" action="modify" visible="true" lat="37.53436667" lon="126.9953703"><tag k="amenity" v="restaurant" /><tag k="cuisine" v="turkish" /><tag k="name" v="미스터케밥" /><tag k="phone" v="+82 2 3463 2356" /><tag k="description" v="다양한 터키 케밥과 할랄 음식의 대표적 음식점" /><tag k="addr:street" v="이태원로" /><tag k="addr:housenumber" v="192" /><tag k="source" v="공공데이터포털" /></node><node id="-200308" action="modify" visible="true" lat="37.53436667" lon="126.9953703"><tag k="amenity" v="restaurant" /><tag k="cuisine" v="turkish" /><tag k="name" v="앙카라펠레스" /><tag k="phone" v="+82 2 3785 3787" /><tag k="addr:street" v="이태원로" /><tag k="addr:housenumber" v="192" /><tag k="source" v="공공데이터포털" /></node><node id="-200309" action="modify" visible="true" lat="37.53436667" lon="126.9953703"><tag k="amenity" v="restaurant" /><tag k="cuisine" v="arab" /><tag k="name" v="두바이" /><tag k="phone" v="+82 2 798 9277" /><tag k="addr:street" v="이태원로" /><tag k="addr:housenumber" v="192" /><tag k="name:en" v="DUBAI" /><tag k="name:ko" v="두바이" /><tag k="source" v="공공데이터포털" /></node><node id="-200310" action="modify" visible="true" lat="37.53320232" lon="126.9908493"><tag k="amenity" v="restaurant" /><tag k="cuisine" v="paraguayan" /><tag k="name" v="프로메사" /><tag k="phone" v="+82 2 515 4075" /><tag k="addr:street" v="이태원로14길" /><tag k="addr:housenumber" v="26" /><tag k="source" v="공공데이터포털" /></node><node id="-200311" action="modify" visible="true" lat="37.53675261" lon="126.9997058"><tag k="amenity" v="restaurant" /><tag k="cuisine" v="italian" /><tag k="name" v="비밀" /><tag k="phone" v="+82 2 797 0715" /><tag k="description" v="기존 파스타가 아닌 건강식 재료를 사용한 건강식 파스타" /><tag k="addr:street" v="이태원로55가길" /><tag k="addr:housenumber" v="35" /><tag k="level" v="1" /><tag k="name:en" v="Bmeal" /><tag k="name:ko" v="비밀" /><tag k="source" v="공공데이터포털" /></node><node id="-200312" action="modify" visible="true" lat="37.53688236" lon="126.9995338"><tag k="amenity" v="restaurant" /><tag k="cuisine" v="japanese" /><tag k="name" v="진돈부리" /><tag k="phone" v="+82 2 797 1179" /><tag k="description" v="일본재료를 사용해서 당일 판매재료만 판매합니다." /><tag k="addr:street" v="이태원로55가길" /><tag k="addr:housenumber" v="38" /><tag k="level" v="1" /><tag k="source" v="공공데이터포털" /></node><node id="-200313" action="modify" visible="true" lat="37.53824827" lon="127.0008599"><tag k="amenity" v="restaurant" /><tag k="cuisine" v="japanese" /><tag k="name" v="스시제트" /><tag k="phone" v="+82 2 795 4267" /><tag k="description" v="스시 &amp; 데판 전문" /><tag k="addr:street" v="이태원로55길" /><tag k="addr:housenumber" v="11" /><tag k="level" v="1; 2" /><tag k="name:ko" v="스시제트" /><tag k="source" v="공공데이터포털" /></node><node id="-200314" action="modify" visible="true" lat="37.5338151" lon="126.9922159"><tag k="amenity" v="restaurant" /><tag k="cuisine" v="vietnamese" /><tag k="name" v="르사이공" /><tag k="phone" v="+82 2 792 0336" /><tag k="addr:street" v="보광로59길" /><tag k="addr:housenumber" v="31" /><tag k="level" v="1" /><tag k="name:ko" v="르사이공" /><tag k="source" v="공공데이터포털" /></node></osm>