<?xml version='1.0' encoding='utf-8'?>
<osm version="0.6" generator="JOSM"><node id="-200001" action="modify" visible="true" lat="37.5426714" lon="127.0646503"><tag k="cuisine" v="korean" /><tag k="name" v="(주)남원추어탕" /><tag k="phone" v="+82 2 498 8649" /><tag k="source:date" v="2021-01-29" /><tag k="amenity" v="restaurant" /><tag k="addr:street" v="동일로" /><tag k="addr:housenumber" v="114" /><tag k="addr:subdistrict" v="화양동" /></node><node id="-200002" action="modify" visible="true" lat="37.5547181" lon="127.08812"><tag k="cuisine" v="korean" /><tag k="name" v="(주)장군갈비" /><tag k="phone" v="+82 2 457 3241" /><tag k="source:date" v="2021-01-29" /><tag k="amenity" v="restaurant" /><tag k="addr:street" v="용마산로" /><tag k="addr:housenumber" v="11" /><tag k="addr:subdistrict" v="중곡2동" /></node><node id="-200003" action="modify" visible="true" lat="37.56468" lon="127.0869436"><tag k="cuisine" v="korean" /><tag k="name" v="가마솥도가니탕 장수옥" /><tag k="phone" v="+82 2 444 6888" /><tag k="source:date" v="2021-01-29" /><tag k="amenity" v="restaurant" /><tag k="addr:street" v="용마산로" /><tag k="addr:housenumber" v="124" /><tag k="addr:subdistrict" v="중곡4동" /></node><node id="-200004" action="modify" visible="true" lat="37.5380016" lon="127.0851621"><tag k="cuisine" v="korean" /><tag k="name" v="거보주" /><tag k="phone" v="+82 2 456 2266" /><tag k="source:date" v="2021-01-29" /><tag k="amenity" v="restaurant" /><tag k="addr:street" v="아차산로51길" /><tag k="addr:housenumber" v="24" /><tag k="addr:subdistrict" v="구의1동" /></node><node id="-200005" action="modify" visible="true" lat="37.5456713" lon="127.0759066"><tag k="cuisine" v="korean" /><tag k="name" v="건국갈비" /><tag k="phone" v="+82 2 2201 0018" /><tag k="source:date" v="2021-01-29" /><tag k="amenity" v="restaurant" /><tag k="addr:street" v="광나루로22가길" /><tag k="addr:housenumber" v="18" /><tag k="addr:subdistrict" v="화양동" /></node><node id="-200006" action="modify" visible="true" lat="37.551573" lon="127.1109741"><tag k="cuisine" v="korean" /><tag k="name" v="광장동 가온" /><tag k="phone" v="+82 2 3436 7100" /><tag k="source:date" v="2021-01-29" /><tag k="amenity" v="restaurant" /><tag k="addr:street" v="아차산로78길" /><tag k="addr:housenumber" v="75" /><tag k="addr:subdistrict" v="광장동" /><tag k="addr:door" v="106" /></node><node id="-200007" action="modify" visible="true" lat="37.5466931" lon="127.1024213"><tag k="cuisine" v="korean" /><tag k="name" v="남원율천추어탕" /><tag k="phone" v="+82 2 549 3066" /><tag k="source:date" v="2021-01-29" /><tag k="amenity" v="restaurant" /><tag k="addr:street" v="아차산로73길" /><tag k="addr:housenumber" v="48" /><tag k="addr:subdistrict" v="광장동" /><tag k="level" v="-1" /></node><node id="-200008" action="modify" visible="true" lat="37.539935" lon="127.0695705"><tag k="cuisine" v="korean" /><tag k="name" v="냉면전문점이대팔" /><tag k="phone" v="+82 2 499 0458" /><tag k="source:date" v="2021-01-29" /><tag k="amenity" v="restaurant" /><tag k="addr:street" v="아차산로" /><tag k="addr:housenumber" v="238" /><tag k="addr:subdistrict" v="자양4동" /><tag k="level" v="1" /></node><node id="-200009" action="modify" visible="true" lat="37.5419929" lon="127.0943562"><tag k="cuisine" v="korean" /><tag k="name" v="대가식당" /><tag k="phone" v="+82 2 456 1944" /><tag k="source:date" v="2021-01-29" /><tag k="amenity" v="restaurant" /><tag k="addr:street" v="광나루로" /><tag k="addr:housenumber" v="596" /><tag k="addr:subdistrict" v="구의3동" /></node><node id="-200010" action="modify" visible="true" lat="37.5358089" lon="127.0684009"><tag k="cuisine" v="korean" /><tag k="name" v="대갈집" /><tag k="phone" v="+82 2 463 2702" /><tag k="source:date" v="2021-01-29" /><tag k="amenity" v="restaurant" /><tag k="addr:street" v="능동로" /><tag k="addr:housenumber" v="49" /><tag k="addr:subdistrict" v="자양4동" /></node><node id="-200011" action="modify" visible="true" lat="37.5429115" lon="127.0985331"><tag k="cuisine" v="korean" /><tag k="name" v="은행나무집" /><tag k="phone" v="+82 2 457 7100" /><tag k="source:date" v="2021-01-29" /><tag k="amenity" v="restaurant" /><tag k="addr:street" v="아차산로69길" /><tag k="addr:housenumber" v="20" /><tag k="addr:subdistrict" v="광장동" /></node><node id="-200012" action="modify" visible="true" lat="37.5349372" lon="127.0957088"><tag k="cuisine" v="japanese" /><tag k="name" v="동신참치" /><tag k="phone" v="+82 2 3424 1338" /><tag k="source:date" v="2021-01-29" /><tag k="amenity" v="restaurant" /><tag k="addr:street" v="광나루로56길" /><tag k="addr:housenumber" v="85" /><tag k="addr:subdistrict" v="구의3동" /><tag k="level" v="9" /><tag k="addr:door" v="36" /></node><node id="-200013" action="modify" visible="true" lat="37.5452127" lon="127.0667517"><tag k="cuisine" v="korean" /><tag k="name" v="동해해물" /><tag k="phone" v="+82 2 469 5843" /><tag k="source:date" v="2021-01-29" /><tag k="amenity" v="restaurant" /><tag k="addr:street" v="동일로26길" /><tag k="addr:housenumber" v="16" /><tag k="addr:subdistrict" v="화양동" /></node><node id="-200014" action="modify" visible="true" lat="37.5492754" lon="127.0912249"><tag k="cuisine" v="korean" /><tag k="name" v="망향비빔국수" /><tag k="phone" v="+82 2 454 1357" /><tag k="source:date" v="2021-01-29" /><tag k="amenity" v="restaurant" /><tag k="addr:street" v="천호대로" /><tag k="addr:housenumber" v="694" /><tag k="addr:subdistrict" v="구의2동" /><tag k="level" v="1" /></node><node id="-200015" action="modify" visible="true" lat="37.5363506" lon="127.0627208"><tag k="cuisine" v="korean" /><tag k="name" v="부림정" /><tag k="phone" v="+82 2 463 5455" /><tag k="source:date" v="2021-01-29" /><tag k="amenity" v="restaurant" /><tag k="addr:street" v="뚝섬로" /><tag k="addr:housenumber" v="476-7" /><tag k="addr:subdistrict" v="자양4동" /></node><node id="-200016" action="modify" visible="true" lat="37.5428518" lon="127.0936838"><tag k="cuisine" v="japanese" /><tag k="name" v="비조" /><tag k="phone" v="+82 2 455 1345" /><tag k="source:date" v="2021-01-29" /><tag k="amenity" v="restaurant" /><tag k="addr:street" v="광나루로" /><tag k="addr:housenumber" v="586" /><tag k="addr:subdistrict" v="구의3동" /></node><node id="-200017" action="modify" visible="true" lat="37.5516078" lon="127.0761909"><tag k="cuisine" v="international" /><tag k="name" v="빕스(VIPS) 어린이대공원점" /><tag k="phone" v="+82 2 462 0997" /><tag k="source:date" v="2021-01-29" /><tag k="amenity" v="restaurant" /><tag k="addr:street" v="능동로" /><tag k="addr:housenumber" v="239" /><tag k="addr:subdistrict" v="군자동" /><tag k="level" v="2" /></node><node id="-200018" action="modify" visible="true" lat="37.5466931" lon="127.1024213"><tag k="cuisine" v="korean" /><tag k="name" v="산울" /><tag k="phone" v="+82 2 453 2277" /><tag k="source:date" v="2021-01-29" /><tag k="amenity" v="restaurant" /><tag k="addr:street" v="아차산로73길" /><tag k="addr:housenumber" v="48" /><tag k="addr:subdistrict" v="광장동" /><tag k="level" v="2" /><tag k="addr:door" v="201" /></node><node id="-200019" action="modify" visible="true" lat="37.5512509" lon="127.0760697"><tag k="cuisine" v="chinese" /><tag k="name" v="샹그라" /><tag k="phone" v="+82 2 464 8088" /><tag k="source:date" v="2021-01-29" /><tag k="amenity" v="restaurant" /><tag k="addr:street" v="능동로" /><tag k="addr:housenumber" v="237" /><tag k="addr:subdistrict" v="군자동" /></node><node id="-200020" action="modify" visible="true" lat="37.5558218" lon="127.0804375"><tag k="cuisine" v="korean" /><tag k="name" v="소야지" /><tag k="phone" v="+82 2 446 7645" /><tag k="source:date" v="2021-01-29" /><tag k="amenity" v="restaurant" /><tag k="addr:street" v="능동로36길" /><tag k="addr:housenumber" v="24" /><tag k="addr:subdistrict" v="능동" /></node><node id="-200021" action="modify" visible="true" lat="37.5387443" lon="127.0665517"><tag k="cuisine" v="chinese" /><tag k="name" v="송화양꼬치" /><tag k="phone" v="+82 2 462 7826" /><tag k="source:date" v="2021-01-29" /><tag k="amenity" v="restaurant" /><tag k="addr:street" v="동일로18길" /><tag k="addr:housenumber" v="70" /><tag k="addr:subdistrict" v="자양4동" /></node><node id="-200022" action="modify" visible="true" lat="37.5402789" lon="127.0828938"><tag k="cuisine" v="korean" /><tag k="name" v="신선설농탕" /><tag k="phone" v="+82 2 454 7944" /><tag k="source:date" v="2021-01-29" /><tag k="amenity" v="restaurant" /><tag k="addr:street" v="자양로" /><tag k="addr:housenumber" v="139" /><tag k="addr:subdistrict" v="자양1동" /></node><node id="-200023" action="modify" visible="true" lat="37.5608602" lon="127.0852777"><tag k="cuisine" v="korean" /><tag k="name" v="심마니유황오리" /><tag k="phone" v="+82 2 452 1610" /><tag k="source:date" v="2021-01-29" /><tag k="amenity" v="restaurant" /><tag k="addr:street" v="긴고랑로" /><tag k="addr:housenumber" v="85" /><tag k="addr:subdistrict" v="중곡2동" /></node><node id="-200024" action="modify" visible="true" lat="37.5398604" lon="127.0932221"><tag k="cuisine" v="japanese" /><tag k="name" v="영덕물회&amp;생태" /><tag k="phone" v="+82 2 454 3396" /><tag k="source:date" v="2021-01-29" /><tag k="amenity" v="restaurant" /><tag k="addr:street" v="아차산로" /><tag k="addr:housenumber" v="461" /><tag k="addr:subdistrict" v="구의3동" /><tag k="level" v="1" /></node><node id="-200025" action="modify" visible="true" lat="37.5363359" lon="127.0852153"><tag k="cuisine" v="korean" /><tag k="name" v="영산강" /><tag k="phone" v="+82 2 452 2119" /><tag k="source:date" v="2021-01-29" /><tag k="amenity" v="restaurant" /><tag k="addr:street" v="자양로16길" /><tag k="addr:housenumber" v="24" /><tag k="addr:subdistrict" v="자양2동" /></node><node id="-200026" action="modify" visible="true" lat="37.5424794" lon="127.0652128"><tag k="cuisine" v="korean" /><tag k="name" v="예담밥상" /><tag k="phone" v="+82 2 469 0072" /><tag k="source:date" v="2021-01-29" /><tag k="amenity" v="restaurant" /><tag k="addr:street" v="동일로22길" /><tag k="addr:housenumber" v="13" /><tag k="addr:subdistrict" v="화양동" /></node><node id="-200027" action="modify" visible="true" lat="37.5545639" lon="127.0968977"><tag k="cuisine" v="korean" /><tag k="name" v="옹기생삼겹살" /><tag k="phone" v="+82 2 447 3492" /><tag k="source:date" v="2021-01-29" /><tag k="amenity" v="restaurant" /><tag k="addr:street" v="영화사로" /><tag k="addr:housenumber" v="97" /><tag k="addr:subdistrict" v="구의2동" /></node><node id="-200028" action="modify" visible="true" lat="37.5673562" lon="127.0864933"><tag k="cuisine" v="korean" /><tag k="name" v="유일설렁탕" /><tag k="phone" v="+82 2 452 5860" /><tag k="source:date" v="2021-01-29" /><tag k="amenity" v="restaurant" /><tag k="addr:street" v="용마산로" /><tag k="addr:housenumber" v="154" /><tag k="addr:subdistrict" v="중곡4동" /></node><node id="-200029" action="modify" visible="true" lat="37.5474829" lon="127.1074896"><tag k="cuisine" v="korean" /><tag k="name" v="중일가든" /><tag k="phone" v="+82 2 447 4111" /><tag k="source:date" v="2021-01-29" /><tag k="amenity" v="restaurant" /><tag k="addr:street" v="아차산로76가길" /><tag k="addr:housenumber" v="4" /><tag k="addr:subdistrict" v="광장동" /></node><node id="-200030" action="modify" visible="true" lat="37.5582095" lon="127.0792729"><tag k="cuisine" v="korean" /><tag k="name" v="지담정" /><tag k="phone" v="+82 2 2205 3777" /><tag k="source:date" v="2021-01-29" /><tag k="amenity" v="restaurant" /><tag k="addr:street" v="능동로37길" /><tag k="addr:housenumber" v="10-3" /><tag k="addr:subdistrict" v="중곡1동" /></node><node id="-200031" action="modify" visible="true" lat="37.5331659" lon="127.0762135"><tag k="cuisine" v="korean" /><tag k="name" v="찜집" /><tag k="phone" v="+82 2 446 1149" /><tag k="source:date" v="2021-01-29" /><tag k="amenity" v="restaurant" /><tag k="addr:street" v="자양번영로" /><tag k="addr:housenumber" v="44" /><tag k="addr:subdistrict" v="자양1동" /></node><node id="-200032" action="modify" visible="true" lat="37.5633567" lon="127.0872224"><tag k="cuisine" v="korean" /><tag k="name" v="채선당" /><tag k="phone" v="+82 2 452 5200" /><tag k="source:date" v="2021-01-29" /><tag k="amenity" v="restaurant" /><tag k="addr:street" v="용마산로" /><tag k="addr:housenumber" v="110" /><tag k="addr:subdistrict" v="중곡4동" /></node><node id="-200033" action="modify" visible="true" lat="37.5382075" lon="127.0912914"><tag k="cuisine" v="korean" /><tag k="name" v="천년의섬 명품 광어" /><tag k="phone" v="+82 2 457 9706" /><tag k="source:date" v="2021-01-29" /><tag k="amenity" v="restaurant" /><tag k="addr:street" v="아차산로" /><tag k="addr:housenumber" v="438" /><tag k="addr:subdistrict" v="구의3동" /></node><node id="-200034" action="modify" visible="true" lat="37.5394861" lon="127.0924708"><tag k="cuisine" v="korean" /><tag k="name" v="춘향골남원추어탕" /><tag k="phone" v="+82 2 446 4005" /><tag k="source:date" v="2021-01-29" /><tag k="amenity" v="restaurant" /><tag k="addr:street" v="아차산로" /><tag k="addr:housenumber" v="453-1" /><tag k="addr:subdistrict" v="구의3동" /></node><node id="-200035" action="modify" visible="true" lat="37.5424128" lon="127.0936563"><tag k="cuisine" v="international" /><tag k="name" v="팀스쿡" /><tag k="phone" v="+82 2 447 0880" /><tag k="source:date" v="2021-01-29" /><tag k="amenity" v="restaurant" /><tag k="addr:street" v="광나루로50길" /><tag k="addr:housenumber" v="10" /><tag k="addr:subdistrict" v="구의3동" /><tag k="level" v="1-2" /></node><node id="-200036" action="modify" visible="true" lat="37.5520304" lon="127.07642"><tag k="cuisine" v="chinese" /><tag k="name" v="하이난" /><tag k="phone" v="+82 2 466 0832" /><tag k="source:date" v="2021-01-29" /><tag k="amenity" v="restaurant" /><tag k="addr:street" v="능동로" /><tag k="addr:housenumber" v="243-1" /><tag k="addr:subdistrict" v="군자동" /><tag k="level" v="-1" /></node><node id="-200037" action="modify" visible="true" lat="37.5477372" lon="127.1095417"><tag k="cuisine" v="korean" /><tag k="name" v="한강옥" /><tag k="phone" v="+82 2 456 0091" /><tag k="source:date" v="2021-01-29" /><tag k="amenity" v="restaurant" /><tag k="addr:street" v="아차산로78길" /><tag k="addr:housenumber" v="147" /><tag k="addr:subdistrict" v="광장동" /></node><node id="-200038" action="modify" visible="true" lat="37.545067" lon="127.0797571"><tag k="cuisine" v="korean" /><tag k="name" v="함흥본가면옥" /><tag k="phone" v="+82 2 447 8806" /><tag k="source:date" v="2021-01-29" /><tag k="amenity" v="restaurant" /><tag k="addr:street" v="광나루로" /><tag k="addr:housenumber" v="456" /><tag k="addr:subdistrict" v="화양동" /></node><node id="-200039" action="modify" visible="true" lat="37.5476428" lon="127.0715491"><tag k="cuisine" v="korean" /><tag k="name" v="황금어장" /><tag k="phone" v="+82 2 467 4414" /><tag k="source:date" v="2021-01-29" /><tag k="amenity" v="restaurant" /><tag k="addr:street" v="광나루로" /><tag k="addr:housenumber" v="376" /><tag k="addr:subdistrict" v="화양동" /></node><node id="-200040" action="modify" visible="true" lat="37.5316603" lon="127.0792916"><tag k="cuisine" v="korean" /><tag k="name" v="장원닭한마리" /><tag k="phone" v="+82 2 446 9662" /><tag k="source:date" v="2021-01-29" /><tag k="amenity" v="restaurant" /><tag k="addr:street" v="뚝섬로52길" /><tag k="addr:housenumber" v="8" /><tag k="addr:subdistrict" v="자양2동" /></node><node id="-200041" action="modify" visible="true" lat="37.5434818" lon="127.0699485"><tag k="cuisine" v="korean" /><tag k="name" v="민벅" /><tag k="source:date" v="2021-01-29" /><tag k="amenity" v="restaurant" /><tag k="addr:street" v="능동로13길" /><tag k="addr:housenumber" v="39" /><tag k="addr:subdistrict" v="화양동" /></node><node id="-200042" action="modify" visible="true" lat="37.5414436" lon="127.0692519"><tag k="cuisine" v="korean" /><tag k="name" v="주식회사 돕" /><tag k="source:date" v="2021-01-29" /><tag k="amenity" v="restaurant" /><tag k="addr:street" v="아차산로31길" /><tag k="addr:housenumber" v="9" /><tag k="addr:subdistrict" v="화양동" /></node><node id="-200043" action="modify" visible="true" lat="37.5559236" lon="127.0797402"><tag k="cuisine" v="korean" /><tag k="name" v="홍천화로숯불구이" /><tag k="source:date" v="2021-01-29" /><tag k="amenity" v="restaurant" /><tag k="addr:street" v="천호대로110길" /><tag k="addr:housenumber" v="27" /><tag k="addr:subdistrict" v="능동" /></node><node id="-200044" action="modify" visible="true" lat="37.547004" lon="127.072799"><tag k="cuisine" v="korean" /><tag k="name" v="숨비소리" /><tag k="phone" v="+82 2 466 5892" /><tag k="source:date" v="2021-01-29" /><tag k="amenity" v="restaurant" /><tag k="addr:housenumber" v="112-16" /><tag k="addr:subdistrict" v="화양동" /></node><node id="-200045" action="modify" visible="true" lat="37.538368" lon="127.090389"><tag k="cuisine" v="korean" /><tag k="name" v="콩이랑두부랑" /><tag k="phone" v="+82 2 3425 3800" /><tag k="source:date" v="2021-01-29" /><tag k="amenity" v="restaurant" /><tag k="addr:housenumber" v="244-62" /><tag k="addr:subdistrict" v="구의동" /></node><node id="-200046" action="modify" visible="true" lat="37.557005" lon="127.078257"><tag k="cuisine" v="korean" /><tag k="name" v="태평양수산회세꼬시" /><tag k="phone" v="+82 2 499 9192" /><tag k="source:date" v="2021-01-29" /><tag k="amenity" v="restaurant" /><tag k="addr:street" v="군자로" /><tag k="addr:housenumber" v="183" /></node><node id="-200047" action="modify" visible="true" lat="37.552881" lon="127.07686"><tag k="cuisine" v="korean" /><tag k="name" v="한촌설렁탕군자점" /><tag k="phone" v="+82 2 468 4200" /><tag k="source:date" v="2021-01-29" /><tag k="amenity" v="restaurant" /><tag k="addr:subdistrict" v="군자동" /><tag k="level" v="1" /></node></osm>