<?xml version='1.0' encoding='utf-8'?>
<osm version="0.6" generator="JOSM"><node id="-200001" action="modify" visible="true" lat="33.24268049" lon="126.5672259"><tag k="amenity" v="restaurant" /><tag k="name" v="삼무뚝배기" /><tag k="phone" v="+82 64 762 9096" /><tag k="cuisine" v="korean; fish" /><tag k="source" v="공공데이터포털" /><tag k="source:date" v="2020-09-04" /><tag k="addr:street" v="칠십리로" /><tag k="addr:housenumber" v="119" /></node><node id="-200002" action="modify" visible="true" lat="33.24366854" lon="126.5682254"><tag k="amenity" v="restaurant" /><tag k="name" v="동해미락" /><tag k="phone" v="+82 64 733 5921" /><tag k="cuisine" v="korean; fish" /><tag k="source" v="공공데이터포털" /><tag k="source:date" v="2020-09-04" /><tag k="addr:street" v="칠십리로" /><tag k="addr:housenumber" v="133" /></node><node id="-200003" action="modify" visible="true" lat="33.2402496" lon="126.5620491"><tag k="amenity" v="restaurant" /><tag k="name" v="어판장" /><tag k="phone" v="+82 64 763 1189" /><tag k="cuisine" v="korean; fish" /><tag k="source" v="공공데이터포털" /><tag k="source:date" v="2020-09-04" /><tag k="addr:street" v="칠십리로" /><tag k="addr:housenumber" v="53" /></node><node id="-200004" action="modify" visible="true" lat="33.24327779" lon="126.5678668"><tag k="amenity" v="restaurant" /><tag k="name" v="영빈횟집" /><tag k="phone" v="+82 64 732 3488" /><tag k="cuisine" v="korean; fish" /><tag k="source" v="공공데이터포털" /><tag k="source:date" v="2020-09-04" /><tag k="addr:street" v="칠십리로" /><tag k="addr:housenumber" v="129" /></node><node id="-200005" action="modify" visible="true" lat="33.24242261" lon="126.5667036"><tag k="amenity" v="restaurant" /><tag k="name" v="해궁맛집" /><tag k="phone" v="+82 64 732 5577" /><tag k="cuisine" v="korean; fish" /><tag k="source" v="공공데이터포털" /><tag k="source:date" v="2020-09-04" /><tag k="addr:street" v="칠십리로" /><tag k="addr:housenumber" v="115" /></node><node id="-200006" action="modify" visible="true" lat="33.24103451" lon="126.561676"><tag k="amenity" v="restaurant" /><tag k="name" v="제주해풍" /><tag k="phone" v="+82 64 763 1008" /><tag k="cuisine" v="korean; fish" /><tag k="source" v="공공데이터포털" /><tag k="source:date" v="2020-09-04" /><tag k="addr:street" v="칠십리로" /><tag k="addr:housenumber" v="41" /></node><node id="-200007" action="modify" visible="true" lat="33.24084354" lon="126.5617242"><tag k="amenity" v="restaurant" /><tag k="name" v="제주올레" /><tag k="phone" v="+82 64 767 4422" /><tag k="cuisine" v="korean; fish" /><tag k="source" v="공공데이터포털" /><tag k="source:date" v="2020-09-04" /><tag k="addr:street" v="칠십리로" /><tag k="addr:housenumber" v="45" /></node><node id="-200008" action="modify" visible="true" lat="33.24437791" lon="126.5689429"><tag k="amenity" v="restaurant" /><tag k="name" v="맷돌뚝배기" /><tag k="phone" v="+82 64 762 3368" /><tag k="cuisine" v="korean; fish" /><tag k="source" v="공공데이터포털" /><tag k="source:date" v="2020-09-04" /><tag k="addr:street" v="칠십리로" /><tag k="addr:housenumber" v="145" /></node><node id="-200009" action="modify" visible="true" lat="33.24437791" lon="126.5689429"><tag k="amenity" v="restaurant" /><tag k="name" v="정낭식당" /><tag k="phone" v="+82 64 732 7590" /><tag k="cuisine" v="korean; fish" /><tag k="source" v="공공데이터포털" /><tag k="source:date" v="2020-09-04" /><tag k="addr:street" v="칠십리로" /><tag k="addr:housenumber" v="145" /></node><node id="-200010" action="modify" visible="true" lat="33.24437791" lon="126.5689429"><tag k="amenity" v="restaurant" /><tag k="name" v="연송갈치" /><tag k="phone" v="+82 64 732 8828" /><tag k="cuisine" v="korean; fish" /><tag k="source" v="공공데이터포털" /><tag k="source:date" v="2020-09-04" /><tag k="addr:street" v="칠십리로" /><tag k="addr:housenumber" v="145" /></node><node id="-200011" action="modify" visible="true" lat="33.24306761" lon="126.5675759"><tag k="amenity" v="restaurant" /><tag k="name" v="서귀포괸당네갈치요리집" /><tag k="phone" v="+82 64 732 3757" /><tag k="cuisine" v="korean; fish" /><tag k="source" v="공공데이터포털" /><tag k="source:date" v="2020-09-04" /><tag k="addr:street" v="칠십리로" /><tag k="addr:housenumber" v="123" /></node><node id="-200012" action="modify" visible="true" lat="33.24437791" lon="126.5689429"><tag k="amenity" v="restaurant" /><tag k="name" v="반딧불식당" /><tag k="phone" v="+82 64 733 3677" /><tag k="cuisine" v="korean; fish" /><tag k="source" v="공공데이터포털" /><tag k="source:date" v="2020-09-04" /><tag k="addr:street" v="칠십리로" /><tag k="addr:housenumber" v="145" /></node><node id="-200013" action="modify" visible="true" lat="33.24371596" lon="126.5683796"><tag k="amenity" v="restaurant" /><tag k="name" v="새만부정" /><tag k="phone" v="+82 64 733 7750" /><tag k="cuisine" v="fish; blowfish" /><tag k="source" v="공공데이터포털" /><tag k="source:date" v="2020-09-04" /><tag k="addr:street" v="칠십리로" /><tag k="addr:housenumber" v="135" /></node><node id="-200014" action="modify" visible="true" lat="33.24306761" lon="126.5675759"><tag k="amenity" v="restaurant" /><tag k="name" v="송화촌" /><tag k="phone" v="+82 64 733 7102" /><tag k="cuisine" v="korean; fish" /><tag k="source" v="공공데이터포털" /><tag k="source:date" v="2020-09-04" /><tag k="addr:street" v="칠십리로" /><tag k="addr:housenumber" v="123" /></node><node id="-200015" action="modify" visible="true" lat="33.24309115" lon="126.5670865"><tag k="amenity" v="restaurant" /><tag k="name" v="자구리국수" /><tag k="phone" v="+82 64 762 6168" /><tag k="cuisine" v="noodle" /><tag k="source" v="공공데이터포털" /><tag k="source:date" v="2020-09-04" /><tag k="addr:street" v="소암로12번길" /><tag k="addr:housenumber" v="21" /></node><node id="-200016" action="modify" visible="true" lat="33.24179386" lon="126.5663547"><tag k="amenity" v="restaurant" /><tag k="name" v="보물섬식당" /><tag k="phone" v="+82 64 732 0009" /><tag k="cuisine" v="korean; fish" /><tag k="source" v="공공데이터포털" /><tag k="source:date" v="2020-09-04" /><tag k="addr:street" v="칠십리로" /><tag k="addr:housenumber" v="105" /></node><node id="-200017" action="modify" visible="true" lat="33.24122589" lon="126.5658554"><tag k="amenity" v="restaurant" /><tag k="name" v="식도향" /><tag k="phone" v="+82 64 762 6056" /><tag k="cuisine" v="korean; fish" /><tag k="source" v="공공데이터포털" /><tag k="source:date" v="2020-09-04" /><tag k="addr:street" v="칠십리로" /><tag k="addr:housenumber" v="99" /></node><node id="-200018" action="modify" visible="true" lat="33.23970942" lon="126.5643307"><tag k="amenity" v="restaurant" /><tag k="name" v="호림식당" /><tag k="phone" v="+82 64 732 8184" /><tag k="cuisine" v="korean; fish" /><tag k="source" v="공공데이터포털" /><tag k="source:date" v="2020-09-04" /><tag k="addr:street" v="칠십리로" /><tag k="addr:housenumber" v="78" /></node><node id="-200019" action="modify" visible="true" lat="33.23992954" lon="126.5643639"><tag k="amenity" v="restaurant" /><tag k="name" v="창훈이네(식당)" /><tag k="phone" v="+82 64 762 9595" /><tag k="cuisine" v="korean; fish" /><tag k="source" v="공공데이터포털" /><tag k="source:date" v="2020-09-04" /><tag k="addr:street" v="칠십리로" /><tag k="addr:housenumber" v="77" /></node><node id="-200020" action="modify" visible="true" lat="33.23976513" lon="126.5637596"><tag k="amenity" v="restaurant" /><tag k="name" v="금호식당" /><tag k="phone" v="+82 64 732 7573" /><tag k="cuisine" v="korean; fish" /><tag k="source" v="공공데이터포털" /><tag k="source:date" v="2020-09-04" /><tag k="addr:street" v="칠십리로" /><tag k="addr:housenumber" v="71" /></node><node id="-200021" action="modify" visible="true" lat="33.23996442" lon="126.562999"><tag k="amenity" v="restaurant" /><tag k="name" v="선영횟집" /><tag k="phone" v="+82 64 762 4666" /><tag k="cuisine" v="korean; fish" /><tag k="source" v="공공데이터포털" /><tag k="source:date" v="2020-09-04" /><tag k="addr:street" v="칠십리로" /><tag k="addr:housenumber" v="61-1" /></node><node id="-200022" action="modify" visible="true" lat="33.24005013" lon="126.5627582"><tag k="amenity" v="restaurant" /><tag k="name" v="양평해장국" /><tag k="phone" v="+82 64 763 1400" /><tag k="cuisine" v="korean; fish" /><tag k="source" v="공공데이터포털" /><tag k="source:date" v="2020-09-04" /><tag k="addr:street" v="칠십리로" /><tag k="addr:housenumber" v="61" /></node><node id="-200023" action="modify" visible="true" lat="33.24061586" lon="126.5657039"><tag k="amenity" v="restaurant" /><tag k="name" v="부두회수산" /><tag k="phone" v="+82 64 763 0018" /><tag k="cuisine" v="korean; fish" /><tag k="source" v="공공데이터포털" /><tag k="source:date" v="2020-09-04" /><tag k="addr:street" v="칠십리로" /><tag k="addr:housenumber" v="94" /></node><node id="-200024" action="modify" visible="true" lat="33.24051082" lon="126.5655757"><tag k="amenity" v="restaurant" /><tag k="name" v="제주할망뚝배기" /><tag k="phone" v="+82 64 733 9934" /><tag k="cuisine" v="korean; fish" /><tag k="source" v="공공데이터포털" /><tag k="source:date" v="2020-09-04" /><tag k="addr:street" v="칠십리로" /><tag k="addr:housenumber" v="92" /></node><node id="-200025" action="modify" visible="true" lat="33.24054121" lon="126.5619017"><tag k="amenity" v="restaurant" /><tag k="name" v="촌수산횟집" /><tag k="phone" v="+82 64 763 8800" /><tag k="cuisine" v="korean; fish" /><tag k="source" v="공공데이터포털" /><tag k="source:date" v="2020-09-04" /><tag k="addr:street" v="칠십리로" /><tag k="addr:housenumber" v="49" /></node><node id="-200026" action="modify" visible="true" lat="33.24102618" lon="126.5613585"><tag k="amenity" v="restaurant" /><tag k="name" v="나운터" /><tag k="phone" v="+82 64 763 2237" /><tag k="cuisine" v="korean; fish" /><tag k="source" v="공공데이터포털" /><tag k="source:date" v="2020-09-04" /><tag k="addr:street" v="칠십리로" /><tag k="addr:housenumber" v="42" /></node><node id="-200027" action="modify" visible="true" lat="33.24098583" lon="126.5611656"><tag k="amenity" v="restaurant" /><tag k="name" v="항구음식점" /><tag k="phone" v="+82 64 762 3565" /><tag k="cuisine" v="korean; fish" /><tag k="source" v="공공데이터포털" /><tag k="source:date" v="2020-09-04" /><tag k="addr:street" v="칠십리로" /><tag k="addr:housenumber" v="40-4" /></node><node id="-200028" action="modify" visible="true" lat="33.24131753" lon="126.5611381"><tag k="amenity" v="restaurant" /><tag k="name" v="서귀포회수산마트" /><tag k="phone" v="+82 64 733 8280" /><tag k="cuisine" v="korean; fish" /><tag k="source" v="공공데이터포털" /><tag k="source:date" v="2020-09-04" /><tag k="addr:street" v="칠십리로" /><tag k="addr:housenumber" v="38-1" /></node><node id="-200029" action="modify" visible="true" lat="33.24113538" lon="126.5657571"><tag k="amenity" v="cafe" /><tag k="name" v="땡큐베리" /><tag k="phone" v="+82 64 732 0932" /><tag k="source" v="공공데이터포털" /><tag k="source:date" v="2020-09-04" /><tag k="addr:street" v="칠십리로" /><tag k="addr:housenumber" v="97" /></node></osm>