<?xml version='1.0' encoding='utf-8'?>
<osm version="0.6" generator="JOSM"><node id="-200001" action="modify" visible="true" lat="33.28529333" lon="126.2843128"><tag k="amenity" v="restaurant" /><tag k="name" v="(주)아워홈 에스제이에이제주점 카페그랑" /><tag k="source" v="공공데이터포털" /><tag k="source:date" v="2020-02-07" /><tag k="addr:street" v="글로벌에듀로304번길" /><tag k="addr:housenumber" v="10" /><tag k="addr:subdistrict" v="대정읍" /></node><node id="-200002" action="modify" visible="true" lat="33.29064522" lon="126.3221948"><tag k="amenity" v="restaurant" /><tag k="name" v="(주)아워홈소인국테마파크제주점" /><tag k="source" v="공공데이터포털" /><tag k="source:date" v="2020-02-07" /><tag k="addr:street" v="중산간서로" /><tag k="addr:housenumber" v="1878" /><tag k="addr:subdistrict" v="안덕면" /></node><node id="-200003" action="modify" visible="true" lat="33.28727222" lon="126.4052791"><tag k="amenity" v="restaurant" /><tag k="name" v="(주)아코스롯데스카이힐제주CC대식당" /><tag k="source" v="공공데이터포털" /><tag k="source:date" v="2020-02-07" /><tag k="addr:street" v="상예로" /><tag k="addr:housenumber" v="530" /></node><node id="-200004" action="modify" visible="true" lat="33.28727222" lon="126.4052791"><tag k="amenity" v="restaurant" /><tag k="name" v="(주)아코스롯데스카이힐제주CC스카이그늘집" /><tag k="source" v="공공데이터포털" /><tag k="source:date" v="2020-02-07" /><tag k="addr:street" v="상예로" /><tag k="addr:housenumber" v="530" /></node><node id="-200005" action="modify" visible="true" lat="33.28727222" lon="126.4052791"><tag k="amenity" v="restaurant" /><tag k="name" v="(주)아코스롯데스카이힐제주CC스타트하우스" /><tag k="source" v="공공데이터포털" /><tag k="source:date" v="2020-02-07" /><tag k="addr:street" v="상예로" /><tag k="addr:housenumber" v="530" /></node><node id="-200006" action="modify" visible="true" lat="33.28727222" lon="126.4052791"><tag k="amenity" v="restaurant" /><tag k="name" v="(주)아코스롯데스카이힐제주CC오션그늘집" /><tag k="source" v="공공데이터포털" /><tag k="source:date" v="2020-02-07" /><tag k="addr:street" v="상예로" /><tag k="addr:housenumber" v="530" /></node><node id="-200007" action="modify" visible="true" lat="33.28727222" lon="126.4052791"><tag k="amenity" v="restaurant" /><tag k="name" v="(주)아코스롯데스카이힐제주CC포레스트그늘집" /><tag k="source" v="공공데이터포털" /><tag k="source:date" v="2020-02-07" /><tag k="addr:street" v="상예로" /><tag k="addr:housenumber" v="530" /></node><node id="-200008" action="modify" visible="true" lat="33.28727222" lon="126.4052791"><tag k="amenity" v="restaurant" /><tag k="name" v="(주)아코스롯데스카이힐제주CC힐그늘집" /><tag k="source" v="공공데이터포털" /><tag k="source:date" v="2020-02-07" /><tag k="addr:street" v="상예로" /><tag k="addr:housenumber" v="530" /></node><node id="-200009" action="modify" visible="true" lat="33.24802204" lon="126.4086786"><tag k="amenity" v="restaurant" /><tag k="name" v="더파크뷰" /><tag k="source" v="공공데이터포털" /><tag k="source:date" v="2020-02-07" /><tag k="addr:street" v="중문관광로72번길" /><tag k="addr:housenumber" v="75" /></node><node id="-200010" action="modify" visible="true" lat="33.30497268" lon="126.316352"><tag k="amenity" v="restaurant" /><tag k="name" v="데판야(Teppanya)" /><tag k="source" v="공공데이터포털" /><tag k="source:date" v="2020-02-07" /><tag k="addr:street" v="신화역사로304번길" /><tag k="addr:housenumber" v="38" /><tag k="addr:subdistrict" v="안덕면" /></node><node id="-200011" action="modify" visible="true" lat="33.44986322" lon="126.9181684"><tag k="amenity" v="restaurant" /><tag k="name" v="도렐" /><tag k="source" v="공공데이터포털" /><tag k="source:date" v="2020-02-07" /><tag k="addr:street" v="동류암로" /><tag k="addr:housenumber" v="20" /><tag k="addr:subdistrict" v="성산읍" /></node><node id="-200012" action="modify" visible="true" lat="33.30653711" lon="126.307553"><tag k="amenity" v="cafe" /><tag k="name" v="라바카페테리아(Larva`s Cafeteria)" /><tag k="source" v="공공데이터포털" /><tag k="source:date" v="2020-02-07" /><tag k="addr:street" v="신화역사로304번길" /><tag k="addr:housenumber" v="98" /><tag k="addr:subdistrict" v="안덕면" /></node><node id="-200013" action="modify" visible="true" lat="33.30497268" lon="126.316352"><tag k="amenity" v="restaurant" /><tag k="name" v="랜딩 다이닝(Landing Dining)" /><tag k="source" v="공공데이터포털" /><tag k="source:date" v="2020-02-07" /><tag k="addr:street" v="신화역사로304번길" /><tag k="addr:housenumber" v="38" /><tag k="addr:subdistrict" v="안덕면" /></node><node id="-200014" action="modify" visible="true" lat="33.30653711" lon="126.307553"><tag k="amenity" v="restaurant" /><tag k="name" v="바이트푸드코트(Bite Food Court)" /><tag k="source" v="공공데이터포털" /><tag k="source:date" v="2020-02-07" /><tag k="addr:street" v="신화역사로304번길" /><tag k="addr:housenumber" v="98" /><tag k="addr:subdistrict" v="안덕면" /></node><node id="-200015" action="modify" visible="true" lat="33.25504273" lon="126.5602314"><tag k="amenity" v="restaurant" /><tag k="name" v="분식인" /><tag k="source" v="공공데이터포털" /><tag k="source:date" v="2020-02-07" /><tag k="addr:street" v="중앙로117번길" /><tag k="addr:housenumber" v="3" /></node><node id="-200016" action="modify" visible="true" lat="33.43451965" lon="126.9260285"><tag k="amenity" v="cafe" /><tag k="name" v="빈스앤베리즈" /><tag k="source" v="공공데이터포털" /><tag k="source:date" v="2020-02-07" /><tag k="addr:street" v="섭지코지로" /><tag k="addr:housenumber" v="93-15" /><tag k="addr:subdistrict" v="성산읍" /></node><node id="-200017" action="modify" visible="true" lat="33.24787337" lon="126.5822109"><tag k="amenity" v="restaurant" /><tag k="name" v="서귀포흑돈" /><tag k="source" v="공공데이터포털" /><tag k="source:date" v="2020-02-07" /><tag k="addr:street" v="칠십리로" /><tag k="addr:housenumber" v="278" /></node><node id="-200018" action="modify" visible="true" lat="33.30497268" lon="126.316352"><tag k="amenity" v="restaurant" /><tag k="name" v="스카이온파이브다이닝(Sky on 5 Dining)" /><tag k="source" v="공공데이터포털" /><tag k="source:date" v="2020-02-07" /><tag k="addr:street" v="신화역사로304번길" /><tag k="addr:housenumber" v="38" /><tag k="addr:subdistrict" v="안덕면" /></node><node id="-200019" action="modify" visible="true" lat="33.25507165" lon="126.4158559"><tag k="amenity" v="cafe" /><tag k="name" v="스타벅스 제주중문DT" /><tag k="source" v="공공데이터포털" /><tag k="source:date" v="2020-02-07" /><tag k="addr:street" v="천제연로" /><tag k="addr:housenumber" v="95" /></node><node id="-200020" action="modify" visible="true" lat="33.24952285" lon="126.5067233"><tag k="amenity" v="cafe" /><tag k="name" v="스타벅스 서귀포DT" /><tag k="source" v="공공데이터포털" /><tag k="source:date" v="2020-02-07" /><tag k="addr:street" v="일주서로" /><tag k="addr:housenumber" v="11" /></node><node id="-200021" action="modify" visible="true" lat="33.44971096" lon="126.9206949"><tag k="amenity" v="cafe" /><tag k="name" v="스타벅스 제주성산DT점" /><tag k="source" v="공공데이터포털" /><tag k="source:date" v="2020-02-07" /><tag k="addr:street" v="일출로" /><tag k="addr:housenumber" v="80" /><tag k="addr:subdistrict" v="성산읍" /></node><node id="-200022" action="modify" visible="true" lat="33.30497268" lon="126.316352"><tag k="amenity" v="cafe" /><tag k="name" v="스타벅스 제주신화월드R" /><tag k="source" v="공공데이터포털" /><tag k="source:date" v="2020-02-07" /><tag k="addr:street" v="신화역사로304번길" /><tag k="addr:housenumber" v="38" /><tag k="addr:subdistrict" v="안덕면" /></node><node id="-200023" action="modify" visible="true" lat="33.29181966" lon="126.2842896"><tag k="amenity" v="cafe" /><tag k="name" v="스타벅스 제주에듀시티점" /><tag k="source" v="공공데이터포털" /><tag k="source:date" v="2020-02-07" /><tag k="addr:street" v="에듀시티로" /><tag k="addr:housenumber" v="36" /><tag k="addr:subdistrict" v="대정읍" /></node><node id="-200024" action="modify" visible="true" lat="33.20677723" lon="126.2899731"><tag k="amenity" v="cafe" /><tag k="name" v="스타벅스 제주송악산점" /><tag k="source" v="공공데이터포털" /><tag k="source:date" v="2020-02-07" /><tag k="addr:street" v="형제해안로" /><tag k="addr:housenumber" v="322" /><tag k="addr:subdistrict" v="대정읍" /></node><node id="-200025" action="modify" visible="true" lat="33.25121501" lon="126.4128217"><tag k="amenity" v="cafe" /><tag k="name" v="스타벅스 제주중문점" /><tag k="source" v="공공데이터포털" /><tag k="source:date" v="2020-02-07" /><tag k="addr:street" v="중문관광로110번길" /><tag k="addr:housenumber" v="32" /></node><node id="-200026" action="modify" visible="true" lat="33.24781175" lon="126.562019"><tag k="amenity" v="cafe" /><tag k="name" v="스타벅스 제주서귀포점" /><tag k="source" v="공공데이터포털" /><tag k="source:date" v="2020-02-07" /><tag k="addr:street" v="중정로" /><tag k="addr:housenumber" v="53" /></node><node id="-200027" action="modify" visible="true" lat="33.30497268" lon="126.316352"><tag k="amenity" v="restaurant" /><tag k="name" v="엠라운지(M Lounge)" /><tag k="source" v="공공데이터포털" /><tag k="source:date" v="2020-02-07" /><tag k="addr:street" v="신화역사로304번길" /><tag k="addr:housenumber" v="38" /><tag k="addr:subdistrict" v="안덕면" /></node><node id="-200028" action="modify" visible="true" lat="33.30275091" lon="126.3176104"><tag k="amenity" v="restaurant" /><tag k="name" v="워터포인트(Water Point)" /><tag k="source" v="공공데이터포털" /><tag k="source:date" v="2020-02-07" /><tag k="addr:street" v="신화역사로304번길" /><tag k="addr:housenumber" v="89" /><tag k="addr:subdistrict" v="안덕면" /></node><node id="-200029" action="modify" visible="true" lat="33.30653711" lon="126.307553"><tag k="amenity" v="restaurant" /><tag k="name" v="윙클스비스트로(Wingcle´s Bistro)" /><tag k="source" v="공공데이터포털" /><tag k="source:date" v="2020-02-07" /><tag k="addr:street" v="신화역사로304번길" /><tag k="addr:housenumber" v="98" /><tag k="addr:subdistrict" v="안덕면" /></node><node id="-200030" action="modify" visible="true" lat="33.30653711" lon="126.307553"><tag k="amenity" v="restaurant" /><tag k="name" v="윙클스피자리아(Wingcle´s Pizzeria)" /><tag k="source" v="공공데이터포털" /><tag k="source:date" v="2020-02-07" /><tag k="addr:street" v="신화역사로304번길" /><tag k="addr:housenumber" v="98" /><tag k="addr:subdistrict" v="안덕면" /></node><node id="-200031" action="modify" visible="true" lat="33.30497268" lon="126.316352"><tag k="amenity" v="restaurant" /><tag k="name" v="제주선 (Jejuseon)" /><tag k="source" v="공공데이터포털" /><tag k="source:date" v="2020-02-07" /><tag k="addr:street" v="신화역사로304번길" /><tag k="addr:housenumber" v="38" /><tag k="addr:subdistrict" v="안덕면" /></node><node id="-200032" action="modify" visible="true" lat="33.25277792" lon="126.5080471"><tag k="amenity" v="cafe" /><tag k="name" v="파스쿠찌 서귀포신시가지점" /><tag k="source" v="공공데이터포털" /><tag k="source:date" v="2020-02-07" /><tag k="addr:street" v="김정문화로27번길" /><tag k="addr:housenumber" v="10-1" /></node><node id="-200033" action="modify" visible="true" lat="33.30275091" lon="126.3176104"><tag k="amenity" v="restaurant" /><tag k="name" v="파크사이드다이닝(Parkside Dining)" /><tag k="source" v="공공데이터포털" /><tag k="source:date" v="2020-02-07" /><tag k="addr:street" v="신화역사로304번길" /><tag k="addr:housenumber" v="89" /><tag k="addr:subdistrict" v="안덕면" /></node><node id="-200034" action="modify" visible="true" lat="33.44986322" lon="126.9181684"><tag k="amenity" v="restaurant" /><tag k="name" v="폼포코" /><tag k="source" v="공공데이터포털" /><tag k="source:date" v="2020-02-07" /><tag k="addr:street" v="동류암로" /><tag k="addr:housenumber" v="20" /><tag k="addr:subdistrict" v="성산읍" /></node><node id="-200035" action="modify" visible="true" lat="33.30497268" lon="126.316352"><tag k="amenity" v="cafe" /><tag k="name" v="풀사이드 카페(Poolside Cafe)" /><tag k="source" v="공공데이터포털" /><tag k="source:date" v="2020-02-07" /><tag k="addr:street" v="신화역사로304번길" /><tag k="addr:housenumber" v="38" /><tag k="addr:subdistrict" v="안덕면" /></node><node id="-200036" action="modify" visible="true" lat="33.24802204" lon="126.4086786"><tag k="amenity" v="restaurant" /><tag k="name" v="호텔신라제주호텔일출" /><tag k="source" v="공공데이터포털" /><tag k="source:date" v="2020-02-07" /><tag k="addr:street" v="중문관광로72번길" /><tag k="addr:housenumber" v="75" /></node><node id="-200037" action="modify" visible="true" lat="33.24802204" lon="126.4086786"><tag k="amenity" v="restaurant" /><tag k="name" v="호텔신라제주호텔천지" /><tag k="source" v="공공데이터포털" /><tag k="source:date" v="2020-02-07" /><tag k="addr:street" v="중문관광로72번길" /><tag k="addr:housenumber" v="75" /></node></osm>