<?xml version='1.0' encoding='utf-8'?>
<osm version="0.6" generator="JOSM"><node id="-200001" action="modify" visible="true" lat="37.89530477" lon="127.083122"><tag k="name" v="KAFKA(카프카) 협동조합" /><tag k="description" v="청소년 교육사업" /><tag k="office" v="cooperative" /><tag k="addr:street" v="광암로17번길" /><tag k="addr:housenumber" v="15-9" /></node><node id="-200002" action="modify" visible="true" lat="37.89209058" lon="127.0526057"><tag k="name" v="더불어꿈협동조합" /><tag k="description" v="다앙한 문화컨텐츠 운영, 지역현안분석, 마을카페운영" /><tag k="office" v="cooperative" /><tag k="addr:street" v="지행로" /><tag k="addr:housenumber" v="50" /></node><node id="-200003" action="modify" visible="true" lat="37.93527114" lon="127.0625511"><tag k="name" v="동두천금강택시협동조합" /><tag k="description" v="여객자동차운수사업, 택시운송사업" /><tag k="office" v="cooperative" /><tag k="addr:street" v="평화로2812번길" /><tag k="addr:housenumber" v="158" /></node><node id="-200004" action="modify" visible="true" lat="37.90146126" lon="127.0502468"><tag k="name" v="동두천두리온협동조합" /><tag k="description" v="특성화상품개발 및 공동생산, 공동판매장 운영 등" /><tag k="office" v="cooperative" /><tag k="addr:street" v="생연로" /><tag k="addr:housenumber" v="97-1" /></node><node id="-200005" action="modify" visible="true" lat="37.94678969" lon="127.0627941"><tag k="name" v="동두천소요산맑은물주조협동조합" /><tag k="description" v="탁주주조, 유통, 브랜드 개발" /><tag k="office" v="cooperative" /><tag k="addr:street" v="평화로" /><tag k="addr:housenumber" v="2914-19" /></node><node id="-200006" action="modify" visible="true" lat="37.93507301" lon="127.0635804"><tag k="name" v="동두천시민 협동조합" /><tag k="description" v="택시운송업" /><tag k="office" v="cooperative" /><tag k="addr:street" v="평화로2812번길" /><tag k="addr:housenumber" v="161" /></node><node id="-200007" action="modify" visible="true" lat="37.90483672" lon="127.0553153"><tag k="name" v="동성협동조합" /><tag k="description" v="그리스도 복음전파를 통한 조합원 공동이익도모" /><tag k="office" v="cooperative" /><tag k="addr:street" v="중앙로264번길" /><tag k="addr:housenumber" v="24" /></node><node id="-200008" action="modify" visible="true" lat="37.90913941" lon="127.0484416"><tag k="name" v="두드림 드론 협동조합" /><tag k="description" v="드론 판매 및 교육, 수리업" /><tag k="office" v="cooperative" /><tag k="addr:street" v="상패로" /><tag k="addr:housenumber" v="86" /></node><node id="-200009" action="modify" visible="true" lat="37.89033083" lon="127.0544489"><tag k="name" v="두드림패션사업협동조합" /><tag k="description" v="섬유, 봉제 자재 공동구매 및 공동판매" /><tag k="office" v="cooperative" /><tag k="addr:street" v="동두천로" /><tag k="addr:housenumber" v="97" /></node><node id="-200010" action="modify" visible="true" lat="37.91206967" lon="127.1156196"><tag k="name" v="두레목조건축협동조합" /><tag k="description" v="목조건축 연구및개발, 목수의 양성 및 친환경 건축사업" /><tag k="office" v="cooperative" /><tag k="addr:street" v="쇠목길" /><tag k="addr:housenumber" v="413" /></node><node id="-200011" action="modify" visible="true" lat="37.91138784" lon="127.1175632"><tag k="name" v="두레자연마을협동조합" /><tag k="description" v="농임산물 재배및가공, 산림문화교육컨텐츠의 제작 및 기획서비스 제공" /><tag k="office" v="cooperative" /></node><node id="-200012" action="modify" visible="true" lat="37.91188152" lon="127.0561539"><tag k="name" v="러닝메이트 협동조합" /><tag k="description" v="사업지원 및 임대서비스업, 숙박 및 음식점업" /><tag k="office" v="cooperative" /><tag k="addr:street" v="중앙로" /><tag k="addr:housenumber" v="344-8" /></node><node id="-200013" action="modify" visible="true" lat="37.93469952" lon="127.0644954"><tag k="name" v="미래희망 협동조합" /><tag k="description" v="택시운송업" /><tag k="office" v="cooperative" /><tag k="addr:street" v="평화로2812번길" /><tag k="addr:housenumber" v="196" /></node><node id="-200014" action="modify" visible="true" lat="37.90749659" lon="127.0580842"><tag k="name" v="사랑의 손길 협동조합" /><tag k="description" v="즉석식품사업,반찬꾸러미사업" /><tag k="office" v="cooperative" /><tag k="addr:street" v="평화로" /><tag k="addr:housenumber" v="2459-1" /></node><node id="-200015" action="modify" visible="true" lat="37.88497501" lon="127.0560917"><tag k="name" v="소소수제화분협동조합" /><tag k="description" v="수제화분 공동생산 및 판매" /><tag k="office" v="cooperative" /><tag k="addr:street" v="평화로2185번길" /><tag k="addr:housenumber" v="56" /></node><node id="-200016" action="modify" visible="true" lat="37.89275703" lon="127.0517467"><tag k="name" v="송라지구디자인시티협동조합" /><tag k="description" v="조합원의 임대주택 건설과 임차, 임차 이후의 소유권 취득 및 그에 따르는 제반사항 처리" /><tag k="office" v="cooperative" /><tag k="addr:street" v="중앙로" /><tag k="addr:housenumber" v="125" /></node><node id="-200017" action="modify" visible="true" lat="37.91754408" lon="127.0681739"><tag k="name" v="싸릿말버섯연구회 협동조합" /><tag k="description" v="버섯 재배 및 판매" /><tag k="office" v="cooperative" /><tag k="addr:street" v="싸리말로" /><tag k="addr:housenumber" v="100" /></node><node id="-200018" action="modify" visible="true" lat="37.90454323" lon="127.0518674"><tag k="name" v="예술, 가치날다 협동조합" /><tag k="description" v="예술, 문화행사 사업" /><tag k="office" v="cooperative" /><tag k="addr:street" v="정장로" /><tag k="addr:housenumber" v="12-4" /></node><node id="-200019" action="modify" visible="true" lat="37.91188152" lon="127.0561539"><tag k="name" v="옥탑방청년들 협동조합" /><tag k="description" v="서비스, 미디어, 기획 사업 등(교육, 제조, 판매, 임대, 무역, 컨설팅, 위탁)" /><tag k="office" v="cooperative" /><tag k="addr:street" v="중앙로" /><tag k="addr:housenumber" v="344-8" /></node><node id="-200020" action="modify" visible="true" lat="37.90019172" lon="127.0529584"><tag k="name" v="온새미소비자협동조합" /><tag k="description" v="생필품 공동구매 및 판매" /><tag k="office" v="cooperative" /><tag k="addr:street" v="큰시장로" /><tag k="addr:housenumber" v="43" /></node><node id="-200021" action="modify" visible="true" lat="37.88162986" lon="127.052025"><tag k="name" v="이담공방협동조합" /><tag k="description" v="문화예술 교육서비스 기획 및 사업" /><tag k="office" v="cooperative" /><tag k="addr:street" v="중앙로33번길" /><tag k="addr:housenumber" v="92" /></node><node id="-200022" action="modify" visible="true" lat="37.92850327" lon="127.04844"><tag k="name" v="이지스소비자협동조합" /><tag k="description" v="온라인 쇼핑몰을 통한 조합원 수익 증대 도모" /><tag k="office" v="cooperative" /><tag k="addr:street" v="신천로" /><tag k="addr:housenumber" v="145" /></node><node id="-200023" action="modify" visible="true" lat="37.90049061" lon="127.0520741"><tag k="name" v="자연다믄협동조합" /><tag k="description" v="두류식품 산지구매 및 입찰구매콩식품 가공제조 및 영업" /><tag k="office" v="cooperative" /><tag k="addr:street" v="큰시장로" /><tag k="addr:housenumber" v="52" /></node><node id="-200024" action="modify" visible="true" lat="37.92725477" lon="127.0292671"><tag k="name" v="참살이에듀팜협동조합법인" /><tag k="description" v="노숙인 등 취약계층에게 일자리와 사회서비스 등을 제공, 사회통합에 기여하는 사업을 관리, 운영" /><tag k="office" v="cooperative" /><tag k="addr:street" v="안흥로" /><tag k="addr:housenumber" v="213" /></node><node id="-200025" action="modify" visible="true" lat="37.89439787" lon="127.0851496"><tag k="name" v="턱거리사람들협동조합" /><tag k="description" v="&quot;만남과 치유&quot;센터 설립,  구성원의 복리증진, 경제의 균형있는 발전" /><tag k="office" v="cooperative" /><tag k="addr:street" v="광암로6번길" /><tag k="addr:housenumber" v="46" /></node><node id="-200026" action="modify" visible="true" lat="37.90265669" lon="127.0671288"><tag k="name" v="하림운수 협동조합" /><tag k="description" v="택시운송업" /><tag k="office" v="cooperative" /><tag k="addr:street" v="못골로49번길" /><tag k="addr:housenumber" v="16" /></node></osm>