<?xml version='1.0' encoding='utf-8'?>
<osm version="0.6" generator="JOSM"><node id="-200001" action="modify" visible="true" lat="35.85652575" lon="129.2231078"><tag k="man_made" v="surveillance" /><tag k="surveillance" v="outdoor" /><tag k="surveillance:zone" v="traffic" /><tag k="surveillance:type" v="camera" /><tag k="name" v="동천우체국앞" /><tag k="source" v="공공데이터포털" /><tag k="source:date" v="2019-10-18" /></node><node id="-200002" action="modify" visible="true" lat="35.85020774" lon="129.2052982"><tag k="man_made" v="surveillance" /><tag k="surveillance" v="outdoor" /><tag k="surveillance:zone" v="traffic" /><tag k="surveillance:type" v="camera" /><tag k="name" v="흥무초등학교앞" /><tag k="source" v="공공데이터포털" /><tag k="source:date" v="2019-10-18" /></node><node id="-200003" action="modify" visible="true" lat="35.83818905" lon="129.203965"><tag k="man_made" v="surveillance" /><tag k="surveillance" v="outdoor" /><tag k="surveillance:zone" v="traffic" /><tag k="surveillance:type" v="camera" /><tag k="name" v="시외버스터미널앞" /><tag k="source" v="공공데이터포털" /><tag k="source:date" v="2019-10-18" /></node><node id="-200004" action="modify" visible="true" lat="35.86810438" lon="129.2171738"><tag k="man_made" v="surveillance" /><tag k="surveillance" v="outdoor" /><tag k="surveillance:zone" v="traffic" /><tag k="surveillance:type" v="camera" /><tag k="name" v="청우아파트앞" /><tag k="source" v="공공데이터포털" /><tag k="source:date" v="2019-10-18" /></node><node id="-200005" action="modify" visible="true" lat="35.85328552" lon="129.2066512"><tag k="man_made" v="surveillance" /><tag k="surveillance" v="outdoor" /><tag k="surveillance:zone" v="traffic" /><tag k="surveillance:type" v="camera" /><tag k="name" v="해동주유소앞" /><tag k="source" v="공공데이터포털" /><tag k="source:date" v="2019-10-18" /></node><node id="-200006" action="modify" visible="true" lat="35.80465738" lon="129.5026226"><tag k="man_made" v="surveillance" /><tag k="surveillance" v="outdoor" /><tag k="surveillance:zone" v="traffic" /><tag k="surveillance:type" v="camera" /><tag k="name" v="감포" /><tag k="source" v="공공데이터포털" /><tag k="source:date" v="2019-10-18" /></node><node id="-200007" action="modify" visible="true" lat="36.00308431" lon="129.1977407"><tag k="man_made" v="surveillance" /><tag k="surveillance" v="outdoor" /><tag k="surveillance:zone" v="traffic" /><tag k="surveillance:type" v="camera" /><tag k="name" v="산대초교(안강)" /><tag k="source" v="공공데이터포털" /><tag k="source:date" v="2019-10-18" /></node><node id="-200008" action="modify" visible="true" lat="35.86468556" lon="129.2139104"><tag k="man_made" v="surveillance" /><tag k="surveillance" v="outdoor" /><tag k="surveillance:zone" v="traffic" /><tag k="surveillance:type" v="camera" /><tag k="name" v="황성농협앞" /><tag k="source" v="공공데이터포털" /><tag k="source:date" v="2019-10-18" /></node><node id="-200009" action="modify" visible="true" lat="35.85999001" lon="129.224545"><tag k="man_made" v="surveillance" /><tag k="surveillance" v="outdoor" /><tag k="surveillance:zone" v="traffic" /><tag k="surveillance:type" v="camera" /><tag k="name" v="동천농협사거리" /><tag k="source" v="공공데이터포털" /><tag k="source:date" v="2019-10-18" /></node><node id="-200010" action="modify" visible="true" lat="35.87603689" lon="129.2294211"><tag k="man_made" v="surveillance" /><tag k="surveillance" v="outdoor" /><tag k="surveillance:zone" v="traffic" /><tag k="surveillance:type" v="camera" /><tag k="name" v="용강초교앞" /><tag k="source" v="공공데이터포털" /><tag k="source:date" v="2019-10-18" /></node><node id="-200011" action="modify" visible="true" lat="35.84755917" lon="129.2326893"><tag k="man_made" v="surveillance" /><tag k="surveillance" v="outdoor" /><tag k="surveillance:zone" v="traffic" /><tag k="surveillance:type" v="camera" /><tag k="name" v="경희학교앞" /><tag k="source" v="공공데이터포털" /><tag k="source:date" v="2019-10-18" /></node><node id="-200012" action="modify" visible="true" lat="35.8426479" lon="129.1897531"><tag k="man_made" v="surveillance" /><tag k="surveillance" v="outdoor" /><tag k="surveillance:zone" v="traffic" /><tag k="surveillance:type" v="camera" /><tag k="name" v="경주초교앞" /><tag k="source" v="공공데이터포털" /><tag k="source:date" v="2019-10-18" /></node><node id="-200013" action="modify" visible="true" lat="35.99230511" lon="129.222741"><tag k="man_made" v="surveillance" /><tag k="surveillance" v="outdoor" /><tag k="surveillance:zone" v="traffic" /><tag k="surveillance:type" v="camera" /><tag k="name" v="금강당사거리" /><tag k="source" v="공공데이터포털" /><tag k="source:date" v="2019-10-18" /></node><node id="-200014" action="modify" visible="true" lat="35.99168835" lon="129.2257702"><tag k="man_made" v="surveillance" /><tag k="surveillance" v="outdoor" /><tag k="surveillance:zone" v="traffic" /><tag k="surveillance:type" v="camera" /><tag k="name" v="박외과의원앞" /><tag k="source" v="공공데이터포털" /><tag k="source:date" v="2019-10-18" /></node><node id="-200015" action="modify" visible="true" lat="35.71580404" lon="129.3238746"><tag k="man_made" v="surveillance" /><tag k="surveillance" v="outdoor" /><tag k="surveillance:zone" v="traffic" /><tag k="surveillance:type" v="camera" /><tag k="name" v="외동파출소사거리(입실초등학교)" /><tag k="source" v="공공데이터포털" /><tag k="source:date" v="2019-10-18" /></node><node id="-200016" action="modify" visible="true" lat="35.85674776" lon="129.2190038"><tag k="man_made" v="surveillance" /><tag k="surveillance" v="outdoor" /><tag k="surveillance:zone" v="traffic" /><tag k="surveillance:type" v="camera" /><tag k="name" v="푸르지오아파트삼거리" /><tag k="source" v="공공데이터포털" /><tag k="source:date" v="2019-10-18" /></node><node id="-200017" action="modify" visible="true" lat="35.84481501" lon="129.2118693"><tag k="man_made" v="surveillance" /><tag k="surveillance" v="outdoor" /><tag k="surveillance:zone" v="traffic" /><tag k="surveillance:type" v="camera" /><tag k="name" v="신한은행사거리" /><tag k="source" v="공공데이터포털" /><tag k="source:date" v="2019-10-18" /></node><node id="-200018" action="modify" visible="true" lat="35.86883581" lon="129.2027348"><tag k="man_made" v="surveillance" /><tag k="surveillance" v="outdoor" /><tag k="surveillance:zone" v="traffic" /><tag k="surveillance:type" v="camera" /><tag k="name" v="나원초등학교" /><tag k="source" v="공공데이터포털" /><tag k="source:date" v="2019-10-18" /></node><node id="-200019" action="modify" visible="true" lat="35.84735712" lon="129.2180518"><tag k="man_made" v="surveillance" /><tag k="surveillance" v="outdoor" /><tag k="surveillance:zone" v="traffic" /><tag k="surveillance:type" v="camera" /><tag k="name" v="경주역" /><tag k="source" v="공공데이터포털" /><tag k="source:date" v="2019-10-18" /></node><node id="-200020" action="modify" visible="true" lat="35.85563572" lon="129.2050704"><tag k="man_made" v="surveillance" /><tag k="surveillance" v="outdoor" /><tag k="surveillance:zone" v="traffic" /><tag k="surveillance:type" v="camera" /><tag k="name" v="통일화랑아파트" /><tag k="source" v="공공데이터포털" /><tag k="source:date" v="2019-10-18" /></node><node id="-200021" action="modify" visible="true" lat="35.84209434" lon="129.2170968"><tag k="man_made" v="surveillance" /><tag k="surveillance" v="outdoor" /><tag k="surveillance:zone" v="traffic" /><tag k="surveillance:type" v="camera" /><tag k="name" v="제2공영주차장앞" /><tag k="source" v="공공데이터포털" /><tag k="source:date" v="2019-10-18" /></node><node id="-200022" action="modify" visible="true" lat="35.84295989" lon="129.2081439"><tag k="man_made" v="surveillance" /><tag k="surveillance" v="outdoor" /><tag k="surveillance:zone" v="traffic" /><tag k="surveillance:type" v="camera" /><tag k="name" v="월성초등학교앞" /><tag k="source" v="공공데이터포털" /><tag k="source:date" v="2019-10-18" /></node><node id="-200023" action="modify" visible="true" lat="35.87262627" lon="129.2031244"><tag k="man_made" v="surveillance" /><tag k="surveillance" v="outdoor" /><tag k="surveillance:zone" v="traffic" /><tag k="surveillance:type" v="camera" /><tag k="name" v="금장아파트앞" /><tag k="source" v="공공데이터포털" /><tag k="source:date" v="2019-10-18" /></node><node id="-200024" action="modify" visible="true" lat="35.85577028" lon="129.2211809"><tag k="man_made" v="surveillance" /><tag k="surveillance" v="outdoor" /><tag k="surveillance:zone" v="traffic" /><tag k="surveillance:type" v="camera" /><tag k="name" v="보림칼라앞" /><tag k="source" v="공공데이터포털" /><tag k="source:date" v="2019-10-18" /></node><node id="-200025" action="modify" visible="true" lat="35.78652047" lon="129.3277687"><tag k="man_made" v="surveillance" /><tag k="surveillance" v="outdoor" /><tag k="surveillance:zone" v="traffic" /><tag k="surveillance:type" v="camera" /><tag k="name" v="불국사관광안내소" /><tag k="source" v="공공데이터포털" /><tag k="source:date" v="2019-10-18" /></node><node id="-200026" action="modify" visible="true" lat="35.84791531" lon="129.2287207"><tag k="man_made" v="surveillance" /><tag k="surveillance" v="outdoor" /><tag k="surveillance:zone" v="traffic" /><tag k="surveillance:type" v="camera" /><tag k="name" v="동천초등학교앞" /><tag k="source" v="공공데이터포털" /><tag k="source:date" v="2019-10-18" /></node><node id="-200027" action="modify" visible="true" lat="35.84968113" lon="129.2172903"><tag k="man_made" v="surveillance" /><tag k="surveillance" v="outdoor" /><tag k="surveillance:zone" v="traffic" /><tag k="surveillance:type" v="camera" /><tag k="name" v="경주세무서삼거리" /><tag k="source" v="공공데이터포털" /><tag k="source:date" v="2019-10-18" /></node><node id="-200028" action="modify" visible="true" lat="35.86183686" lon="129.216646"><tag k="man_made" v="surveillance" /><tag k="surveillance" v="outdoor" /><tag k="surveillance:zone" v="traffic" /><tag k="surveillance:type" v="camera" /><tag k="name" v="주공1단지아파트앞" /><tag k="source" v="공공데이터포털" /><tag k="source:date" v="2019-10-18" /></node><node id="-200029" action="modify" visible="true" lat="35.8331225" lon="129.2263562"><tag k="man_made" v="surveillance" /><tag k="surveillance" v="outdoor" /><tag k="surveillance:zone" v="traffic" /><tag k="surveillance:type" v="camera" /><tag k="name" v="안압지앞" /><tag k="source" v="공공데이터포털" /><tag k="source:date" v="2019-10-18" /></node><node id="-200030" action="modify" visible="true" lat="35.86644489" lon="129.2119442"><tag k="man_made" v="surveillance" /><tag k="surveillance" v="outdoor" /><tag k="surveillance:zone" v="traffic" /><tag k="surveillance:type" v="camera" /><tag k="name" v="현대2차아파트앞" /><tag k="source" v="공공데이터포털" /><tag k="source:date" v="2019-10-18" /></node><node id="-200031" action="modify" visible="true" lat="35.79889547" lon="129.1419038"><tag k="man_made" v="surveillance" /><tag k="surveillance" v="outdoor" /><tag k="surveillance:zone" v="traffic" /><tag k="surveillance:type" v="camera" /><tag k="name" v="신경주역" /><tag k="source" v="공공데이터포털" /><tag k="source:date" v="2019-10-18" /></node><node id="-200032" action="modify" visible="true" lat="35.8483832" lon="129.2270342"><tag k="man_made" v="surveillance" /><tag k="surveillance" v="outdoor" /><tag k="surveillance:zone" v="traffic" /><tag k="surveillance:type" v="camera" /><tag k="name" v="동천초등학교후문" /><tag k="source" v="공공데이터포털" /><tag k="source:date" v="2019-10-18" /></node><node id="-200033" action="modify" visible="true" lat="35.85017993" lon="129.2293646"><tag k="man_made" v="surveillance" /><tag k="surveillance" v="outdoor" /><tag k="surveillance:zone" v="traffic" /><tag k="surveillance:type" v="camera" /><tag k="name" v="부호사우나 삼거리" /><tag k="source" v="공공데이터포털" /><tag k="source:date" v="2019-10-18" /></node><node id="-200034" action="modify" visible="true" lat="35.84403698" lon="129.2103741"><tag k="man_made" v="surveillance" /><tag k="surveillance" v="outdoor" /><tag k="surveillance:zone" v="traffic" /><tag k="surveillance:type" v="camera" /><tag k="name" v="제1공영주차장앞" /><tag k="source" v="공공데이터포털" /><tag k="source:date" v="2019-10-18" /></node><node id="-200035" action="modify" visible="true" lat="35.84136955" lon="129.2067582"><tag k="man_made" v="surveillance" /><tag k="surveillance" v="outdoor" /><tag k="surveillance:zone" v="traffic" /><tag k="surveillance:type" v="camera" /><tag k="name" v="서성로 현대자동차 앞(파크랜드앞)" /><tag k="source" v="공공데이터포털" /><tag k="source:date" v="2019-10-18" /></node><node id="-200036" action="modify" visible="true" lat="35.8551876" lon="129.2066136"><tag k="man_made" v="surveillance" /><tag k="surveillance" v="outdoor" /><tag k="surveillance:zone" v="traffic" /><tag k="surveillance:type" v="camera" /><tag k="name" v="동대로사거리(동국약국 맞은편) 앞" /><tag k="source" v="공공데이터포털" /><tag k="source:date" v="2019-10-18" /></node><node id="-200037" action="modify" visible="true" lat="35.84429926" lon="129.2138539"><tag k="man_made" v="surveillance" /><tag k="surveillance" v="outdoor" /><tag k="surveillance:zone" v="traffic" /><tag k="surveillance:type" v="camera" /><tag k="name" v="KT삼거리 (KT경주지사 맞은편)" /><tag k="source" v="공공데이터포털" /><tag k="source:date" v="2019-10-18" /></node><node id="-200038" action="modify" visible="true" lat="35.84157276" lon="129.2098496"><tag k="man_made" v="surveillance" /><tag k="surveillance" v="outdoor" /><tag k="surveillance:zone" v="traffic" /><tag k="surveillance:type" v="camera" /><tag k="name" v="봉황대(노서동 노서리 고분 앞)" /><tag k="source" v="공공데이터포털" /><tag k="source:date" v="2019-10-18" /></node><node id="-200039" action="modify" visible="true" lat="35.84222091" lon="129.2099259"><tag k="man_made" v="surveillance" /><tag k="surveillance" v="outdoor" /><tag k="surveillance:zone" v="traffic" /><tag k="surveillance:type" v="camera" /><tag k="name" v="청기와사거리(청기와 커피 앞)" /><tag k="source" v="공공데이터포털" /><tag k="source:date" v="2019-10-18" /></node><node id="-200040" action="modify" visible="true" lat="35.84344624" lon="129.2099666"><tag k="man_made" v="surveillance" /><tag k="surveillance" v="outdoor" /><tag k="surveillance:zone" v="traffic" /><tag k="surveillance:type" v="camera" /><tag k="name" v="봉황로 문화의거리 행운슈퍼사거리(학생당상가)" /><tag k="source" v="공공데이터포털" /><tag k="source:date" v="2019-10-18" /></node><node id="-200041" action="modify" visible="true" lat="35.83905501" lon="129.202993"><tag k="man_made" v="surveillance" /><tag k="surveillance" v="outdoor" /><tag k="surveillance:zone" v="traffic" /><tag k="surveillance:type" v="camera" /><tag k="name" v="시외버스터미널(GS25편의점 앞)" /><tag k="source" v="공공데이터포털" /><tag k="source:date" v="2019-10-18" /></node><node id="-200042" action="modify" visible="true" lat="35.84505588" lon="129.2076444"><tag k="man_made" v="surveillance" /><tag k="surveillance" v="outdoor" /><tag k="surveillance:zone" v="traffic" /><tag k="surveillance:type" v="camera" /><tag k="name" v="화랑로 사거리(중앙시장네거리)" /><tag k="source" v="공공데이터포털" /><tag k="source:date" v="2019-10-18" /></node><node id="-200043" action="modify" visible="true" lat="35.7139649" lon="129.3247393"><tag k="man_made" v="surveillance" /><tag k="surveillance" v="outdoor" /><tag k="surveillance:zone" v="traffic" /><tag k="surveillance:type" v="camera" /><tag k="name" v="외동읍 입실한의원 앞" /><tag k="source" v="공공데이터포털" /><tag k="source:date" v="2019-10-18" /></node><node id="-200044" action="modify" visible="true" lat="35.85620277" lon="129.2247303"><tag k="man_made" v="surveillance" /><tag k="surveillance" v="outdoor" /><tag k="surveillance:zone" v="traffic" /><tag k="surveillance:type" v="camera" /><tag k="name" v="경주시청 앞" /><tag k="source" v="공공데이터포털" /><tag k="source:date" v="2019-10-18" /></node><node id="-200045" action="modify" visible="true" lat="35.86760114" lon="129.2027272"><tag k="man_made" v="surveillance" /><tag k="surveillance" v="outdoor" /><tag k="surveillance:zone" v="traffic" /><tag k="surveillance:type" v="camera" /><tag k="name" v="현곡면 우남사우나 맞은편(서라벌공인중계사 맞은편)" /><tag k="source" v="공공데이터포털" /><tag k="source:date" v="2019-10-18" /></node><node id="-200046" action="modify" visible="true" lat="35.8657621" lon="129.214403"><tag k="man_made" v="surveillance" /><tag k="surveillance" v="outdoor" /><tag k="surveillance:zone" v="traffic" /><tag k="surveillance:type" v="camera" /><tag k="name" v="황성동 파리바게트" /><tag k="source" v="공공데이터포털" /><tag k="source:date" v="2019-10-18" /></node><node id="-200047" action="modify" visible="true" lat="35.84874878" lon="129.2051875"><tag k="man_made" v="surveillance" /><tag k="surveillance" v="outdoor" /><tag k="surveillance:zone" v="traffic" /><tag k="surveillance:type" v="camera" /><tag k="name" v="흥무초등학교" /><tag k="source" v="공공데이터포털" /><tag k="source:date" v="2019-10-18" /></node><node id="-200048" action="modify" visible="true" lat="35.87275978" lon="129.2032925"><tag k="man_made" v="surveillance" /><tag k="surveillance" v="outdoor" /><tag k="surveillance:zone" v="traffic" /><tag k="surveillance:type" v="camera" /><tag k="name" v="금장초등학교" /><tag k="source" v="공공데이터포털" /><tag k="source:date" v="2019-10-18" /></node><node id="-200049" action="modify" visible="true" lat="35.91959364" lon="129.2461616"><tag k="man_made" v="surveillance" /><tag k="surveillance" v="outdoor" /><tag k="surveillance:zone" v="traffic" /><tag k="surveillance:type" v="camera" /><tag k="name" v="모아초등학교" /><tag k="source" v="공공데이터포털" /><tag k="source:date" v="2019-10-18" /></node><node id="-200050" action="modify" visible="true" lat="35.84862003" lon="129.1042922"><tag k="man_made" v="surveillance" /><tag k="surveillance" v="outdoor" /><tag k="surveillance:zone" v="traffic" /><tag k="surveillance:type" v="camera" /><tag k="name" v="건천읍 대한치과 앞" /><tag k="source" v="공공데이터포털" /><tag k="source:date" v="2019-10-18" /></node><node id="-200051" action="modify" visible="true" lat="35.84993059" lon="129.1019303"><tag k="man_made" v="surveillance" /><tag k="surveillance" v="outdoor" /><tag k="surveillance:zone" v="traffic" /><tag k="surveillance:type" v="camera" /><tag k="name" v="건천읍사무소앞" /><tag k="source" v="공공데이터포털" /><tag k="source:date" v="2019-10-18" /></node><node id="-200052" action="modify" visible="true" lat="35.84618685" lon="129.2170265"><tag k="man_made" v="surveillance" /><tag k="surveillance" v="outdoor" /><tag k="surveillance:zone" v="traffic" /><tag k="surveillance:type" v="camera" /><tag k="name" v="우리들온누리약국 앞" /><tag k="source" v="공공데이터포털" /><tag k="source:date" v="2019-10-18" /></node><node id="-200053" action="modify" visible="true" lat="35.84474237" lon="129.2154879"><tag k="man_made" v="surveillance" /><tag k="surveillance" v="outdoor" /><tag k="surveillance:zone" v="traffic" /><tag k="surveillance:type" v="camera" /><tag k="name" v="새천년병원 앞" /><tag k="source" v="공공데이터포털" /><tag k="source:date" v="2019-10-18" /></node><node id="-200054" action="modify" visible="true" lat="35.86872483" lon="129.2128648"><tag k="man_made" v="surveillance" /><tag k="surveillance" v="outdoor" /><tag k="surveillance:zone" v="traffic" /><tag k="surveillance:type" v="camera" /><tag k="name" v="유림초등학교 앞" /><tag k="source" v="공공데이터포털" /><tag k="source:date" v="2019-10-18" /></node><node id="-200055" action="modify" visible="true" lat="35.8642745" lon="129.2215551"><tag k="man_made" v="surveillance" /><tag k="surveillance" v="outdoor" /><tag k="surveillance:zone" v="traffic" /><tag k="surveillance:type" v="camera" /><tag k="name" v="용황유치원 앞" /><tag k="source" v="공공데이터포털" /><tag k="source:date" v="2019-10-18" /></node><node id="-200056" action="modify" visible="true" lat="35.88499451" lon="129.2242326"><tag k="man_made" v="surveillance" /><tag k="surveillance" v="outdoor" /><tag k="surveillance:zone" v="traffic" /><tag k="surveillance:type" v="camera" /><tag k="name" v="황성 현진에버빌" /><tag k="source" v="공공데이터포털" /><tag k="source:date" v="2019-10-18" /></node><node id="-200057" action="modify" visible="true" lat="35.87678694" lon="129.2186245"><tag k="man_made" v="surveillance" /><tag k="surveillance" v="outdoor" /><tag k="surveillance:zone" v="traffic" /><tag k="surveillance:type" v="camera" /><tag k="name" v="황성 협성휴포레 앞" /><tag k="source" v="공공데이터포털" /><tag k="source:date" v="2019-10-18" /></node><node id="-200058" action="modify" visible="true" lat="35.86506919" lon="129.2205154"><tag k="man_made" v="surveillance" /><tag k="surveillance" v="outdoor" /><tag k="surveillance:zone" v="traffic" /><tag k="surveillance:type" v="camera" /><tag k="name" v="용황초등학교" /><tag k="source" v="공공데이터포털" /><tag k="source:date" v="2019-10-18" /></node><node id="-200059" action="modify" visible="true" lat="35.87271439" lon="129.2282292"><tag k="man_made" v="surveillance" /><tag k="surveillance" v="outdoor" /><tag k="surveillance:zone" v="traffic" /><tag k="surveillance:type" v="camera" /><tag k="name" v="황남초등학교 정문" /><tag k="source" v="공공데이터포털" /><tag k="source:date" v="2019-10-18" /></node><node id="-200060" action="modify" visible="true" lat="35.88485689" lon="129.229757"><tag k="man_made" v="surveillance" /><tag k="surveillance" v="outdoor" /><tag k="surveillance:zone" v="traffic" /><tag k="surveillance:type" v="camera" /><tag k="name" v="황남초등학교 후문" /><tag k="source" v="공공데이터포털" /><tag k="source:date" v="2019-10-18" /></node></osm>