<?xml version='1.0' encoding='utf-8'?>
<osm version="0.6" generator="JOSM"><node id="-200001" action="modify" visible="true" lat="34.889423" lon="128.609444"><tag k="name" v="거제시립장평도서관" /><tag k="도서관유형" v="공공도서관" /><tag k="opening_hours" v="Tu-Su 09:00-18:00; Mo, PH off" /><tag k="capacity" v="305" /><tag k="ref:isil" v="KR-148184" /><tag k="operator" v="경상남도 거제시청" /><tag k="phone" v="+82 55 639 3861" /><tag k="website" v="http://www.lib.geoje.go.kr" /><tag k="source" v="공공데이터포털" /><tag k="source:date" v="2021-02-08" /><tag k="addr:street" v="장평3로" /><tag k="addr:housenumber" v="10" /></node><node id="-200002" action="modify" visible="true" lat="34.897043" lon="128.687551"><tag k="name" v="거제시립옥포도서관" /><tag k="도서관유형" v="공공도서관" /><tag k="opening_hours" v="Tu-Su 09:00-18:00; Mo, PH off" /><tag k="capacity" v="197" /><tag k="ref:isil" v="KR-148089" /><tag k="operator" v="경상남도 거제시청" /><tag k="phone" v="+82 55 639 3881" /><tag k="website" v="http://www.lib.geoje.go.kr" /><tag k="source" v="공공데이터포털" /><tag k="source:date" v="2021-02-08" /><tag k="addr:street" v="진목로" /><tag k="addr:housenumber" v="20" /></node><node id="-200003" action="modify" visible="true" lat="34.86990566" lon="128.731335"><tag k="name" v="거제시립장승포도서관" /><tag k="도서관유형" v="공공도서관" /><tag k="opening_hours" v="Tu-Su 09:00-18:00; Mo, PH off" /><tag k="capacity" v="164" /><tag k="ref:isil" v="KR-148033" /><tag k="operator" v="경상남도 거제시청" /><tag k="phone" v="+82 55 639 3871" /><tag k="website" v="http://www.lib.geoje.go.kr" /><tag k="source" v="공공데이터포털" /><tag k="source:date" v="2021-02-08" /><tag k="addr:street" v="신부로" /><tag k="addr:housenumber" v="36" /></node><node id="-200004" action="modify" visible="true" lat="34.887938" lon="128.6462711"><tag k="name" v="거제시립수양도서관" /><tag k="도서관유형" v="공공도서관" /><tag k="opening_hours" v="Tu-Su 09:00-18:00; Mo, PH off" /><tag k="capacity" v="250" /><tag k="ref:isil" v="KR-148302" /><tag k="operator" v="경상남도 거제시청" /><tag k="phone" v="+82 55 639 3891" /><tag k="website" v="http://www.lib.geoje.go.kr" /><tag k="source" v="공공데이터포털" /><tag k="source:date" v="2021-02-08" /><tag k="addr:street" v="제산로5길" /><tag k="addr:housenumber" v="26" /></node><node id="-200005" action="modify" visible="true" lat="34.955369" lon="128.6551964"><tag k="name" v="거제시립하청도서관" /><tag k="도서관유형" v="공공도서관" /><tag k="opening_hours" v="Tu-Su 09:00-18:00; Mo, PH off" /><tag k="capacity" v="170" /><tag k="ref:isil" v="KR-148307" /><tag k="operator" v="경상남도 거제시청" /><tag k="phone" v="+82 55 639 3891" /><tag k="website" v="http://www.lib.geoje.go.kr" /><tag k="source" v="공공데이터포털" /><tag k="source:date" v="2021-02-08" /><tag k="addr:street" v="하청로" /><tag k="addr:housenumber" v="12-7" /><tag k="addr:subdistrict" v="하청면" /></node><node id="-200006" action="modify" visible="true" lat="34.893799" lon="128.696573"><tag k="name" v="옥포작은도서관" /><tag k="도서관유형" v="작은도서관" /><tag k="opening_hours" v="Mo-Sa 09:00-18:00; Su, PH off" /><tag k="capacity" v="19" /><tag k="ref:isil" v="KR-148211" /><tag k="operator" v="경상남도 거제시 옥포종합사회복지관" /><tag k="phone" v="+82 55 680 7021" /><tag k="website" v="http://www.okpowelfare.or.kr" /><tag k="source" v="공공데이터포털" /><tag k="source:date" v="2021-02-08" /><tag k="addr:street" v="옥포대첩로" /><tag k="addr:housenumber" v="84" /></node><node id="-200007" action="modify" visible="true" lat="34.883467" lon="128.625253"><tag k="name" v="거제2동 새마을문고작은도서관" /><tag k="도서관유형" v="작은도서관" /><tag k="opening_hours" v="Mo-Fr 10:00-17:00; Sa-Su, PH off" /><tag k="capacity" v="10" /><tag k="ref:isil" v="KR-126049" /><tag k="operator" v="경상남도 거제시 새마을운동거제시지회" /><tag k="phone" v="+82 55 637 0185" /><tag k="website" v="http://www.saemaul.com" /><tag k="source" v="공공데이터포털" /><tag k="source:date" v="2021-02-08" /><tag k="addr:street" v="거제중앙로" /><tag k="addr:housenumber" v="1849" /></node><node id="-200008" action="modify" visible="true" lat="34.86909587" lon="128.627921"><tag k="name" v="푸른숲작은도서관" /><tag k="도서관유형" v="작은도서관" /><tag k="opening_hours" v="Mo-Fr 14:00-22:00; Sa-Su 10:00-18:00; PH off" /><tag k="capacity" v="80" /><tag k="ref:isil" v="KR-746089" /><tag k="operator" v="경상남도 거제시 대동다숲아파트입주자대표회" /><tag k="phone" v="+82 55 633 8849" /><tag k="source" v="공공데이터포털" /><tag k="source:date" v="2021-02-08" /><tag k="addr:street" v="상동7길" /><tag k="addr:housenumber" v="30" /></node><node id="-200009" action="modify" visible="true" lat="34.862441" lon="128.691076"><tag k="name" v="모오리돌작은도서관" /><tag k="도서관유형" v="작은도서관" /><tag k="opening_hours" v="Mo-Fr 09:00-18:00; Sa 09:00-17:00; Su, PH off" /><tag k="capacity" v="60" /><tag k="ref:isil" v="KR-148175" /><tag k="operator" v="경상남도 거제시 YWCA" /><tag k="phone" v="+82 55 682 4950" /><tag k="website" v="http://www.gjywca.or.kr" /><tag k="source" v="공공데이터포털" /><tag k="source:date" v="2021-02-08" /><tag k="addr:street" v="탑곡로" /><tag k="addr:housenumber" v="75" /></node><node id="-200010" action="modify" visible="true" lat="34.73225056" lon="128.610145"><tag k="name" v="남부면작은도서관" /><tag k="도서관유형" v="작은도서관" /><tag k="opening_hours" v="Mo-Fr 09:00-18:00; Sa-Su, PH off" /><tag k="capacity" v="16" /><tag k="ref:isil" v="KR-148173" /><tag k="operator" v="경상남도 거제시 남부면주민자치센터" /><tag k="phone" v="+82 55 639 6537" /><tag k="source" v="공공데이터포털" /><tag k="source:date" v="2021-02-08" /><tag k="addr:street" v="남부해안로" /><tag k="addr:housenumber" v="30" /><tag k="addr:subdistrict" v="남부면" /></node><node id="-200011" action="modify" visible="true" lat="34.8842936" lon="128.6193499732"><tag k="name" v="글밭작은도서관" /><tag k="도서관유형" v="작은도서관" /><tag k="opening_hours" v="Mo-Fr 09:00-18:00; Sa-Su, PH off" /><tag k="capacity" v="12" /><tag k="ref:isil" v="KR-148170" /><tag k="operator" v="경상남도 거제시 거제시여성단체협의회" /><tag k="phone" v="+82 55 636 3019" /><tag k="source" v="공공데이터포털" /><tag k="source:date" v="2021-02-08" /><tag k="addr:street" v="계룡로13길" /><tag k="addr:housenumber" v="6" /></node><node id="-200012" action="modify" visible="true" lat="34.901991" lon="128.684162"><tag k="name" v="성은작은도서관" /><tag k="도서관유형" v="작은도서관" /><tag k="opening_hours" v="Mo-Fr 12:00-17:00; Sa-Su, PH off" /><tag k="capacity" v="12" /><tag k="ref:isil" v="KR-148284" /><tag k="operator" v="경상남도 거제시 성은아파트입주자대표회" /><tag k="phone" v="+82 55 687 7794" /><tag k="source" v="공공데이터포털" /><tag k="source:date" v="2021-02-08" /><tag k="addr:street" v="옥포로" /><tag k="addr:housenumber" v="315-2" /></node><node id="-200013" action="modify" visible="true" lat="34.741477" lon="128.662206"><tag k="name" v="바람의언덕작은도서관" /><tag k="도서관유형" v="작은도서관" /><tag k="opening_hours" v="Mo-Su, PH 09:00-17:00" /><tag k="capacity" v="10" /><tag k="ref:isil" v="none" /><tag k="operator" v="경상남도 거제시 해금강교회" /><tag k="phone" v="+82 55 633 1527" /><tag k="source" v="공공데이터포털" /><tag k="source:date" v="2021-02-08" /><tag k="addr:street" v="도장포1길" /><tag k="addr:housenumber" v="50-4" /><tag k="addr:subdistrict" v="남부면" /></node><node id="-200014" action="modify" visible="true" lat="34.85109247" lon="128.596057"><tag k="name" v="참새미작은도서관" /><tag k="도서관유형" v="작은도서관" /><tag k="opening_hours" v="Mo-Fr 09:00-18:00; Sa-Su, PH off" /><tag k="capacity" v="16" /><tag k="ref:isil" v="KR-747005" /><tag k="operator" v="경상남도 거제시 거제면주민자치센터" /><tag k="phone" v="+82 55 632 6452" /><tag k="website" v="http://gw.re.kr/development/development07.jsp" /><tag k="source" v="공공데이터포털" /><tag k="source:date" v="2021-02-08" /><tag k="addr:street" v="동상3길" /><tag k="addr:housenumber" v="26" /><tag k="addr:subdistrict" v="거제면" /></node><node id="-200015" action="modify" visible="true" lat="34.890039" lon="128.6411267"><tag k="name" v="힐나눔작은도서관" /><tag k="도서관유형" v="작은도서관" /><tag k="opening_hours" v="Mo-Fr 09:00-18:00; Sa-Su, PH off" /><tag k="capacity" v="30" /><tag k="ref:isil" v="none" /><tag k="operator" v="경상남도 거제시 힐스테이트입주자대표회" /><tag k="phone" v="+82 55 637 8201" /><tag k="source" v="공공데이터포털" /><tag k="source:date" v="2021-02-08" /><tag k="addr:street" v="제산로" /><tag k="addr:housenumber" v="51" /></node><node id="-200016" action="modify" visible="true" lat="34.86643348" lon="128.6849359"><tag k="name" v="덕산아내프리미엄아파트 작은도서관" /><tag k="도서관유형" v="작은도서관" /><tag k="opening_hours" v="Tu-Su 09:00-18:00; Mo, PH off" /><tag k="capacity" v="40" /><tag k="ref:isil" v="none" /><tag k="operator" v="경상남도 거제시 덕산아내프리미엄1차아파트입주자대표회" /><tag k="phone" v="+82 55 681 9766" /><tag k="source" v="공공데이터포털" /><tag k="source:date" v="2021-02-08" /><tag k="addr:street" v="아주로" /><tag k="addr:housenumber" v="100-10" /></node><node id="-200017" action="modify" visible="true" lat="34.879448" lon="128.6264279"><tag k="name" v="파라미타작은도서관" /><tag k="도서관유형" v="작은도서관" /><tag k="opening_hours" v="Mo-Fr 09:00-18:00; Sa-Su, PH off" /><tag k="capacity" v="20" /><tag k="ref:isil" v="none" /><tag k="operator" v="사단법인 좋은벗" /><tag k="phone" v="+82 55 681 2679" /><tag k="source" v="공공데이터포털" /><tag k="source:date" v="2021-02-08" /><tag k="addr:street" v="계룡로2길" /><tag k="addr:housenumber" v="69-1" /></node><node id="-200018" action="modify" visible="true" lat="34.86690134" lon="128.6832833"><tag k="name" v="덕산아내프리미엄2차아파트작은도서관" /><tag k="도서관유형" v="작은도서관" /><tag k="opening_hours" v="Mo-Fr 09:00-18:00; Sa-Su, PH off" /><tag k="capacity" v="16" /><tag k="ref:isil" v="none" /><tag k="operator" v="경상남도 거제시 덕산아내프리미엄2차아파트입주자대표회" /><tag k="phone" v="+82 55 681 2679" /><tag k="source" v="공공데이터포털" /><tag k="source:date" v="2021-02-08" /><tag k="addr:street" v="아주로" /><tag k="addr:housenumber" v="100-11" /></node><node id="-200019" action="modify" visible="true" lat="34.85852366" lon="128.6345179"><tag k="name" v="벽산3차새마을작은도서관" /><tag k="도서관유형" v="작은도서관" /><tag k="opening_hours" v="Mo-Fr 14:00-23:00; Sa-Su, PH off" /><tag k="capacity" v="45" /><tag k="ref:isil" v="KR-748091" /><tag k="operator" v="경상남도 거제시 벽산e-솔렌스힐 3차아파트입주자대표회" /><tag k="phone" v="+82 55 637 2500" /><tag k="source" v="공공데이터포털" /><tag k="source:date" v="2021-02-08" /><tag k="addr:street" v="상동5길" /><tag k="addr:housenumber" v="117-50" /></node><node id="-200020" action="modify" visible="true" lat="34.86059289" lon="128.6307668"><tag k="name" v="벽산-e솔렌스힐2차작은도서관" /><tag k="도서관유형" v="작은도서관" /><tag k="opening_hours" v="Mo-Fr 09:00-18:00; Sa-Su, PH off" /><tag k="capacity" v="24" /><tag k="ref:isil" v="none" /><tag k="operator" v="경상남도 거제시 벽산e-솔렌스힐 2차아파트입주자대표회" /><tag k="phone" v="+82 55 632 7066" /><tag k="source" v="공공데이터포털" /><tag k="source:date" v="2021-02-08" /><tag k="addr:street" v="상동5길" /><tag k="addr:housenumber" v="117-16" /></node><node id="-200021" action="modify" visible="true" lat="34.89811443" lon="128.6953232"><tag k="name" v="e편한세상옥포아파트작은도서관" /><tag k="도서관유형" v="작은도서관" /><tag k="opening_hours" v="Mo-Sa 16:00-22:00; Su, PH off" /><tag k="capacity" v="12" /><tag k="ref:isil" v="none" /><tag k="operator" v="경상남도 거제시 e편한세상 옥포아파트입주자 대표회" /><tag k="phone" v="+82 55 687 3226" /><tag k="source" v="공공데이터포털" /><tag k="source:date" v="2021-02-08" /><tag k="addr:street" v="성산로" /><tag k="addr:housenumber" v="33" /></node><node id="-200022" action="modify" visible="true" lat="34.83654182" lon="128.504779"><tag k="name" v="둔덕청마꽃들작은도서관" /><tag k="도서관유형" v="작은도서관" /><tag k="opening_hours" v="Tu-Su 09:00-18:00; Mo, PH off" /><tag k="capacity" v="16" /><tag k="ref:isil" v="KR-748134" /><tag k="operator" v="경상남도 거제시 둔덕면 거제남서로 4624" /><tag k="phone" v="+82 55 638 0011" /><tag k="source" v="공공데이터포털" /><tag k="source:date" v="2021-02-08" /><tag k="addr:street" v="거제남서로" /><tag k="addr:housenumber" v="4624" /><tag k="addr:subdistrict" v="둔덕면" /></node><node id="-200023" action="modify" visible="true" lat="34.83607217" lon="128.7173632"><tag k="name" v="엘마르작은도서관" /><tag k="도서관유형" v="작은도서관" /><tag k="opening_hours" v="Mo-Su, PH 08:00-23:00" /><tag k="capacity" v="24" /><tag k="ref:isil" v="none" /><tag k="operator" v="경상남도 거제시 일운면 지세포해안로 258" /><tag k="phone" v="+82 55 681 0117" /><tag k="source" v="공공데이터포털" /><tag k="source:date" v="2021-02-08" /><tag k="addr:street" v="지세포해안로" /><tag k="addr:housenumber" v="258" /><tag k="addr:subdistrict" v="일운면" /></node><node id="-200024" action="modify" visible="true" lat="34.94326154" lon="128.7152614"><tag k="name" v="외포바다마을 작은도서관" /><tag k="도서관유형" v="작은도서관" /><tag k="opening_hours" v="Tu-Su 09:00-18:00; Mo, PH off" /><tag k="capacity" v="34" /><tag k="ref:isil" v="KR-748165" /><tag k="operator" v="경상남도 거제시청" /><tag k="phone" v="+82 55 636 5063" /><tag k="source" v="공공데이터포털" /><tag k="source:date" v="2021-02-08" /><tag k="addr:street" v="외포4길" /><tag k="addr:housenumber" v="12" /><tag k="addr:subdistrict" v="장목면" /></node><node id="-200025" action="modify" visible="true" lat="34.86925907" lon="128.6461879"><tag k="name" v="거제시종합사회복지관 작은도서관" /><tag k="도서관유형" v="작은도서관" /><tag k="opening_hours" v="Mo-Fr 09:00-18:00; Sa-Su, PH off" /><tag k="capacity" v="20" /><tag k="ref:isil" v="none" /><tag k="operator" v="경상남도 거제시 양정1길 45, 1층(양정동)" /><tag k="phone" v="+82 55 636 0303" /><tag k="source" v="공공데이터포털" /><tag k="source:date" v="2021-02-08" /><tag k="addr:street" v="외포4길" /><tag k="addr:housenumber" v="12" /><tag k="addr:subdistrict" v="장목면" /></node><node id="-200026" action="modify" visible="true" lat="34.86806377" lon="128.6378538166"><tag k="name" v="상문동스마트도서관" /><tag k="도서관유형" v="작은도서관" /><tag k="ref:isil" v="none" /><tag k="operator" v="경상남도 거제시청" /><tag k="phone" v="+82 55 639 3861" /><tag k="website" v="http://www.lib.geoje.go.kr" /><tag k="source" v="공공데이터포털" /><tag k="source:date" v="2021-02-08" /><tag k="addr:street" v="거제중앙로" /><tag k="addr:housenumber" v="1641" /></node></osm>