<?xml version='1.0' encoding='utf-8'?>
<osm version="0.6" generator="JOSM"><node id="-200001" action="modify" visible="true" lat="37.40327085" lon="126.6416471"><tag k="amenity" v="library" /><tag k="name" v="송도2동작은도서관" /><tag k="capacity" v="60" /><tag k="ref:isil" v="KR-128086" /><tag k="operator" v="인천광역시 연수구청" /><tag k="phone" v="+82 32 749 6595" /><tag k="website" v="http://www.yspubliclib.go.kr" /><tag k="source" v="공공데이터포털" /><tag k="source:date" v="2021-01-01" /><tag k="addr:street" v="신송로" /><tag k="addr:housenumber" v="248" /></node><node id="-200002" action="modify" visible="true" lat="37.38582094" lon="126.6590472"><tag k="amenity" v="library" /><tag k="name" v="해돋이도서관" /><tag k="opening_hours" v="Mo off; Tu-Fr 09:00-20:00; Sa 09:00-18:00; Su off" /><tag k="capacity" v="200" /><tag k="ref:isil" v="KR-128099" /><tag k="operator" v="인천광역시 연수구청" /><tag k="phone" v="+82 32 749 6950" /><tag k="website" v="http://www.yspubliclib.go.kr" /><tag k="source" v="공공데이터포털" /><tag k="source:date" v="2021-01-01" /><tag k="addr:street" v="해돋이로" /><tag k="addr:housenumber" v="7" /></node><node id="-200003" action="modify" visible="true" lat="37.4222546" lon="126.6810562"><tag k="amenity" v="library" /><tag k="name" v="연수1동작은도서관" /><tag k="capacity" v="60" /><tag k="ref:isil" v="KR-128100" /><tag k="operator" v="인천광역시 연수구청" /><tag k="phone" v="+82 32 749 6151" /><tag k="website" v="http://www.yspubliclib.go.kr" /><tag k="source" v="공공데이터포털" /><tag k="source:date" v="2021-01-01" /><tag k="addr:street" v="함박뫼로" /><tag k="addr:housenumber" v="127" /></node><node id="-200004" action="modify" visible="true" lat="37.4255593" lon="126.6609502"><tag k="amenity" v="library" /><tag k="name" v="연수청학도서관" /><tag k="opening_hours" v="Mo off; Tu-Fr 09:00-20:00; Sa 09:00-18:00; Su off" /><tag k="capacity" v="400" /><tag k="ref:isil" v="KR-128058" /><tag k="operator" v="인천광역시 연수구청" /><tag k="phone" v="+82 32 749 8270" /><tag k="website" v="http://www.yspubliclib.go.kr" /><tag k="source" v="공공데이터포털" /><tag k="source:date" v="2021-01-01" /><tag k="addr:street" v="솔샘로" /><tag k="addr:housenumber" v="146" /></node><node id="-200005" action="modify" visible="true" lat="37.41233703" lon="126.6747411"><tag k="amenity" v="library" /><tag k="name" v="연수어린이도서관" /><tag k="opening_hours" v="Mo off; Tu-Sa 10:00-18:00; Su off" /><tag k="capacity" v="500" /><tag k="books" v="children" /><tag k="ref:isil" v="KR-128005" /><tag k="operator" v="인천광역시 연수구청" /><tag k="phone" v="+82 32 749 8200" /><tag k="website" v="http://www.yspubliclib.go.kr" /><tag k="source" v="공공데이터포털" /><tag k="source:date" v="2021-01-01" /><tag k="addr:street" v="먼우금로" /><tag k="addr:housenumber" v="164" /></node><node id="-200006" action="modify" visible="true" lat="37.3979798" lon="126.653648"><tag k="amenity" v="library" /><tag k="name" v="송도국제어린이도서관" /><tag k="opening_hours" v="Mo off; Tu-Sa 10:00-18:00; Su off" /><tag k="capacity" v="200" /><tag k="books" v="children" /><tag k="ref:isil" v="KR-128047" /><tag k="operator" v="인천광역시 연수구청" /><tag k="phone" v="+82 32 749 8220" /><tag k="website" v="http://www.yspubliclib.go.kr" /><tag k="source" v="공공데이터포털" /><tag k="source:date" v="2021-01-01" /><tag k="addr:street" v="컨벤시아대로" /><tag k="addr:housenumber" v="43" /></node><node id="-200007" action="modify" visible="true" lat="37.4273352" lon="126.6550785"><tag k="amenity" v="library" /><tag k="name" v="옥련1동작은도서관" /><tag k="capacity" v="34" /><tag k="ref:isil" v="KR-128038" /><tag k="operator" v="인천광역시 연수구청" /><tag k="phone" v="+82 32 749 6026" /><tag k="website" v="http://www.yspubliclib.go.kr" /><tag k="source" v="공공데이터포털" /><tag k="source:date" v="2021-01-01" /><tag k="addr:street" v="비류대로186번길" /><tag k="addr:housenumber" v="14" /></node><node id="-200008" action="modify" visible="true" lat="37.42619099" lon="126.6482894"><tag k="amenity" v="library" /><tag k="name" v="옥련2동어린이작은도서관" /><tag k="capacity" v="100" /><tag k="books" v="children" /><tag k="ref:isil" v="KR-128011" /><tag k="operator" v="인천광역시 연수구청" /><tag k="phone" v="+82 32 749 6084" /><tag k="website" v="http://www.yspubliclib.go.kr" /><tag k="source" v="공공데이터포털" /><tag k="source:date" v="2021-01-01" /><tag k="addr:street" v="옥련로" /><tag k="addr:housenumber" v="82" /></node><node id="-200009" action="modify" visible="true" lat="37.4116297" lon="126.6818255"><tag k="amenity" v="library" /><tag k="name" v="연수2동작은도서관" /><tag k="capacity" v="60" /><tag k="ref:isil" v="KR-128082" /><tag k="operator" v="인천광역시 연수구청" /><tag k="phone" v="+82 32 749 6244" /><tag k="website" v="http://www.yspubliclib.go.kr" /><tag k="source" v="공공데이터포털" /><tag k="source:date" v="2021-01-01" /><tag k="addr:street" v="원인재로" /><tag k="addr:housenumber" v="158" /></node><node id="-200010" action="modify" visible="true" lat="37.37148711" lon="126.6601642"><tag k="amenity" v="library" /><tag k="name" v="송도3동작은도서관" /><tag k="capacity" v="30" /><tag k="ref:isil" v="KR-728143" /><tag k="operator" v="인천광역시 연수구청" /><tag k="phone" v="+82 32 749 6797" /><tag k="website" v="http://www.yspubliclib.go.kr" /><tag k="source" v="공공데이터포털" /><tag k="source:date" v="2021-01-01" /><tag k="addr:street" v="송도교육로" /><tag k="addr:housenumber" v="63" /></node><node id="-200011" action="modify" visible="true" lat="37.4298457" lon="126.6978667"><tag k="amenity" v="library" /><tag k="name" v="선학별빛도서관" /><tag k="opening_hours" v="Mo off; Tu-Fr 09:00-20:00; Sa 09:00-18:00; Su off" /><tag k="capacity" v="200" /><tag k="ref:isil" v="KR-128104" /><tag k="operator" v="인천광역시 연수구청" /><tag k="phone" v="+82 32 749 6710" /><tag k="website" v="http://www.yspubliclib.go.kr" /><tag k="source" v="공공데이터포털" /><tag k="source:date" v="2021-01-01" /><tag k="addr:street" v="넘말로" /><tag k="addr:housenumber" v="30" /></node><node id="-200012" action="modify" visible="true" lat="37.4078237" lon="126.6640528"><tag k="amenity" v="library" /><tag k="name" v="동춘나래도서관" /><tag k="opening_hours" v="Mo off; Tu-Sa 09:00-18:00; Su off" /><tag k="capacity" v="95" /><tag k="ref:isil" v="KR-128108" /><tag k="operator" v="인천광역시 연수구청" /><tag k="phone" v="+82 33 749 8240" /><tag k="website" v="http://www.yspubliclib.go.kr" /><tag k="source" v="공공데이터포털" /><tag k="source:date" v="2021-01-01" /><tag k="addr:street" v="봉재산로54번길" /><tag k="addr:housenumber" v="30" /></node><node id="-200013" action="modify" visible="true" lat="37.42570103" lon="126.6868034"><tag k="amenity" v="library" /><tag k="name" v="함박비류도서관" /><tag k="opening_hours" v="Mo off; Tu-Sa 09:00-18:00; Su off" /><tag k="capacity" v="23" /><tag k="ref:isil" v="KR-128109" /><tag k="operator" v="인천광역시 연수구청" /><tag k="phone" v="+82 32 749 6970" /><tag k="website" v="http://www.yspubliclib.go.kr" /><tag k="source" v="공공데이터포털" /><tag k="source:date" v="2021-01-01" /><tag k="addr:street" v="함박안로" /><tag k="addr:housenumber" v="218" /></node></osm>