<?xml version='1.0' encoding='utf-8'?>
<osm version="0.6" generator="JOSM"><node id="-200001" action="modify" visible="true" lat="35.69111253" lon="127.9149847"><tag k="name" v="정다운약국" /><tag k="phone" v="+82 55 942 5936" /><tag k="amenity" v="pharmacy" /><tag k="dispensing" v="yes" /><tag k="addr:street" v="거열로" /><tag k="addr:housenumber" v="199" /><tag k="addr:subdistrict" v="거창읍" /></node><node id="-200002" action="modify" visible="true" lat="35.68290096" lon="127.9117634"><tag k="name" v="세종약국" /><tag k="phone" v="+82 55 943 8511" /><tag k="amenity" v="pharmacy" /><tag k="dispensing" v="yes" /><tag k="addr:street" v="수남로" /><tag k="addr:housenumber" v="2287" /><tag k="addr:subdistrict" v="거창읍" /></node><node id="-200003" action="modify" visible="true" lat="35.68099614" lon="127.905595"><tag k="name" v="푸른약국" /><tag k="phone" v="+82 55 942 1300" /><tag k="amenity" v="pharmacy" /><tag k="dispensing" v="yes" /><tag k="addr:street" v="강남로1길" /><tag k="addr:housenumber" v="94-90" /><tag k="addr:subdistrict" v="거창읍" /><tag k="level" v="1" /></node><node id="-200004" action="modify" visible="true" lat="35.68617018" lon="127.9161014"><tag k="name" v="수약국" /><tag k="phone" v="+82 55 942 9872" /><tag k="amenity" v="pharmacy" /><tag k="dispensing" v="yes" /><tag k="addr:street" v="강변로" /><tag k="addr:housenumber" v="177" /><tag k="addr:subdistrict" v="거창읍" /><tag k="level" v="2" /><tag k="addr:door" v="203" /></node><node id="-200005" action="modify" visible="true" lat="35.69043468" lon="127.9151905"><tag k="name" v="선보약국" /><tag k="phone" v="+82 55 945 3252" /><tag k="amenity" v="pharmacy" /><tag k="dispensing" v="yes" /><tag k="addr:street" v="거창대로" /><tag k="addr:housenumber" v="100" /><tag k="addr:subdistrict" v="거창읍" /><tag k="addr:door" v="101" /></node><node id="-200006" action="modify" visible="true" lat="35.68154192" lon="127.898525"><tag k="name" v="송정약국" /><tag k="phone" v="+82 55 943 6137" /><tag k="amenity" v="pharmacy" /><tag k="dispensing" v="yes" /><tag k="addr:street" v="송정1길" /><tag k="addr:housenumber" v="24-6" /><tag k="addr:subdistrict" v="거창읍" /></node><node id="-200007" action="modify" visible="true" lat="35.68817436" lon="127.9162207"><tag k="name" v="종합약국" /><tag k="phone" v="+82 55 944 1114" /><tag k="amenity" v="pharmacy" /><tag k="dispensing" v="yes" /><tag k="addr:street" v="중앙로" /><tag k="addr:housenumber" v="163-6" /><tag k="addr:subdistrict" v="거창읍" /><tag k="level" v="1" /></node><node id="-200008" action="modify" visible="true" lat="35.68557666" lon="127.9082467"><tag k="name" v="중앙약국" /><tag k="phone" v="+82 55 944 2143" /><tag k="amenity" v="pharmacy" /><tag k="dispensing" v="yes" /><tag k="addr:street" v="상동2길" /><tag k="addr:housenumber" v="2" /><tag k="addr:subdistrict" v="거창읍" /></node><node id="-200009" action="modify" visible="true" lat="35.68690574" lon="127.9129389"><tag k="name" v="솔약국" /><tag k="phone" v="+82 55 942 9238" /><tag k="amenity" v="pharmacy" /><tag k="dispensing" v="yes" /><tag k="addr:street" v="중앙로" /><tag k="addr:housenumber" v="134" /><tag k="addr:subdistrict" v="거창읍" /></node><node id="-200010" action="modify" visible="true" lat="35.68729668" lon="127.9156347"><tag k="name" v="기쁨약국" /><tag k="phone" v="+82 55 941 2334" /><tag k="amenity" v="pharmacy" /><tag k="dispensing" v="yes" /><tag k="addr:street" v="거창대로" /><tag k="addr:housenumber" v="65" /><tag k="addr:subdistrict" v="거창읍" /></node><node id="-200011" action="modify" visible="true" lat="35.68747775" lon="127.9162376"><tag k="name" v="조은약국" /><tag k="phone" v="+82 55 941 0603" /><tag k="amenity" v="pharmacy" /><tag k="dispensing" v="yes" /><tag k="addr:street" v="거창대로2길" /><tag k="addr:housenumber" v="5" /><tag k="addr:subdistrict" v="거창읍" /></node><node id="-200012" action="modify" visible="true" lat="35.68653886" lon="127.9159864"><tag k="name" v="태평양약국" /><tag k="phone" v="+82 55 941 2239" /><tag k="amenity" v="pharmacy" /><tag k="dispensing" v="yes" /><tag k="addr:street" v="거창대로" /><tag k="addr:housenumber" v="55" /><tag k="addr:subdistrict" v="거창읍" /></node><node id="-200013" action="modify" visible="true" lat="35.68681941" lon="127.9164607"><tag k="name" v="최약국" /><tag k="phone" v="+82 55 944 0388" /><tag k="amenity" v="pharmacy" /><tag k="dispensing" v="yes" /><tag k="addr:street" v="거창대로" /><tag k="addr:housenumber" v="58" /><tag k="addr:subdistrict" v="거창읍" /></node><node id="-200014" action="modify" visible="true" lat="35.68860577" lon="127.9065091"><tag k="name" v="신일약국" /><tag k="phone" v="+82 55 945 4866" /><tag k="amenity" v="pharmacy" /><tag k="dispensing" v="yes" /><tag k="addr:street" v="거열로" /><tag k="addr:housenumber" v="116" /><tag k="addr:subdistrict" v="거창읍" /><tag k="level" v="2" /></node><node id="-200015" action="modify" visible="true" lat="35.68694419" lon="127.9159326"><tag k="name" v="행복한약국" /><tag k="phone" v="+82 55 943 1155" /><tag k="amenity" v="pharmacy" /><tag k="dispensing" v="yes" /><tag k="addr:street" v="거창대로" /><tag k="addr:housenumber" v="61" /><tag k="addr:subdistrict" v="거창읍" /></node><node id="-200016" action="modify" visible="true" lat="35.68862764" lon="127.9157531"><tag k="name" v="한들약국" /><tag k="phone" v="+82 55 945 2995" /><tag k="amenity" v="pharmacy" /><tag k="dispensing" v="yes" /><tag k="addr:street" v="거창대로" /><tag k="addr:housenumber" v="78-1" /><tag k="addr:subdistrict" v="거창읍" /></node><node id="-200017" action="modify" visible="true" lat="35.68671942" lon="127.9160165"><tag k="name" v="박약국" /><tag k="phone" v="+82 55 945 3653" /><tag k="amenity" v="pharmacy" /><tag k="dispensing" v="yes" /><tag k="addr:street" v="거창대로" /><tag k="addr:housenumber" v="57" /><tag k="addr:subdistrict" v="거창읍" /></node><node id="-200018" action="modify" visible="true" lat="35.68639967" lon="127.9167601"><tag k="name" v="백두산약국" /><tag k="phone" v="+82 55 941 1040" /><tag k="amenity" v="pharmacy" /><tag k="dispensing" v="yes" /><tag k="addr:street" v="거창대로" /><tag k="addr:housenumber" v="52" /><tag k="addr:subdistrict" v="거창읍" /></node><node id="-200019" action="modify" visible="true" lat="35.68553628" lon="127.9080686"><tag k="name" v="상동약국" /><tag k="phone" v="+82 55 943 0008" /><tag k="amenity" v="pharmacy" /><tag k="dispensing" v="yes" /><tag k="addr:street" v="상동2길" /><tag k="addr:housenumber" v="1" /><tag k="addr:subdistrict" v="거창읍" /></node><node id="-200020" action="modify" visible="true" lat="35.68851204" lon="127.9158794"><tag k="name" v="건강한약국" /><tag k="phone" v="+82 55 942 4939" /><tag k="amenity" v="pharmacy" /><tag k="dispensing" v="yes" /><tag k="addr:street" v="거창대로" /><tag k="addr:housenumber" v="78" /><tag k="addr:subdistrict" v="거창읍" /><tag k="level" v="1" /></node><node id="-200021" action="modify" visible="true" lat="35.68710775" lon="127.912696"><tag k="name" v="배약국" /><tag k="phone" v="+82 55 944 2676" /><tag k="amenity" v="pharmacy" /><tag k="dispensing" v="yes" /><tag k="addr:street" v="중앙로" /><tag k="addr:housenumber" v="131-2" /><tag k="addr:subdistrict" v="거창읍" /></node><node id="-200022" action="modify" visible="true" lat="35.69019134" lon="127.9147046"><tag k="name" v="메디팜하나로약국" /><tag k="phone" v="+82 55 943 2331" /><tag k="amenity" v="pharmacy" /><tag k="dispensing" v="yes" /><tag k="addr:street" v="거창대로" /><tag k="addr:housenumber" v="97" /><tag k="addr:subdistrict" v="거창읍" /></node><node id="-200023" action="modify" visible="true" lat="35.68797125" lon="127.9154469"><tag k="name" v="수승대약국" /><tag k="phone" v="+82 55 944 5605" /><tag k="amenity" v="pharmacy" /><tag k="dispensing" v="yes" /><tag k="addr:street" v="거창대로" /><tag k="addr:housenumber" v="71-1" /><tag k="addr:subdistrict" v="거창읍" /></node><node id="-200024" action="modify" visible="true" lat="35.68780354" lon="127.9152801"><tag k="name" v="대동약국" /><tag k="phone" v="+82 55 943 9070" /><tag k="amenity" v="pharmacy" /><tag k="dispensing" v="yes" /><tag k="addr:street" v="중앙로" /><tag k="addr:housenumber" v="157" /><tag k="addr:subdistrict" v="거창읍" /></node><node id="-200025" action="modify" visible="true" lat="35.70952643" lon="128.0156788"><tag k="name" v="덕성약국" /><tag k="phone" v="+82 55 942 0033" /><tag k="amenity" v="pharmacy" /><tag k="dispensing" v="yes" /><tag k="addr:street" v="지산로" /><tag k="addr:housenumber" v="1487" /><tag k="addr:subdistrict" v="가조면" /></node><node id="-200026" action="modify" visible="true" lat="35.68819903" lon="127.9202653"><tag k="name" v="성호당약국" /><tag k="phone" v="+82 55 943 5658" /><tag k="amenity" v="pharmacy" /><tag k="dispensing" v="yes" /><tag k="addr:street" v="창동로" /><tag k="addr:housenumber" v="123" /><tag k="addr:subdistrict" v="거창읍" /></node><node id="-200027" action="modify" visible="true" lat="35.68554192" lon="127.9091714"><tag k="name" v="대성약국" /><tag k="phone" v="+82 55 942 9666" /><tag k="amenity" v="pharmacy" /><tag k="dispensing" v="yes" /><tag k="addr:street" v="중앙로" /><tag k="addr:housenumber" v="96" /><tag k="addr:subdistrict" v="거창읍" /></node><node id="-200028" action="modify" visible="true" lat="35.6874212" lon="127.9154498"><tag k="name" v="진명약국" /><tag k="phone" v="+82 55 944 8760" /><tag k="amenity" v="pharmacy" /><tag k="dispensing" v="yes" /><tag k="addr:street" v="중앙로" /><tag k="addr:housenumber" v="158-1" /><tag k="addr:subdistrict" v="거창읍" /></node><node id="-200029" action="modify" visible="true" lat="35.6871181" lon="127.9159016"><tag k="name" v="서부약국" /><tag k="phone" v="+82 55 944 6753" /><tag k="amenity" v="pharmacy" /><tag k="dispensing" v="yes" /><tag k="addr:street" v="시장길" /><tag k="addr:housenumber" v="98" /><tag k="addr:subdistrict" v="거창읍" /></node><node id="-200030" action="modify" visible="true" lat="35.68566226" lon="127.9193141"><tag k="name" v="거창약국" /><tag k="phone" v="+82 55 944 7772" /><tag k="amenity" v="pharmacy" /><tag k="dispensing" v="yes" /><tag k="addr:street" v="강남로" /><tag k="addr:housenumber" v="204" /><tag k="addr:subdistrict" v="거창읍" /></node><node id="-200031" action="modify" visible="true" lat="35.68598934" lon="127.9131197"><tag k="name" v="국민약국" /><tag k="phone" v="+82 55 944 2303" /><tag k="amenity" v="pharmacy" /><tag k="dispensing" v="yes" /><tag k="addr:street" v="시장길" /><tag k="addr:housenumber" v="44" /><tag k="addr:subdistrict" v="거창읍" /></node><node id="-200032" action="modify" visible="true" lat="35.68529322" lon="127.9186513"><tag k="name" v="시민약국" /><tag k="phone" v="+82 55 944 3141" /><tag k="amenity" v="pharmacy" /><tag k="dispensing" v="yes" /><tag k="addr:street" v="강남로" /><tag k="addr:housenumber" v="196" /><tag k="addr:subdistrict" v="거창읍" /></node><node id="-200033" action="modify" visible="true" lat="35.68594923" lon="127.9130015"><tag k="name" v="동산약국" /><tag k="phone" v="+82 55 944 2642" /><tag k="amenity" v="pharmacy" /><tag k="dispensing" v="yes" /><tag k="addr:street" v="시장길" /><tag k="addr:housenumber" v="40-1" /><tag k="addr:subdistrict" v="거창읍" /></node><node id="-200034" action="modify" visible="true" lat="35.68732843" lon="127.916804"><tag k="name" v="가람약국" /><tag k="phone" v="+82 55 945 3651" /><tag k="amenity" v="pharmacy" /><tag k="dispensing" v="yes" /><tag k="addr:street" v="거창대로1길" /><tag k="addr:housenumber" v="7-2" /><tag k="addr:subdistrict" v="거창읍" /></node><node id="-200035" action="modify" visible="true" lat="35.68129" lon="127.89878"><tag k="name" v="가까운약국" /><tag k="phone" v="+82 55 942 3690" /><tag k="amenity" v="pharmacy" /><tag k="dispensing" v="yes" /><tag k="addr:street" v="송정1길" /><tag k="addr:housenumber" v="24-20" /><tag k="addr:subdistrict" v="거창읍" /></node></osm>