<?xml version='1.0' encoding='utf-8'?>
<osm version="0.6" generator="JOSM"><node id="-200001" action="modify" visible="true" lat="37.60894036" lon="127.029052"><tag k="amenity" v="pharmacy" /><tag k="name" v="호수온누리약국" /><tag k="phone" v="+82 2 988 8979" /><tag k="source" v="공공데이터포털" /><tag k="source:date" v="2019-06-24" /><tag k="addr:street" v="동소문로47길" /><tag k="addr:housenumber" v="12" /><tag k="addr:subdistrict" v="길음동" /><tag k="level" v="1" /></node><node id="-200002" action="modify" visible="true" lat="37.61040424" lon="127.0569046"><tag k="amenity" v="pharmacy" /><tag k="name" v="돌곶이온누리약국" /><tag k="phone" v="+82 2 967 5555" /><tag k="source" v="공공데이터포털" /><tag k="source:date" v="2019-06-24" /><tag k="addr:street" v="화랑로" /><tag k="addr:housenumber" v="248" /><tag k="addr:subdistrict" v="석관동" /><tag k="addr:door" v="102-1" /></node><node id="-200003" action="modify" visible="true" lat="37.60101417" lon="127.0331664"><tag k="amenity" v="pharmacy" /><tag k="name" v="홀리데이약국" /><tag k="phone" v="+82 2 927 0242" /><tag k="source" v="공공데이터포털" /><tag k="source:date" v="2019-06-24" /><tag k="addr:street" v="종암로" /><tag k="addr:housenumber" v="123" /></node><node id="-200004" action="modify" visible="true" lat="37.59373053" lon="127.0159792"><tag k="amenity" v="pharmacy" /><tag k="name" v="하얀약국" /><tag k="phone" v="+82 2 921 9131" /><tag k="source" v="공공데이터포털" /><tag k="source:date" v="2019-06-24" /><tag k="addr:street" v="아리랑로" /><tag k="addr:housenumber" v="9" /><tag k="level" v="2" /><tag k="addr:door" v="202" /></node><node id="-200005" action="modify" visible="true" lat="37.60475389" lon="127.0230392"><tag k="amenity" v="pharmacy" /><tag k="name" v="콩약국" /><tag k="phone" v="+82 2 913 3020" /><tag k="source" v="공공데이터포털" /><tag k="source:date" v="2019-06-24" /><tag k="addr:street" v="길음로" /><tag k="addr:housenumber" v="20" /><tag k="addr:subdistrict" v="길음동" /><tag k="level" v="3" /><tag k="addr:door" v="315" /></node><node id="-200006" action="modify" visible="true" lat="37.58650918" lon="127.0294735"><tag k="amenity" v="pharmacy" /><tag k="name" v="소원약국" /><tag k="phone" v="+82 2 3291 1905" /><tag k="source" v="공공데이터포털" /><tag k="source:date" v="2019-06-24" /><tag k="addr:street" v="개운사길" /><tag k="addr:housenumber" v="2" /><tag k="level" v="1" /></node><node id="-200007" action="modify" visible="true" lat="37.59415547" lon="127.0182168"><tag k="amenity" v="pharmacy" /><tag k="name" v="새성신약국" /><tag k="phone" v="+82 2 921 9971" /><tag k="source" v="공공데이터포털" /><tag k="source:date" v="2019-06-24" /><tag k="addr:street" v="동소문로" /><tag k="addr:housenumber" v="125" /><tag k="level" v="1" /><tag k="addr:door" v="101" /></node><node id="-200008" action="modify" visible="true" lat="37.59423501" lon="127.0165047"><tag k="amenity" v="pharmacy" /><tag k="name" v="더사랑약국" /><tag k="phone" v="+82 2 921 1246" /><tag k="source" v="공공데이터포털" /><tag k="source:date" v="2019-06-24" /><tag k="addr:street" v="아리랑로" /><tag k="addr:housenumber" v="16" /><tag k="level" v="1" /><tag k="addr:door" v="104" /></node><node id="-200009" action="modify" visible="true" lat="37.5925735" lon="127.0170886"><tag k="amenity" v="pharmacy" /><tag k="name" v="육층약국" /><tag k="phone" v="+82 2 927 6265" /><tag k="source" v="공공데이터포털" /><tag k="source:date" v="2019-06-24" /><tag k="addr:street" v="동소문로" /><tag k="addr:housenumber" v="106" /><tag k="level" v="6" /></node><node id="-200010" action="modify" visible="true" lat="37.60269641" lon="127.0209503"><tag k="amenity" v="pharmacy" /><tag k="name" v="길음시장약국" /><tag k="phone" v="+82 70 4402 4565" /><tag k="source" v="공공데이터포털" /><tag k="source:date" v="2019-06-24" /><tag k="addr:street" v="길음로9길" /><tag k="addr:housenumber" v="50" /></node><node id="-200011" action="modify" visible="true" lat="37.58910393" lon="127.0066168"><tag k="amenity" v="pharmacy" /><tag k="name" v="나바론약국" /><tag k="phone" v="+82 2 762 6300" /><tag k="source" v="공공데이터포털" /><tag k="source:date" v="2019-06-24" /><tag k="addr:street" v="동소문로3길" /><tag k="addr:housenumber" v="4" /><tag k="level" v="1" /></node><node id="-200012" action="modify" visible="true" lat="37.60737578" lon="127.0101247"><tag k="amenity" v="pharmacy" /><tag k="name" v="정릉아름드리약국" /><tag k="source" v="공공데이터포털" /><tag k="source:date" v="2019-06-24" /><tag k="addr:street" v="보국문로" /><tag k="addr:housenumber" v="33" /><tag k="addr:subdistrict" v="정릉동" /><tag k="level" v="1" /><tag k="addr:door" v="106" /></node><node id="-200013" action="modify" visible="true" lat="37.5944185" lon="127.0185882"><tag k="amenity" v="pharmacy" /><tag k="name" v="유민약국" /><tag k="phone" v="+82 2 929 8937" /><tag k="source" v="공공데이터포털" /><tag k="source:date" v="2019-06-24" /><tag k="addr:street" v="동소문로" /><tag k="addr:housenumber" v="127-2" /><tag k="level" v="1" /></node><node id="-200014" action="modify" visible="true" lat="37.60504961" lon="127.022011"><tag k="amenity" v="pharmacy" /><tag k="name" v="아름다운약국" /><tag k="phone" v="+82 2 912 5148" /><tag k="source" v="공공데이터포털" /><tag k="source:date" v="2019-06-24" /><tag k="addr:street" v="길음로" /><tag k="addr:housenumber" v="33" /><tag k="addr:unit" v="상가B" /><tag k="addr:door" v="17,18,19" /></node><node id="-200015" action="modify" visible="true" lat="37.60346697" lon="127.0245563"><tag k="amenity" v="pharmacy" /><tag k="name" v="삼층약국" /><tag k="phone" v="+82 2 915 0022" /><tag k="source" v="공공데이터포털" /><tag k="source:date" v="2019-06-24" /><tag k="addr:street" v="동소문로" /><tag k="addr:housenumber" v="248" /><tag k="addr:door" v="314-1" /></node><node id="-200016" action="modify" visible="true" lat="37.5859924" lon="127.018731"><tag k="amenity" v="pharmacy" /><tag k="name" v="보문약국" /><tag k="phone" v="+82 2 921 3844" /><tag k="source" v="공공데이터포털" /><tag k="source:date" v="2019-06-24" /><tag k="addr:street" v="보문로" /><tag k="addr:housenumber" v="123" /><tag k="level" v="1" /></node><node id="-200017" action="modify" visible="true" lat="37.60264852" lon="127.0392054"><tag k="amenity" v="pharmacy" /><tag k="name" v="월곡보건약국" /><tag k="phone" v="+82 2 909 8144" /><tag k="source" v="공공데이터포털" /><tag k="source:date" v="2019-06-24" /><tag k="addr:street" v="화랑로" /><tag k="addr:housenumber" v="61" /><tag k="addr:subdistrict" v="하월곡동" /><tag k="level" v="1" /></node><node id="-200018" action="modify" visible="true" lat="37.59816326" lon="127.0337585"><tag k="amenity" v="pharmacy" /><tag k="name" v="열린약국" /><tag k="phone" v="+82 2 921 9233" /><tag k="source" v="공공데이터포털" /><tag k="source:date" v="2019-06-24" /><tag k="addr:street" v="종암로19길" /><tag k="addr:housenumber" v="17" /><tag k="addr:subdistrict" v="종암동" /><tag k="level" v="1" /></node><node id="-200019" action="modify" visible="true" lat="37.61381947" lon="127.0429806"><tag k="amenity" v="pharmacy" /><tag k="name" v="새롬약국" /><tag k="phone" v="+82 2 915 0690" /><tag k="source" v="공공데이터포털" /><tag k="source:date" v="2019-06-24" /><tag k="addr:street" v="장위로" /><tag k="addr:housenumber" v="58" /><tag k="addr:subdistrict" v="장위동" /><tag k="level" v="1" /></node><node id="-200020" action="modify" visible="true" lat="37.59889042" lon="127.0220907"><tag k="amenity" v="pharmacy" /><tag k="name" v="삼성약국" /><tag k="phone" v="+82 2 929 3069" /><tag k="source" v="공공데이터포털" /><tag k="source:date" v="2019-06-24" /><tag k="addr:street" v="동소문로" /><tag k="addr:housenumber" v="190" /></node><node id="-200021" action="modify" visible="true" lat="37.60684624" lon="127.0299391"><tag k="amenity" v="pharmacy" /><tag k="name" v="아이메디칼약국" /><tag k="phone" v="+82 2 942 3365" /><tag k="source" v="공공데이터포털" /><tag k="source:date" v="2019-06-24" /><tag k="addr:street" v="동소문로46길" /><tag k="addr:housenumber" v="18" /></node><node id="-200022" action="modify" visible="true" lat="37.60318761" lon="127.0137843"><tag k="amenity" v="pharmacy" /><tag k="name" v="아가페온누리약국" /><tag k="phone" v="+82 2 916 8373" /><tag k="source" v="공공데이터포털" /><tag k="source:date" v="2019-06-24" /><tag k="addr:street" v="정릉로" /><tag k="addr:housenumber" v="274" /><tag k="addr:subdistrict" v="정릉동" /><tag k="level" v="1" /></node><node id="-200023" action="modify" visible="true" lat="37.58699702" lon="127.0236768"><tag k="amenity" v="pharmacy" /><tag k="name" v="가까운행복약국" /><tag k="phone" v="+82 2 928 4545" /><tag k="source" v="공공데이터포털" /><tag k="source:date" v="2019-06-24" /><tag k="addr:street" v="고려대로13길" /><tag k="addr:housenumber" v="8" /><tag k="level" v="1" /></node><node id="-200024" action="modify" visible="true" lat="37.60737284" lon="127.0282179"><tag k="amenity" v="pharmacy" /><tag k="name" v="도담약국" /><tag k="phone" v="+82 2 945 7650" /><tag k="source" v="공공데이터포털" /><tag k="source:date" v="2019-06-24" /><tag k="addr:street" v="동소문로" /><tag k="addr:housenumber" v="305" /><tag k="addr:subdistrict" v="길음동" /></node><node id="-200025" action="modify" visible="true" lat="37.61345289" lon="127.0644864"><tag k="amenity" v="pharmacy" /><tag k="name" v="세계로약국" /><tag k="phone" v="+82 2 962 5446" /><tag k="source" v="공공데이터포털" /><tag k="source:date" v="2019-06-24" /><tag k="addr:street" v="화랑로40길" /><tag k="addr:housenumber" v="54" /><tag k="addr:subdistrict" v="석관동" /></node><node id="-200026" action="modify" visible="true" lat="37.59738445" lon="127.0193227"><tag k="amenity" v="pharmacy" /><tag k="name" v="현약국" /><tag k="phone" v="+82 2 926 1860" /><tag k="source" v="공공데이터포털" /><tag k="source:date" v="2019-06-24" /><tag k="addr:street" v="북악산로" /><tag k="addr:housenumber" v="844" /><tag k="addr:subdistrict" v="상가동" /><tag k="level" v="-" /><tag k="addr:door" v="102-1" /></node><node id="-200027" action="modify" visible="true" lat="37.61086348" lon="127.0179762"><tag k="amenity" v="pharmacy" /><tag k="name" v="아이팜약국" /><tag k="phone" v="+82 2 911 0175" /><tag k="source" v="공공데이터포털" /><tag k="source:date" v="2019-06-24" /><tag k="addr:street" v="길음로" /><tag k="addr:housenumber" v="103" /></node><node id="-200028" action="modify" visible="true" lat="37.60854349" lon="127.0097715"><tag k="amenity" v="pharmacy" /><tag k="name" v="정릉약국" /><tag k="phone" v="+82 2 914 3982" /><tag k="source" v="공공데이터포털" /><tag k="source:date" v="2019-06-24" /><tag k="addr:street" v="보국문로" /><tag k="addr:housenumber" v="45" /><tag k="addr:subdistrict" v="정릉동" /><tag k="level" v="1" /></node><node id="-200029" action="modify" visible="true" lat="37.58873268" lon="127.0073324"><tag k="amenity" v="pharmacy" /><tag k="name" v="미소드림약국" /><tag k="phone" v="+82 2 747 6464" /><tag k="source" v="공공데이터포털" /><tag k="source:date" v="2019-06-24" /><tag k="addr:street" v="동소문로" /><tag k="addr:housenumber" v="10" /><tag k="level" v="1" /></node><node id="-200030" action="modify" visible="true" lat="37.59017717" lon="127.0147873"><tag k="amenity" v="pharmacy" /><tag k="name" v="이층봄약국" /><tag k="phone" v="+82 2 922 8874" /><tag k="source" v="공공데이터포털" /><tag k="source:date" v="2019-06-24" /><tag k="addr:street" v="보문로" /><tag k="addr:housenumber" v="183" /><tag k="level" v="2" /></node><node id="-200031" action="modify" visible="true" lat="37.58982089" lon="127.0098778"><tag k="amenity" v="pharmacy" /><tag k="name" v="W스토어 참좋은약국" /><tag k="phone" v="+82 2 921 1255" /><tag k="source" v="공공데이터포털" /><tag k="source:date" v="2019-06-24" /><tag k="addr:street" v="동소문로" /><tag k="addr:housenumber" v="34" /><tag k="level" v="1" /></node><node id="-200032" action="modify" visible="true" lat="37.58898852" lon="127.0078895"><tag k="amenity" v="pharmacy" /><tag k="name" v="스타온누리약국" /><tag k="source" v="공공데이터포털" /><tag k="source:date" v="2019-06-24" /><tag k="addr:street" v="동소문로" /><tag k="addr:housenumber" v="14-1" /><tag k="level" v="1" /></node><node id="-200033" action="modify" visible="true" lat="37.60665405" lon="127.0610377"><tag k="amenity" v="pharmacy" /><tag k="name" v="늘푸른약국" /><tag k="phone" v="+82 2 969 0566" /><tag k="source" v="공공데이터포털" /><tag k="source:date" v="2019-06-24" /><tag k="addr:street" v="돌곶이로" /><tag k="addr:housenumber" v="25" /></node><node id="-200034" action="modify" visible="true" lat="37.60746535" lon="127.0602456"><tag k="amenity" v="pharmacy" /><tag k="name" v="두리약국" /><tag k="phone" v="+82 2 969 3394" /><tag k="source" v="공공데이터포털" /><tag k="source:date" v="2019-06-24" /><tag k="addr:street" v="돌곶이로" /><tag k="addr:housenumber" v="37" /><tag k="level" v="1" /></node><node id="-200035" action="modify" visible="true" lat="37.59216647" lon="127.0154942"><tag k="amenity" v="pharmacy" /><tag k="name" v="스타약국" /><tag k="phone" v="+82 70 4257 5277" /><tag k="source" v="공공데이터포털" /><tag k="source:date" v="2019-06-24" /><tag k="addr:street" v="동소문로" /><tag k="addr:housenumber" v="92" /><tag k="level" v="1" /></node><node id="-200036" action="modify" visible="true" lat="37.58938497" lon="127.007731"><tag k="amenity" v="pharmacy" /><tag k="name" v="보림약국" /><tag k="phone" v="+82 2 762 7521" /><tag k="source" v="공공데이터포털" /><tag k="source:date" v="2019-06-24" /><tag k="addr:street" v="동소문로" /><tag k="addr:housenumber" v="15" /><tag k="level" v="1" /></node><node id="-200037" action="modify" visible="true" lat="37.60836326" lon="127.01022"><tag k="amenity" v="pharmacy" /><tag k="name" v="정릉열린약국" /><tag k="source" v="공공데이터포털" /><tag k="source:date" v="2019-06-24" /><tag k="addr:street" v="보국문로" /><tag k="addr:housenumber" v="40-3" /><tag k="addr:subdistrict" v="정릉동" /></node><node id="-200038" action="modify" visible="true" lat="37.60241233" lon="127.0170727"><tag k="amenity" v="pharmacy" /><tag k="name" v="사랑받는 약국" /><tag k="phone" v="+82 2 943 2385" /><tag k="source" v="공공데이터포털" /><tag k="source:date" v="2019-06-24" /><tag k="addr:street" v="정릉로36길" /><tag k="addr:housenumber" v="28" /><tag k="addr:subdistrict" v="정릉동" /><tag k="level" v="1" /></node><node id="-200039" action="modify" visible="true" lat="37.59025998" lon="127.0154033"><tag k="amenity" v="pharmacy" /><tag k="name" v="스마일약국" /><tag k="phone" v="+82 70 8814 3395" /><tag k="source" v="공공데이터포털" /><tag k="source:date" v="2019-06-24" /><tag k="addr:street" v="보문로" /><tag k="addr:housenumber" v="180" /><tag k="level" v="1" /></node><node id="-200040" action="modify" visible="true" lat="37.6094433" lon="127.0193259"><tag k="amenity" v="pharmacy" /><tag k="name" v="웰팜약국" /><tag k="phone" v="+82 2 914 7773" /><tag k="source" v="공공데이터포털" /><tag k="source:date" v="2019-06-24" /><tag k="addr:street" v="길음로13길" /><tag k="addr:housenumber" v="22" /><tag k="addr:subdistrict" v="상가동" /><tag k="addr:door" v="210" /></node><node id="-200041" action="modify" visible="true" lat="37.61691223" lon="127.0036155"><tag k="amenity" v="pharmacy" /><tag k="name" v="허브약국" /><tag k="phone" v="+82 2 913 6786" /><tag k="source" v="공공데이터포털" /><tag k="source:date" v="2019-06-24" /><tag k="addr:street" v="보국문로" /><tag k="addr:housenumber" v="160" /><tag k="addr:subdistrict" v="정릉동" /><tag k="level" v="1" /></node><node id="-200042" action="modify" visible="true" lat="37.60625445" lon="127.014863"><tag k="amenity" v="pharmacy" /><tag k="name" v="다정약국" /><tag k="phone" v="+82 2 915 3588" /><tag k="source" v="공공데이터포털" /><tag k="source:date" v="2019-06-24" /><tag k="addr:street" v="서경로" /><tag k="addr:housenumber" v="27" /><tag k="level" v="1" /></node><node id="-200043" action="modify" visible="true" lat="37.60504961" lon="127.022011"><tag k="amenity" v="pharmacy" /><tag k="name" v="햇님약국" /><tag k="phone" v="+82 2 3292 1734" /><tag k="source" v="공공데이터포털" /><tag k="source:date" v="2019-06-24" /><tag k="addr:street" v="길음로" /><tag k="addr:housenumber" v="33" /><tag k="addr:unit" v="상가A" /><tag k="level" v="-1" /><tag k="addr:door" v="2" /></node><node id="-200044" action="modify" visible="true" lat="37.58499865" lon="127.0312935"><tag k="amenity" v="pharmacy" /><tag k="name" v="금강약국" /><tag k="phone" v="+82 2 924 7575" /><tag k="source" v="공공데이터포털" /><tag k="source:date" v="2019-06-24" /><tag k="addr:street" v="안암로" /><tag k="addr:housenumber" v="103" /><tag k="level" v="1" /></node><node id="-200045" action="modify" visible="true" lat="37.60120135" lon="127.0339547"><tag k="amenity" v="pharmacy" /><tag k="name" v="참약사약국" /><tag k="phone" v="+82 2 943 1226" /><tag k="source" v="공공데이터포털" /><tag k="source:date" v="2019-06-24" /><tag k="addr:street" v="종암로" /><tag k="addr:housenumber" v="122" /><tag k="level" v="1" /></node><node id="-200046" action="modify" visible="true" lat="37.60475389" lon="127.0230392"><tag k="amenity" v="pharmacy" /><tag k="name" v="이화약국" /><tag k="phone" v="+82 2 911 4326" /><tag k="source" v="공공데이터포털" /><tag k="source:date" v="2019-06-24" /><tag k="addr:street" v="길음로" /><tag k="addr:housenumber" v="20" /><tag k="level" v="1" /><tag k="addr:door" v="116" /></node><node id="-200047" action="modify" visible="true" lat="37.60992683" lon="127.0329348"><tag k="amenity" v="pharmacy" /><tag k="name" v="영준약국" /><tag k="phone" v="+82 2 912 4813" /><tag k="source" v="공공데이터포털" /><tag k="source:date" v="2019-06-24" /><tag k="addr:street" v="오패산로3길" /><tag k="addr:housenumber" v="158" /></node><node id="-200048" action="modify" visible="true" lat="37.61089095" lon="127.0565335"><tag k="amenity" v="pharmacy" /><tag k="name" v="장위햇살약국" /><tag k="phone" v="+82 70 7531 3824" /><tag k="source" v="공공데이터포털" /><tag k="source:date" v="2019-06-24" /><tag k="addr:street" v="화랑로" /><tag k="addr:housenumber" v="245" /></node><node id="-200049" action="modify" visible="true" lat="37.60262667" lon="127.0398576"><tag k="amenity" v="pharmacy" /><tag k="name" v="새보건약국" /><tag k="phone" v="+82 2 911 7111" /><tag k="source" v="공공데이터포털" /><tag k="source:date" v="2019-06-24" /><tag k="addr:street" v="화랑로" /><tag k="addr:housenumber" v="67" /><tag k="addr:subdistrict" v="하월곡동" /></node><node id="-200050" action="modify" visible="true" lat="37.58638632" lon="127.0096735"><tag k="amenity" v="pharmacy" /><tag k="name" v="조일약국" /><tag k="phone" v="+82 2 742 5083" /><tag k="source" v="공공데이터포털" /><tag k="source:date" v="2019-06-24" /><tag k="addr:street" v="삼선교로10길" /><tag k="addr:housenumber" v="38" /></node><node id="-200051" action="modify" visible="true" lat="37.58611663" lon="127.0283276"><tag k="amenity" v="pharmacy" /><tag k="name" v="정문약국" /><tag k="phone" v="+82 2 924 2121" /><tag k="source" v="공공데이터포털" /><tag k="source:date" v="2019-06-24" /><tag k="addr:street" v="고려대로" /><tag k="addr:housenumber" v="82" /></node><node id="-200052" action="modify" visible="true" lat="37.61075149" lon="127.0351641"><tag k="amenity" v="pharmacy" /><tag k="name" v="동민약국" /><tag k="phone" v="+82 2 6925 0008" /><tag k="source" v="공공데이터포털" /><tag k="source:date" v="2019-06-24" /><tag k="addr:street" v="오패산로" /><tag k="addr:housenumber" v="99" /></node><node id="-200053" action="modify" visible="true" lat="37.6092031" lon="127.0589831"><tag k="amenity" v="pharmacy" /><tag k="name" v="팜케어건강약국" /><tag k="phone" v="+82 2 295 72583" /><tag k="source" v="공공데이터포털" /><tag k="source:date" v="2019-06-24" /><tag k="addr:street" v="돌곶이로" /><tag k="addr:housenumber" v="60" /><tag k="addr:subdistrict" v="석관동" /></node><node id="-200054" action="modify" visible="true" lat="37.60298268" lon="127.0421137"><tag k="amenity" v="pharmacy" /><tag k="name" v="새국민약국" /><tag k="phone" v="+82 2 909 3463" /><tag k="source" v="공공데이터포털" /><tag k="source:date" v="2019-06-24" /><tag k="addr:street" v="화랑로" /><tag k="addr:housenumber" v="91" /><tag k="addr:subdistrict" v="하월곡동" /></node><node id="-200055" action="modify" visible="true" lat="37.60891295" lon="127.0625345"><tag k="amenity" v="pharmacy" /><tag k="name" v="대원약국" /><tag k="phone" v="+82 2 966 0792" /><tag k="source" v="공공데이터포털" /><tag k="source:date" v="2019-06-24" /><tag k="addr:street" v="돌곶이로14길" /><tag k="addr:housenumber" v="51" /><tag k="addr:subdistrict" v="석관동" /></node><node id="-200056" action="modify" visible="true" lat="37.60879578" lon="127.00969"><tag k="amenity" v="pharmacy" /><tag k="name" v="미소담약국" /><tag k="phone" v="+82 2 6349 2589" /><tag k="source" v="공공데이터포털" /><tag k="source:date" v="2019-06-24" /><tag k="addr:street" v="보국문로" /><tag k="addr:housenumber" v="49" /><tag k="addr:subdistrict" v="정릉동" /><tag k="level" v="1" /></node><node id="-200057" action="modify" visible="true" lat="37.5942387" lon="127.0159159"><tag k="amenity" v="pharmacy" /><tag k="name" v="우주온누리약국" /><tag k="phone" v="+82 2 922 0544" /><tag k="source" v="공공데이터포털" /><tag k="source:date" v="2019-06-24" /><tag k="addr:street" v="아리랑로" /><tag k="addr:housenumber" v="15" /></node><node id="-200058" action="modify" visible="true" lat="37.61352819" lon="127.0504692"><tag k="amenity" v="pharmacy" /><tag k="name" v="보람약국" /><tag k="phone" v="+82 2 943 2355" /><tag k="source" v="공공데이터포털" /><tag k="source:date" v="2019-06-24" /><tag k="addr:street" v="장위로" /><tag k="addr:housenumber" v="123" /><tag k="addr:subdistrict" v="장위동" /><tag k="level" v="1" /></node><node id="-200059" action="modify" visible="true" lat="37.6061251" lon="127.0112888"><tag k="amenity" v="pharmacy" /><tag k="name" v="힘챤약국" /><tag k="phone" v="+82 2 942 2088" /><tag k="source" v="공공데이터포털" /><tag k="source:date" v="2019-06-24" /><tag k="addr:street" v="보국문로" /><tag k="addr:housenumber" v="16-1" /><tag k="addr:subdistrict" v="정릉동" /></node><node id="-200060" action="modify" visible="true" lat="37.61040424" lon="127.0569046"><tag k="amenity" v="pharmacy" /><tag k="name" v="뉴대원약국" /><tag k="phone" v="+82 2 963 0792" /><tag k="source" v="공공데이터포털" /><tag k="source:date" v="2019-06-24" /><tag k="addr:street" v="화랑로" /><tag k="addr:housenumber" v="248" /><tag k="level" v="1" /><tag k="addr:door" v="101" /></node><node id="-200061" action="modify" visible="true" lat="37.61436788" lon="127.0412638"><tag k="amenity" v="pharmacy" /><tag k="name" v="나약국" /><tag k="phone" v="+82 2 918 1002" /><tag k="source" v="공공데이터포털" /><tag k="source:date" v="2019-06-24" /><tag k="addr:street" v="장위로15길" /><tag k="addr:housenumber" v="1" /><tag k="addr:subdistrict" v="장위동" /><tag k="level" v="1" /></node><node id="-200062" action="modify" visible="true" lat="37.6111312" lon="127.0089745"><tag k="amenity" v="pharmacy" /><tag k="name" v="신흥약국" /><tag k="phone" v="+82 2 914 4103" /><tag k="source" v="공공데이터포털" /><tag k="source:date" v="2019-06-24" /><tag k="addr:street" v="보국문로" /><tag k="addr:housenumber" v="76" /><tag k="addr:subdistrict" v="정릉동" /></node><node id="-200063" action="modify" visible="true" lat="37.60863032" lon="127.0294596"><tag k="amenity" v="pharmacy" /><tag k="name" v="365약국" /><tag k="phone" v="+82 2 985 1365" /><tag k="source" v="공공데이터포털" /><tag k="source:date" v="2019-06-24" /><tag k="addr:street" v="동소문로" /><tag k="addr:housenumber" v="321" /><tag k="addr:subdistrict" v="길음동" /><tag k="level" v="1" /></node><node id="-200064" action="modify" visible="true" lat="37.60076937" lon="127.0136162"><tag k="amenity" v="pharmacy" /><tag k="name" v="덕성온누리약국" /><tag k="phone" v="+82 2 922 0555" /><tag k="source" v="공공데이터포털" /><tag k="source:date" v="2019-06-24" /><tag k="addr:street" v="아리랑로" /><tag k="addr:housenumber" v="89" /></node><node id="-200065" action="modify" visible="true" lat="37.57954418" lon="127.0227688"><tag k="amenity" v="pharmacy" /><tag k="name" v="가까운약국" /><tag k="phone" v="+82 2 3291 5354" /><tag k="source" v="공공데이터포털" /><tag k="source:date" v="2019-06-24" /><tag k="addr:street" v="보문로" /><tag k="addr:housenumber" v="44" /></node><node id="-200066" action="modify" visible="true" lat="37.60182639" lon="127.0404642"><tag k="amenity" v="pharmacy" /><tag k="name" v="바른온누리약국" /><tag k="phone" v="+82 2 942 4750" /><tag k="source" v="공공데이터포털" /><tag k="source:date" v="2019-06-24" /><tag k="addr:street" v="화랑로" /><tag k="addr:housenumber" v="76" /></node><node id="-200067" action="modify" visible="true" lat="37.60691142" lon="127.0286752"><tag k="amenity" v="pharmacy" /><tag k="name" v="동서옵티마약국" /><tag k="phone" v="+82 2 943 3572" /><tag k="source" v="공공데이터포털" /><tag k="source:date" v="2019-06-24" /><tag k="addr:street" v="동소문로" /><tag k="addr:housenumber" v="304" /><tag k="addr:subdistrict" v="하월곡동" /></node><node id="-200068" action="modify" visible="true" lat="37.6094267" lon="127.029845"><tag k="amenity" v="pharmacy" /><tag k="name" v="한강약국" /><tag k="phone" v="+82 2 980 5350" /><tag k="source" v="공공데이터포털" /><tag k="source:date" v="2019-06-24" /><tag k="addr:street" v="도봉로" /><tag k="addr:housenumber" v="3" /><tag k="addr:subdistrict" v="길음동" /><tag k="level" v="1" /></node><node id="-200069" action="modify" visible="true" lat="37.60817228" lon="127.0098893"><tag k="amenity" v="pharmacy" /><tag k="name" v="신정릉우리약국" /><tag k="phone" v="+82 2 942 8831" /><tag k="source" v="공공데이터포털" /><tag k="source:date" v="2019-06-24" /><tag k="addr:street" v="보국문로" /><tag k="addr:housenumber" v="43" /></node><node id="-200070" action="modify" visible="true" lat="37.61402486" lon="127.0430894"><tag k="amenity" v="pharmacy" /><tag k="name" v="희망약국" /><tag k="phone" v="+82 2 942 5138" /><tag k="source" v="공공데이터포털" /><tag k="source:date" v="2019-06-24" /><tag k="addr:street" v="장위로" /><tag k="addr:housenumber" v="57" /><tag k="addr:subdistrict" v="장위동" /></node><node id="-200071" action="modify" visible="true" lat="37.58842896" lon="127.0169156"><tag k="amenity" v="pharmacy" /><tag k="name" v="맑은샘온누리약국" /><tag k="phone" v="+82 2 928 8911" /><tag k="source" v="공공데이터포털" /><tag k="source:date" v="2019-06-24" /><tag k="addr:street" v="보문로" /><tag k="addr:housenumber" v="157" /></node><node id="-200072" action="modify" visible="true" lat="37.59208386" lon="127.0131844"><tag k="amenity" v="pharmacy" /><tag k="name" v="건강약국" /><tag k="phone" v="+82 2 935 7971" /><tag k="source" v="공공데이터포털" /><tag k="source:date" v="2019-06-24" /><tag k="addr:street" v="동소문로" /><tag k="addr:housenumber" v="71" /></node><node id="-200073" action="modify" visible="true" lat="37.60243445" lon="127.0131364"><tag k="amenity" v="pharmacy" /><tag k="name" v="백세약국" /><tag k="phone" v="+82 2 916 5342" /><tag k="source" v="공공데이터포털" /><tag k="source:date" v="2019-06-24" /><tag k="addr:street" v="아리랑로" /><tag k="addr:housenumber" v="117-5" /><tag k="addr:subdistrict" v="정릉동" /></node><node id="-200074" action="modify" visible="true" lat="37.61346399" lon="127.0488745"><tag k="amenity" v="pharmacy" /><tag k="name" v="봄온누리약국" /><tag k="phone" v="+82 2 909 0211" /><tag k="source" v="공공데이터포털" /><tag k="source:date" v="2019-06-24" /><tag k="addr:street" v="장위로" /><tag k="addr:housenumber" v="112" /><tag k="addr:subdistrict" v="장위동" /></node><node id="-200075" action="modify" visible="true" lat="37.60584389" lon="127.0316691"><tag k="amenity" v="pharmacy" /><tag k="name" v="명신약국" /><tag k="phone" v="+82 2 912 0723" /><tag k="source" v="공공데이터포털" /><tag k="source:date" v="2019-06-24" /><tag k="addr:street" v="종암로" /><tag k="addr:housenumber" v="180" /><tag k="addr:subdistrict" v="하월곡동" /></node><node id="-200076" action="modify" visible="true" lat="37.58915068" lon="127.008288"><tag k="amenity" v="pharmacy" /><tag k="name" v="올리브한성약국" /><tag k="phone" v="+82 2 764 5291" /><tag k="source" v="공공데이터포털" /><tag k="source:date" v="2019-06-24" /><tag k="addr:street" v="동소문로" /><tag k="addr:housenumber" v="18-1" /></node><node id="-200077" action="modify" visible="true" lat="37.60346697" lon="127.0245563"><tag k="amenity" v="pharmacy" /><tag k="name" v="밝은약국" /><tag k="phone" v="+82 2 939 9113" /><tag k="source" v="공공데이터포털" /><tag k="source:date" v="2019-06-24" /><tag k="addr:street" v="동소문로" /><tag k="addr:housenumber" v="248" /><tag k="addr:door" v="지하75" /></node><node id="-200078" action="modify" visible="true" lat="37.59332657" lon="127.0181758"><tag k="amenity" v="pharmacy" /><tag k="name" v="올리브약국" /><tag k="phone" v="+82 2 927 6554" /><tag k="source" v="공공데이터포털" /><tag k="source:date" v="2019-06-24" /><tag k="addr:street" v="동소문로" /><tag k="addr:housenumber" v="118" /><tag k="level" v="1" /></node><node id="-200079" action="modify" visible="true" lat="37.59507886" lon="127.0122836"><tag k="amenity" v="pharmacy" /><tag k="name" v="길약국" /><tag k="phone" v="+82 2 923 9994" /><tag k="source" v="공공데이터포털" /><tag k="source:date" v="2019-06-24" /><tag k="addr:street" v="성북로4길" /><tag k="addr:housenumber" v="52" /><tag k="level" v="3" /><tag k="addr:door" v="418-2302" /></node><node id="-200080" action="modify" visible="true" lat="37.58371438" lon="127.0206053"><tag k="amenity" v="pharmacy" /><tag k="name" v="새봄약국" /><tag k="phone" v="+82 2 929 2954" /><tag k="source" v="공공데이터포털" /><tag k="source:date" v="2019-06-24" /><tag k="addr:street" v="보문로" /><tag k="addr:housenumber" v="94" /></node><node id="-200081" action="modify" visible="true" lat="37.6050584" lon="127.0309893"><tag k="amenity" v="pharmacy" /><tag k="name" v="화인온누리약국" /><tag k="phone" v="+82 2 941 3802" /><tag k="source" v="공공데이터포털" /><tag k="source:date" v="2019-06-24" /><tag k="addr:street" v="종암로" /><tag k="addr:housenumber" v="167" /><tag k="level" v="4" /><tag k="addr:door" v="404-1" /></node><node id="-200082" action="modify" visible="true" lat="37.61611638" lon="127.0571672"><tag k="amenity" v="pharmacy" /><tag k="name" v="지혜약국" /><tag k="phone" v="+82 70 7648 9731" /><tag k="source" v="공공데이터포털" /><tag k="source:date" v="2019-06-24" /><tag k="addr:street" v="한천로" /><tag k="addr:housenumber" v="649" /><tag k="addr:subdistrict" v="장위동" /></node><node id="-200083" action="modify" visible="true" lat="37.60720133" lon="127.0463517"><tag k="amenity" v="pharmacy" /><tag k="name" v="좋은약국" /><tag k="phone" v="+82 2 942 7588" /><tag k="source" v="공공데이터포털" /><tag k="source:date" v="2019-06-24" /><tag k="addr:street" v="장월로1길" /><tag k="addr:housenumber" v="23" /><tag k="addr:subdistrict" v="상월곡동" /><tag k="level" v="1" /></node><node id="-200084" action="modify" visible="true" lat="37.5985487" lon="127.0344019"><tag k="amenity" v="pharmacy" /><tag k="name" v="은혜약국" /><tag k="phone" v="+82 2 926 1122" /><tag k="source" v="공공데이터포털" /><tag k="source:date" v="2019-06-24" /><tag k="addr:street" v="종암로" /><tag k="addr:housenumber" v="93" /><tag k="addr:subdistrict" v="종암동" /><tag k="level" v="1" /></node><node id="-200085" action="modify" visible="true" lat="37.60884999" lon="127.0588152"><tag k="amenity" v="pharmacy" /><tag k="name" v="새석관약국" /><tag k="phone" v="+82 2 967 0777" /><tag k="source" v="공공데이터포털" /><tag k="source:date" v="2019-06-24" /><tag k="addr:street" v="돌곶이로" /><tag k="addr:housenumber" v="57" /><tag k="addr:subdistrict" v="석관동" /><tag k="level" v="1" /></node><node id="-200086" action="modify" visible="true" lat="37.60303991" lon="127.0320167"><tag k="amenity" v="pharmacy" /><tag k="name" v="마음약국" /><tag k="phone" v="+82 2 6925 0097" /><tag k="source" v="공공데이터포털" /><tag k="source:date" v="2019-06-24" /><tag k="addr:street" v="종암로" /><tag k="addr:housenumber" v="147" /><tag k="addr:subdistrict" v="종암동" /></node><node id="-200087" action="modify" visible="true" lat="37.59642195" lon="127.0357824"><tag k="amenity" v="pharmacy" /><tag k="name" v="신중앙약국" /><tag k="phone" v="+82 2 943 8331" /><tag k="source" v="공공데이터포털" /><tag k="source:date" v="2019-06-24" /><tag k="addr:street" v="종암로" /><tag k="addr:housenumber" v="68" /><tag k="addr:subdistrict" v="종암동" /><tag k="level" v="1" /></node><node id="-200088" action="modify" visible="true" lat="37.60733462" lon="127.0362089"><tag k="amenity" v="pharmacy" /><tag k="name" v="메디팜백약국" /><tag k="phone" v="+82 2 912 6200" /><tag k="source" v="공공데이터포털" /><tag k="source:date" v="2019-06-24" /><tag k="addr:street" v="오패산로" /><tag k="addr:housenumber" v="57" /><tag k="addr:subdistrict" v="하월곡동" /><tag k="level" v="1" /></node><node id="-200089" action="modify" visible="true" lat="37.59838959" lon="127.0214428"><tag k="amenity" v="pharmacy" /><tag k="name" v="서울약국" /><tag k="phone" v="+82 2 924 5191" /><tag k="source" v="공공데이터포털" /><tag k="source:date" v="2019-06-24" /><tag k="addr:street" v="동소문로" /><tag k="addr:housenumber" v="181" /><tag k="level" v="1" /></node><node id="-200090" action="modify" visible="true" lat="37.60859" lon="127.0522327"><tag k="amenity" v="pharmacy" /><tag k="name" v="연세정약국" /><tag k="phone" v="+82 2 943 0900" /><tag k="source" v="공공데이터포털" /><tag k="source:date" v="2019-06-24" /><tag k="addr:street" v="화랑로" /><tag k="addr:housenumber" v="201" /></node><node id="-200091" action="modify" visible="true" lat="37.61004971" lon="127.0519891"><tag k="amenity" v="pharmacy" /><tag k="name" v="드림약국" /><tag k="phone" v="+82 2 916 6222" /><tag k="source" v="공공데이터포털" /><tag k="source:date" v="2019-06-24" /><tag k="addr:street" v="돌곶이로27길" /><tag k="addr:housenumber" v="79" /><tag k="addr:subdistrict" v="장위동" /></node><node id="-200092" action="modify" visible="true" lat="37.60992747" lon="127.051314"><tag k="amenity" v="pharmacy" /><tag k="name" v="성북월드팜약국" /><tag k="phone" v="+82 2 918 7972" /><tag k="source" v="공공데이터포털" /><tag k="source:date" v="2019-06-24" /><tag k="addr:street" v="화랑로19길" /><tag k="addr:housenumber" v="83" /><tag k="addr:subdistrict" v="장위동" /><tag k="level" v="1" /></node><node id="-200093" action="modify" visible="true" lat="37.59788551" lon="127.0346281"><tag k="amenity" v="pharmacy" /><tag k="name" v="두리온누리약국" /><tag k="phone" v="+82 2 923 0450" /><tag k="source" v="공공데이터포털" /><tag k="source:date" v="2019-06-24" /><tag k="addr:street" v="종암로" /><tag k="addr:housenumber" v="85" /><tag k="addr:subdistrict" v="종암동" /><tag k="level" v="1" /></node><node id="-200094" action="modify" visible="true" lat="37.60886422" lon="127.0100842"><tag k="amenity" v="pharmacy" /><tag k="name" v="이화프라자약국" /><tag k="phone" v="+82 2 914 2053" /><tag k="source" v="공공데이터포털" /><tag k="source:date" v="2019-06-24" /><tag k="addr:street" v="보국문로" /><tag k="addr:housenumber" v="50" /><tag k="level" v="-1" /><tag k="addr:door" v="B105" /></node><node id="-200095" action="modify" visible="true" lat="37.60264363" lon="127.0314322"><tag k="amenity" v="pharmacy" /><tag k="name" v="민성약국" /><tag k="phone" v="+82 2 927 6959" /><tag k="source" v="공공데이터포털" /><tag k="source:date" v="2019-06-24" /><tag k="addr:street" v="종암로27길" /><tag k="addr:housenumber" v="13" /></node><node id="-200096" action="modify" visible="true" lat="37.60705765" lon="127.0611286"><tag k="amenity" v="pharmacy" /><tag k="name" v="명소약국" /><tag k="phone" v="+82 2 965 0237" /><tag k="source" v="공공데이터포털" /><tag k="source:date" v="2019-06-24" /><tag k="addr:street" v="돌곶이로" /><tag k="addr:housenumber" v="28" /><tag k="addr:subdistrict" v="석관동" /><tag k="level" v="1" /></node><node id="-200097" action="modify" visible="true" lat="37.62294618" lon="127.0483959"><tag k="amenity" v="pharmacy" /><tag k="name" v="프라임온누리약국" /><tag k="phone" v="+82 2 916 9472" /><tag k="source" v="공공데이터포털" /><tag k="source:date" v="2019-06-24" /><tag k="addr:street" v="월계로40길" /><tag k="addr:housenumber" v="7" /><tag k="level" v="1" /><tag k="addr:door" v="109호,110" /></node><node id="-200098" action="modify" visible="true" lat="37.58975243" lon="127.0097057"><tag k="amenity" v="pharmacy" /><tag k="name" v="성북녹십자약국" /><tag k="phone" v="+82 2 926 4166" /><tag k="source" v="공공데이터포털" /><tag k="source:date" v="2019-06-24" /><tag k="addr:street" v="동소문로" /><tag k="addr:housenumber" v="32" /></node><node id="-200099" action="modify" visible="true" lat="37.59507886" lon="127.0122836"><tag k="amenity" v="pharmacy" /><tag k="name" v="파란하늘약국" /><tag k="phone" v="+82 2 929 8723" /><tag k="source" v="공공데이터포털" /><tag k="source:date" v="2019-06-24" /><tag k="addr:street" v="성북로4길" /><tag k="addr:housenumber" v="52" /><tag k="addr:door" v="501" /></node><node id="-200100" action="modify" visible="true" lat="37.60267647" lon="127.0417738"><tag k="amenity" v="pharmacy" /><tag k="name" v="조아약국" /><tag k="phone" v="+82 2 919 8575" /><tag k="source" v="공공데이터포털" /><tag k="source:date" v="2019-06-24" /><tag k="addr:street" v="화랑로" /><tag k="addr:housenumber" v="87" /><tag k="addr:subdistrict" v="하월곡동" /><tag k="level" v="1" /></node><node id="-200101" action="modify" visible="true" lat="37.60272583" lon="127.0173627"><tag k="amenity" v="pharmacy" /><tag k="name" v="서현약국" /><tag k="phone" v="+82 2 3292 0999" /><tag k="source" v="공공데이터포털" /><tag k="source:date" v="2019-06-24" /><tag k="addr:street" v="정릉로" /><tag k="addr:housenumber" v="308" /><tag k="addr:subdistrict" v="정릉동" /><tag k="level" v="1" /></node><node id="-200102" action="modify" visible="true" lat="37.58135963" lon="127.0272797"><tag k="amenity" v="pharmacy" /><tag k="name" v="서수약국" /><tag k="phone" v="+82 2 958 4050" /><tag k="source" v="공공데이터포털" /><tag k="source:date" v="2019-06-24" /><tag k="addr:street" v="안암로" /><tag k="addr:housenumber" v="47-1" /><tag k="level" v="1" /></node><node id="-200103" action="modify" visible="true" lat="37.61146855" lon="127.0355676"><tag k="amenity" v="pharmacy" /><tag k="name" v="월곡우리약국" /><tag k="phone" v="+82 2 917 7400" /><tag k="source" v="공공데이터포털" /><tag k="source:date" v="2019-06-24" /><tag k="addr:street" v="월계로" /><tag k="addr:housenumber" v="52" /></node><node id="-200104" action="modify" visible="true" lat="37.60191866" lon="127.0335201"><tag k="amenity" v="pharmacy" /><tag k="name" v="송원온누리약국" /><tag k="phone" v="+82 2 915 3500" /><tag k="source" v="공공데이터포털" /><tag k="source:date" v="2019-06-24" /><tag k="addr:street" v="종암로" /><tag k="addr:housenumber" v="132" /></node><node id="-200105" action="modify" visible="true" lat="37.61072626" lon="127.0196705"><tag k="amenity" v="pharmacy" /><tag k="name" v="옵티마e-편한약국" /><tag k="phone" v="+82 2 909 3525" /><tag k="source" v="공공데이터포털" /><tag k="source:date" v="2019-06-24" /><tag k="addr:street" v="삼양로13길" /><tag k="addr:housenumber" v="45" /></node><node id="-200106" action="modify" visible="true" lat="37.59897041" lon="127.0342435"><tag k="amenity" v="pharmacy" /><tag k="name" v="한미약국" /><tag k="phone" v="+82 2 925 0825" /><tag k="source" v="공공데이터포털" /><tag k="source:date" v="2019-06-24" /><tag k="addr:street" v="종암로" /><tag k="addr:housenumber" v="97" /><tag k="addr:subdistrict" v="종암동" /></node><node id="-200107" action="modify" visible="true" lat="37.61329059" lon="127.0498484"><tag k="amenity" v="pharmacy" /><tag k="name" v="남산약국" /><tag k="phone" v="+82 2 988 6266" /><tag k="source" v="공공데이터포털" /><tag k="source:date" v="2019-06-24" /><tag k="addr:street" v="장위로" /><tag k="addr:housenumber" v="118" /><tag k="addr:subdistrict" v="장위동" /></node><node id="-200108" action="modify" visible="true" lat="37.59140273" lon="127.0129804"><tag k="amenity" v="pharmacy" /><tag k="name" v="큰사랑약국" /><tag k="phone" v="+82 2 922 9721" /><tag k="source" v="공공데이터포털" /><tag k="source:date" v="2019-06-24" /><tag k="addr:street" v="동소문로" /><tag k="addr:housenumber" v="66" /></node><node id="-200109" action="modify" visible="true" lat="37.59882629" lon="127.0341348"><tag k="amenity" v="pharmacy" /><tag k="name" v="참약국" /><tag k="phone" v="+82 2 922 9458" /><tag k="source" v="공공데이터포털" /><tag k="source:date" v="2019-06-24" /><tag k="addr:street" v="종암로21길" /><tag k="addr:housenumber" v="3" /></node><node id="-200110" action="modify" visible="true" lat="37.59726537" lon="127.0354884"><tag k="amenity" v="pharmacy" /><tag k="name" v="성북성모약국" /><tag k="phone" v="+82 2 913 7516" /><tag k="source" v="공공데이터포털" /><tag k="source:date" v="2019-06-24" /><tag k="addr:street" v="종암로" /><tag k="addr:housenumber" v="78" /><tag k="addr:subdistrict" v="종암동" /><tag k="level" v="1" /></node><node id="-200111" action="modify" visible="true" lat="37.60305287" lon="127.0227578"><tag k="amenity" v="pharmacy" /><tag k="name" v="세기약국" /><tag k="phone" v="+82 2 3292 1224" /><tag k="source" v="공공데이터포털" /><tag k="source:date" v="2019-06-24" /><tag k="addr:street" v="동소문로" /><tag k="addr:housenumber" v="235" /><tag k="addr:subdistrict" v="길음동" /></node><node id="-200112" action="modify" visible="true" lat="37.59065259" lon="127.0170248"><tag k="amenity" v="pharmacy" /><tag k="name" v="계산온누리약국" /><tag k="phone" v="+82 2 925 4551" /><tag k="source" v="공공데이터포털" /><tag k="source:date" v="2019-06-24" /><tag k="addr:street" v="동소문로20길" /><tag k="addr:housenumber" v="43" /></node><node id="-200113" action="modify" visible="true" lat="37.59227456" lon="127.0157162"><tag k="amenity" v="pharmacy" /><tag k="name" v="중앙프라자약국" /><tag k="phone" v="+82 2 927 5606" /><tag k="source" v="공공데이터포털" /><tag k="source:date" v="2019-06-24" /><tag k="addr:street" v="동소문로" /><tag k="addr:housenumber" v="94" /><tag k="level" v="1" /></node><node id="-200114" action="modify" visible="true" lat="37.58900303" lon="127.0063813"><tag k="amenity" v="pharmacy" /><tag k="name" v="옵티마대우미약국" /><tag k="phone" v="+82 2 764 0869" /><tag k="source" v="공공데이터포털" /><tag k="source:date" v="2019-06-24" /><tag k="addr:street" v="성북로2길" /><tag k="addr:housenumber" v="8" /><tag k="level" v="1" /></node><node id="-200115" action="modify" visible="true" lat="37.60037976" lon="127.0335602"><tag k="amenity" v="pharmacy" /><tag k="name" v="사랑의약국" /><tag k="phone" v="+82 2 922 7111" /><tag k="source" v="공공데이터포털" /><tag k="source:date" v="2019-06-24" /><tag k="addr:street" v="종암로" /><tag k="addr:housenumber" v="115" /><tag k="addr:subdistrict" v="종암동" /></node><node id="-200116" action="modify" visible="true" lat="37.6035116" lon="127.0166245"><tag k="amenity" v="pharmacy" /><tag k="name" v="아이사랑약국" /><tag k="phone" v="+82 2 943 4356" /><tag k="source" v="공공데이터포털" /><tag k="source:date" v="2019-06-24" /><tag k="addr:street" v="정릉로31길" /><tag k="addr:housenumber" v="6" /><tag k="addr:subdistrict" v="정릉동" /></node><node id="-200117" action="modify" visible="true" lat="37.59318258" lon="127.017048"><tag k="amenity" v="pharmacy" /><tag k="name" v="동인약국" /><tag k="phone" v="+82 2 926 3533" /><tag k="source" v="공공데이터포털" /><tag k="source:date" v="2019-06-24" /><tag k="addr:street" v="동소문로" /><tag k="addr:housenumber" v="107" /></node><node id="-200118" action="modify" visible="true" lat="37.62245492" lon="127.0510598"><tag k="amenity" v="pharmacy" /><tag k="name" v="청솔약국" /><tag k="phone" v="+82 2 909 8067" /><tag k="source" v="공공데이터포털" /><tag k="source:date" v="2019-06-24" /><tag k="addr:street" v="한천로" /><tag k="addr:housenumber" v="743" /><tag k="addr:subdistrict" v="장위동" /></node><node id="-200119" action="modify" visible="true" lat="37.58754697" lon="127.007364"><tag k="amenity" v="pharmacy" /><tag k="name" v="인정온누리약국" /><tag k="phone" v="+82 2 766 6733" /><tag k="source" v="공공데이터포털" /><tag k="source:date" v="2019-06-24" /><tag k="addr:street" v="삼선교로" /><tag k="addr:housenumber" v="14" /></node><node id="-200120" action="modify" visible="true" lat="37.61846034" lon="127.0456972"><tag k="amenity" v="pharmacy" /><tag k="name" v="선약국" /><tag k="phone" v="+82 2 942 4553" /><tag k="source" v="공공데이터포털" /><tag k="source:date" v="2019-06-24" /><tag k="addr:street" v="돌곶이로41길" /><tag k="addr:housenumber" v="10" /><tag k="addr:subdistrict" v="장위동" /></node><node id="-200121" action="modify" visible="true" lat="37.60926791" lon="127.0095134"><tag k="amenity" v="pharmacy" /><tag k="name" v="멜론약국" /><tag k="phone" v="+82 2 942 2712" /><tag k="source" v="공공데이터포털" /><tag k="source:date" v="2019-06-24" /><tag k="addr:street" v="보국문로" /><tag k="addr:housenumber" v="53" /><tag k="addr:subdistrict" v="정릉동" /></node><node id="-200122" action="modify" visible="true" lat="37.60850382" lon="127.0101113"><tag k="amenity" v="pharmacy" /><tag k="name" v="그약국" /><tag k="phone" v="+82 2 911 0488" /><tag k="source" v="공공데이터포털" /><tag k="source:date" v="2019-06-24" /><tag k="addr:street" v="보국문로" /><tag k="addr:housenumber" v="46" /><tag k="addr:subdistrict" v="정릉동" /></node><node id="-200123" action="modify" visible="true" lat="37.60083973" lon="127.0379633"><tag k="amenity" v="pharmacy" /><tag k="name" v="정약국" /><tag k="phone" v="+82 2 941 0509" /><tag k="source" v="공공데이터포털" /><tag k="source:date" v="2019-06-24" /><tag k="addr:street" v="종암로24가길" /><tag k="addr:housenumber" v="53" /></node><node id="-200124" action="modify" visible="true" lat="37.60639752" lon="127.036435"><tag k="amenity" v="pharmacy" /><tag k="name" v="메디칼팜약국" /><tag k="phone" v="+82 2 909 0508" /><tag k="source" v="공공데이터포털" /><tag k="source:date" v="2019-06-24" /><tag k="addr:street" v="오패산로" /><tag k="addr:housenumber" v="49" /><tag k="addr:subdistrict" v="하월곡동" /><tag k="level" v="3" /></node><node id="-200125" action="modify" visible="true" lat="37.61694804" lon="127.0081235"><tag k="amenity" v="pharmacy" /><tag k="name" v="해오름약국" /><tag k="phone" v="+82 2 912 2302" /><tag k="source" v="공공데이터포털" /><tag k="source:date" v="2019-06-24" /><tag k="addr:street" v="솔샘로25길" /><tag k="addr:housenumber" v="20" /></node><node id="-200126" action="modify" visible="true" lat="37.58925899" lon="127.0047826"><tag k="amenity" v="pharmacy" /><tag k="name" v="준약국" /><tag k="phone" v="+82 2 764 4835" /><tag k="source" v="공공데이터포털" /><tag k="source:date" v="2019-06-24" /><tag k="addr:street" v="성북로5길" /><tag k="addr:housenumber" v="2" /></node><node id="-200127" action="modify" visible="true" lat="37.60434991" lon="127.0246789"><tag k="amenity" v="pharmacy" /><tag k="name" v="길음메디칼약국" /><tag k="phone" v="+82 2 915 5777" /><tag k="source" v="공공데이터포털" /><tag k="source:date" v="2019-06-24" /><tag k="addr:street" v="길음로" /><tag k="addr:housenumber" v="2" /><tag k="addr:subdistrict" v="길음동" /><tag k="level" v="1" /></node><node id="-200128" action="modify" visible="true" lat="37.6089921" lon="127.0232761"><tag k="amenity" v="pharmacy" /><tag k="name" v="현대약국" /><tag k="phone" v="+82 2 980 9802" /><tag k="source" v="공공데이터포털" /><tag k="source:date" v="2019-06-24" /><tag k="addr:street" v="삼양로" /><tag k="addr:housenumber" v="66" /><tag k="addr:door" v="B01" /></node><node id="-200129" action="modify" visible="true" lat="37.59010566" lon="127.0092166"><tag k="amenity" v="pharmacy" /><tag k="name" v="안세약국" /><tag k="phone" v="+82 2 2202 4484" /><tag k="source" v="공공데이터포털" /><tag k="source:date" v="2019-06-24" /><tag k="addr:street" v="동소문로7길" /><tag k="addr:housenumber" v="2" /></node><node id="-200130" action="modify" visible="true" lat="37.60916369" lon="127.0585119"><tag k="amenity" v="pharmacy" /><tag k="name" v="백화점약국" /><tag k="phone" v="+82 2 964 6230" /><tag k="source" v="공공데이터포털" /><tag k="source:date" v="2019-06-24" /><tag k="addr:street" v="돌곶이로" /><tag k="addr:housenumber" v="61" /><tag k="addr:subdistrict" v="석관동" /></node><node id="-200131" action="modify" visible="true" lat="37.5835595" lon="127.0200573"><tag k="amenity" v="pharmacy" /><tag k="name" v="옵티마시민약국" /><tag k="phone" v="+82 2 928 8663" /><tag k="source" v="공공데이터포털" /><tag k="source:date" v="2019-06-24" /><tag k="addr:street" v="보문로" /><tag k="addr:housenumber" v="93" /><tag k="level" v="1" /></node><node id="-200132" action="modify" visible="true" lat="37.58611667" lon="127.02816"><tag k="amenity" v="pharmacy" /><tag k="name" v="21세기고려약국" /><tag k="phone" v="+82 2 929 9696" /><tag k="source" v="공공데이터포털" /><tag k="source:date" v="2019-06-24" /><tag k="addr:street" v="고려대로" /><tag k="addr:housenumber" v="80" /></node><node id="-200133" action="modify" visible="true" lat="37.6020696" lon="127.0193239"><tag k="amenity" v="pharmacy" /><tag k="name" v="정릉메디칼약국" /><tag k="phone" v="+82 2 912 2727" /><tag k="source" v="공공데이터포털" /><tag k="source:date" v="2019-06-24" /><tag k="addr:street" v="정릉로" /><tag k="addr:housenumber" v="326" /><tag k="addr:subdistrict" v="정릉동" /></node><node id="-200134" action="modify" visible="true" lat="37.61367218" lon="127.0508635"><tag k="amenity" v="pharmacy" /><tag k="name" v="지선약국" /><tag k="phone" v="+82 2 911 1996" /><tag k="source" v="공공데이터포털" /><tag k="source:date" v="2019-06-24" /><tag k="addr:street" v="장위로" /><tag k="addr:housenumber" v="127-1" /><tag k="addr:subdistrict" v="장위동" /><tag k="level" v="2" /></node><node id="-200135" action="modify" visible="true" lat="37.61373433" lon="127.0487659"><tag k="amenity" v="pharmacy" /><tag k="name" v="참사랑약국" /><tag k="phone" v="+82 2 942 3137" /><tag k="source" v="공공데이터포털" /><tag k="source:date" v="2019-06-24" /><tag k="addr:street" v="장위로" /><tag k="addr:housenumber" v="107" /><tag k="addr:subdistrict" v="장위동" /></node><node id="-200136" action="modify" visible="true" lat="37.59141366" lon="127.0118934"><tag k="amenity" v="pharmacy" /><tag k="name" v="한솔약국" /><tag k="phone" v="+82 2 926 6479" /><tag k="source" v="공공데이터포털" /><tag k="source:date" v="2019-06-24" /><tag k="addr:street" v="동소문로" /><tag k="addr:housenumber" v="57-1" /></node><node id="-200137" action="modify" visible="true" lat="37.58610949" lon="127.0280242"><tag k="amenity" v="pharmacy" /><tag k="name" v="백두산약국" /><tag k="phone" v="+82 2 927 2792" /><tag k="source" v="공공데이터포털" /><tag k="source:date" v="2019-06-24" /><tag k="addr:street" v="고려대로" /><tag k="addr:housenumber" v="78" /></node><node id="-200138" action="modify" visible="true" lat="37.60356084" lon="127.0237455"><tag k="amenity" v="pharmacy" /><tag k="name" v="신세원약국" /><tag k="phone" v="+82 2 909 0928" /><tag k="source" v="공공데이터포털" /><tag k="source:date" v="2019-06-24" /><tag k="addr:street" v="동소문로" /><tag k="addr:housenumber" v="245-2" /><tag k="addr:subdistrict" v="길음동" /></node><node id="-200139" action="modify" visible="true" lat="37.60102101" lon="127.0344393"><tag k="amenity" v="pharmacy" /><tag k="name" v="삼원약국" /><tag k="phone" v="+82 2 941 8550" /><tag k="source" v="공공데이터포털" /><tag k="source:date" v="2019-06-24" /><tag k="addr:street" v="종암로" /><tag k="addr:housenumber" v="120" /></node><node id="-200140" action="modify" visible="true" lat="37.60414089" lon="127.0246335"><tag k="amenity" v="pharmacy" /><tag k="name" v="동해물약국" /><tag k="phone" v="+82 2 911 1700" /><tag k="source" v="공공데이터포털" /><tag k="source:date" v="2019-06-24" /><tag k="addr:street" v="동소문로" /><tag k="addr:housenumber" v="257" /><tag k="addr:subdistrict" v="길음동" /></node><node id="-200141" action="modify" visible="true" lat="37.58883718" lon="127.0075815"><tag k="amenity" v="pharmacy" /><tag k="name" v="연약국" /><tag k="phone" v="+82 2 3675 5778" /><tag k="source" v="공공데이터포털" /><tag k="source:date" v="2019-06-24" /><tag k="addr:street" v="동소문로" /><tag k="addr:housenumber" v="12" /></node><node id="-200142" action="modify" visible="true" lat="37.58649131" lon="127.0288802"><tag k="amenity" v="pharmacy" /><tag k="name" v="미래약국" /><tag k="phone" v="+82 2 924 5264" /><tag k="source" v="공공데이터포털" /><tag k="source:date" v="2019-06-24" /><tag k="addr:street" v="고려대로" /><tag k="addr:housenumber" v="85" /></node><node id="-200143" action="modify" visible="true" lat="37.60327448" lon="127.042449"><tag k="amenity" v="pharmacy" /><tag k="name" v="하나온누리약국" /><tag k="phone" v="+82 2 914 0035" /><tag k="source" v="공공데이터포털" /><tag k="source:date" v="2019-06-24" /><tag k="addr:street" v="화랑로" /><tag k="addr:housenumber" v="95" /></node><node id="-200144" action="modify" visible="true" lat="37.58399202" lon="127.0198265"><tag k="amenity" v="pharmacy" /><tag k="name" v="청십자약국" /><tag k="phone" v="+82 2 923 2393" /><tag k="source" v="공공데이터포털" /><tag k="source:date" v="2019-06-24" /><tag k="addr:street" v="보문로" /><tag k="addr:housenumber" v="99" /><tag k="level" v="1" /></node><node id="-200145" action="modify" visible="true" lat="37.6089452" lon="127.0235025"><tag k="amenity" v="pharmacy" /><tag k="name" v="가람약국" /><tag k="phone" v="+82 2 988 5987" /><tag k="source" v="공공데이터포털" /><tag k="source:date" v="2019-06-24" /><tag k="addr:street" v="삼양로8길" /><tag k="addr:housenumber" v="3-28" /><tag k="addr:subdistrict" v="길음동" /></node><node id="-200146" action="modify" visible="true" lat="37.59302413" lon="127.0161738"><tag k="amenity" v="pharmacy" /><tag k="name" v="메디칼약국" /><tag k="phone" v="+82 2 922 4265" /><tag k="source" v="공공데이터포털" /><tag k="source:date" v="2019-06-24" /><tag k="addr:street" v="아리랑로" /><tag k="addr:housenumber" v="3" /></node><node id="-200147" action="modify" visible="true" lat="37.61377746" lon="127.0490604"><tag k="amenity" v="pharmacy" /><tag k="name" v="광혜당약국" /><tag k="phone" v="+82 2 942 5199" /><tag k="source" v="공공데이터포털" /><tag k="source:date" v="2019-06-24" /><tag k="addr:street" v="장월로" /><tag k="addr:housenumber" v="88-1" /><tag k="addr:subdistrict" v="장위동" /></node><node id="-200148" action="modify" visible="true" lat="37.60772026" lon="127.0361729"><tag k="amenity" v="pharmacy" /><tag k="name" v="정주약국" /><tag k="phone" v="+82 2 743 3635" /><tag k="source" v="공공데이터포털" /><tag k="source:date" v="2019-06-24" /><tag k="addr:street" v="오패산로" /><tag k="addr:housenumber" v="63" /><tag k="addr:subdistrict" v="하월곡동" /></node><node id="-200149" action="modify" visible="true" lat="37.61376388" lon="127.0689945"><tag k="amenity" v="pharmacy" /><tag k="name" v="온누리두산약국" /><tag k="phone" v="+82 2 959 2668" /><tag k="source" v="공공데이터포털" /><tag k="source:date" v="2019-06-24" /><tag k="addr:street" v="화랑로48길" /><tag k="addr:housenumber" v="16" /></node><node id="-200150" action="modify" visible="true" lat="37.6038403" lon="127.0424539"><tag k="amenity" v="pharmacy" /><tag k="name" v="부민약국" /><tag k="phone" v="+82 2 912 7393" /><tag k="source" v="공공데이터포털" /><tag k="source:date" v="2019-06-24" /><tag k="addr:street" v="화랑로13길" /><tag k="addr:housenumber" v="9" /><tag k="addr:subdistrict" v="하월곡동" /><tag k="level" v="1" /></node><node id="-200151" action="modify" visible="true" lat="37.61143392" lon="127.009115"><tag k="amenity" v="pharmacy" /><tag k="name" v="태평양약국" /><tag k="phone" v="+82 2 919 2525" /><tag k="source" v="공공데이터포털" /><tag k="source:date" v="2019-06-24" /><tag k="addr:street" v="보국문로16길" /><tag k="addr:housenumber" v="31" /><tag k="addr:subdistrict" v="정릉동" /></node><node id="-200152" action="modify" visible="true" lat="37.5817249" lon="127.0210848"><tag k="amenity" v="pharmacy" /><tag k="name" v="남정약국" /><tag k="phone" v="+82 2 922 6275" /><tag k="source" v="공공데이터포털" /><tag k="source:date" v="2019-06-24" /><tag k="addr:street" v="보문로" /><tag k="addr:housenumber" v="71-1" /></node><node id="-200153" action="modify" visible="true" lat="37.60857809" lon="127.0358833"><tag k="amenity" v="pharmacy" /><tag k="name" v="화성약국" /><tag k="phone" v="+82 2 913 8936" /><tag k="source" v="공공데이터포털" /><tag k="source:date" v="2019-06-24" /><tag k="addr:street" v="오패산로" /><tag k="addr:housenumber" v="73" /><tag k="addr:subdistrict" v="하월곡동" /></node><node id="-200154" action="modify" visible="true" lat="37.59507886" lon="127.0122836"><tag k="amenity" v="pharmacy" /><tag k="name" v="온누리성모약국" /><tag k="phone" v="+82 2 927 1282" /><tag k="source" v="공공데이터포털" /><tag k="source:date" v="2019-06-24" /><tag k="addr:street" v="성북로4길" /><tag k="addr:housenumber" v="52" /><tag k="addr:door" v="1102" /></node><node id="-200155" action="modify" visible="true" lat="37.60572594" lon="127.0277824"><tag k="amenity" v="pharmacy" /><tag k="name" v="건강한약국" /><tag k="phone" v="+82 2 916 6445" /><tag k="source" v="공공데이터포털" /><tag k="source:date" v="2019-06-24" /><tag k="addr:street" v="동소문로42길" /><tag k="addr:housenumber" v="14" /><tag k="addr:subdistrict" v="하월곡동" /><tag k="level" v="1" /></node><node id="-200156" action="modify" visible="true" lat="37.60258644" lon="127.0415699"><tag k="amenity" v="pharmacy" /><tag k="name" v="월곡약국" /><tag k="phone" v="+82 2 913 2900" /><tag k="source" v="공공데이터포털" /><tag k="source:date" v="2019-06-24" /><tag k="addr:street" v="화랑로11길" /><tag k="addr:housenumber" v="6" /><tag k="addr:subdistrict" v="하월곡동" /></node><node id="-200157" action="modify" visible="true" lat="37.59917885" lon="127.0362185"><tag k="amenity" v="pharmacy" /><tag k="name" v="대영약국" /><tag k="phone" v="+82 2 912 6432" /><tag k="source" v="공공데이터포털" /><tag k="source:date" v="2019-06-24" /><tag k="addr:street" v="월곡로5길" /><tag k="addr:housenumber" v="66" /><tag k="addr:subdistrict" v="종암동" /></node><node id="-200158" action="modify" visible="true" lat="37.60350523" lon="127.0304813"><tag k="amenity" v="pharmacy" /><tag k="name" v="혜조약국" /><tag k="phone" v="+82 2 922 5076" /><tag k="source" v="공공데이터포털" /><tag k="source:date" v="2019-06-24" /><tag k="addr:street" v="종암로21길" /><tag k="addr:housenumber" v="128" /><tag k="addr:subdistrict" v="종암동" /></node><node id="-200159" action="modify" visible="true" lat="37.58646961" lon="127.0291837"><tag k="amenity" v="pharmacy" /><tag k="name" v="대학약국" /><tag k="phone" v="+82 2 924 1919" /><tag k="source" v="공공데이터포털" /><tag k="source:date" v="2019-06-24" /><tag k="addr:street" v="고려대로" /><tag k="addr:housenumber" v="89" /></node><node id="-200160" action="modify" visible="true" lat="37.60759853" lon="127.0605764"><tag k="amenity" v="pharmacy" /><tag k="name" v="온누리진호약국" /><tag k="phone" v="+82 2 964 1944" /><tag k="source" v="공공데이터포털" /><tag k="source:date" v="2019-06-24" /><tag k="addr:street" v="돌곶이로" /><tag k="addr:housenumber" v="36-1" /><tag k="addr:subdistrict" v="석관동" /></node><node id="-200161" action="modify" visible="true" lat="37.61350008" lon="127.0487477"><tag k="amenity" v="pharmacy" /><tag k="name" v="우리약국" /><tag k="phone" v="+82 2 942 7331" /><tag k="source" v="공공데이터포털" /><tag k="source:date" v="2019-06-24" /><tag k="addr:street" v="장위로" /><tag k="addr:housenumber" v="110" /><tag k="addr:subdistrict" v="장위동" /></node><node id="-200162" action="modify" visible="true" lat="37.6050727" lon="127.0117416"><tag k="amenity" v="pharmacy" /><tag k="name" v="상락약국" /><tag k="phone" v="+82 2 916 8989" /><tag k="source" v="공공데이터포털" /><tag k="source:date" v="2019-06-24" /><tag k="addr:street" v="보국문로" /><tag k="addr:housenumber" v="4" /><tag k="addr:subdistrict" v="정릉동" /></node><node id="-200163" action="modify" visible="true" lat="37.61071591" lon="127.0606514"><tag k="amenity" v="pharmacy" /><tag k="name" v="온누리민우약국" /><tag k="phone" v="+82 2 969 4582" /><tag k="source" v="공공데이터포털" /><tag k="source:date" v="2019-06-24" /><tag k="addr:street" v="돌곶이로22길" /><tag k="addr:housenumber" v="49" /><tag k="addr:subdistrict" v="석관동" /></node><node id="-200164" action="modify" visible="true" lat="37.59377336" lon="127.0188281"><tag k="amenity" v="pharmacy" /><tag k="name" v="세원약국" /><tag k="phone" v="+82 2 922 6060" /><tag k="source" v="공공데이터포털" /><tag k="source:date" v="2019-06-24" /><tag k="addr:street" v="동소문로20가길" /><tag k="addr:housenumber" v="51" /></node><node id="-200165" action="modify" visible="true" lat="37.59758374" lon="127.0110248"><tag k="amenity" v="pharmacy" /><tag k="name" v="모당약국" /><tag k="phone" v="+82 2 925 4465" /><tag k="source" v="공공데이터포털" /><tag k="source:date" v="2019-06-24" /><tag k="addr:street" v="아리랑로5길" /><tag k="addr:housenumber" v="1" /></node><node id="-200166" action="modify" visible="true" lat="37.60803934" lon="126.9995878"><tag k="amenity" v="pharmacy" /><tag k="name" v="국민약국" /><tag k="phone" v="+82 2 914 5782" /><tag k="source" v="공공데이터포털" /><tag k="source:date" v="2019-06-24" /><tag k="addr:street" v="정릉로10길" /><tag k="addr:housenumber" v="42-2" /><tag k="addr:subdistrict" v="정릉동" /></node><node id="-200167" action="modify" visible="true" lat="37.60935215" lon="127.024975"><tag k="amenity" v="pharmacy" /><tag k="name" v="동부약국" /><tag k="phone" v="+82 2 983 7950" /><tag k="source" v="공공데이터포털" /><tag k="source:date" v="2019-06-24" /><tag k="addr:street" v="숭인로2길" /><tag k="addr:housenumber" v="61" /><tag k="addr:subdistrict" v="길음동" /></node><node id="-200168" action="modify" visible="true" lat="37.60217778" lon="127.0189888"><tag k="amenity" v="pharmacy" /><tag k="name" v="소망약국" /><tag k="phone" v="+82 2 918 8055" /><tag k="source" v="공공데이터포털" /><tag k="source:date" v="2019-06-24" /><tag k="addr:street" v="정릉로" /><tag k="addr:housenumber" v="322" /><tag k="addr:subdistrict" v="정릉동" /></node><node id="-200169" action="modify" visible="true" lat="37.58241356" lon="127.0193415"><tag k="amenity" v="pharmacy" /><tag k="name" v="회생약국" /><tag k="phone" v="+82 2 923 0288" /><tag k="source" v="공공데이터포털" /><tag k="source:date" v="2019-06-24" /><tag k="addr:street" v="지봉로20길" /><tag k="addr:housenumber" v="57" /></node><node id="-200170" action="modify" visible="true" lat="37.58907861" lon="127.0081069"><tag k="amenity" v="pharmacy" /><tag k="name" v="굿모닝약국" /><tag k="phone" v="+82 2 916 3623" /><tag k="source" v="공공데이터포털" /><tag k="source:date" v="2019-06-24" /><tag k="addr:street" v="동소문로" /><tag k="addr:housenumber" v="16-1" /></node><node id="-200171" action="modify" visible="true" lat="37.59930193" lon="127.0182724"><tag k="amenity" v="pharmacy" /><tag k="name" v="새민우약국" /><tag k="phone" v="+82 2 917 4275" /><tag k="source" v="공공데이터포털" /><tag k="source:date" v="2019-06-24" /><tag k="addr:street" v="북악산로" /><tag k="addr:housenumber" v="845" /><tag k="addr:door" v="301" /></node><node id="-200172" action="modify" visible="true" lat="37.60970093" lon="127.0580049"><tag k="amenity" v="pharmacy" /><tag k="name" v="선화약국" /><tag k="phone" v="+82 2 960 1614" /><tag k="source" v="공공데이터포털" /><tag k="source:date" v="2019-06-24" /><tag k="addr:street" v="돌곶이로" /><tag k="addr:housenumber" v="67" /><tag k="addr:subdistrict" v="석관동" /></node><node id="-200173" action="modify" visible="true" lat="37.6113781" lon="127.0624505"><tag k="amenity" v="pharmacy" /><tag k="name" v="새비홍약국" /><tag k="phone" v="+82 2 966 0319" /><tag k="source" v="공공데이터포털" /><tag k="source:date" v="2019-06-24" /><tag k="addr:street" v="한천로" /><tag k="addr:housenumber" v="580" /><tag k="addr:subdistrict" v="석관동" /></node><node id="-200174" action="modify" visible="true" lat="37.60366176" lon="127.037557"><tag k="amenity" v="pharmacy" /><tag k="name" v="구원약국" /><tag k="phone" v="+82 2 913 1139" /><tag k="source" v="공공데이터포털" /><tag k="source:date" v="2019-06-24" /><tag k="addr:street" v="오패산로" /><tag k="addr:housenumber" v="16" /><tag k="addr:subdistrict" v="하월곡동" /></node><node id="-200175" action="modify" visible="true" lat="37.60815045" lon="127.0595712"><tag k="amenity" v="pharmacy" /><tag k="name" v="메디팜믿음약국" /><tag k="phone" v="+82 2 963 3249" /><tag k="source" v="공공데이터포털" /><tag k="source:date" v="2019-06-24" /><tag k="addr:street" v="돌곶이로" /><tag k="addr:housenumber" v="45" /><tag k="addr:subdistrict" v="석관동" /></node><node id="-200176" action="modify" visible="true" lat="37.61596953" lon="127.0552371"><tag k="amenity" v="pharmacy" /><tag k="name" v="관문약국" /><tag k="phone" v="+82 2 915 1241" /><tag k="source" v="공공데이터포털" /><tag k="source:date" v="2019-06-24" /><tag k="addr:street" v="장위로" /><tag k="addr:housenumber" v="177" /><tag k="addr:subdistrict" v="장위동" /></node><node id="-200177" action="modify" visible="true" lat="37.60881032" lon="127.0080592"><tag k="amenity" v="pharmacy" /><tag k="name" v="수보약국" /><tag k="phone" v="+82 2 914 1555" /><tag k="source" v="공공데이터포털" /><tag k="source:date" v="2019-06-24" /><tag k="addr:street" v="솔샘로6길" /><tag k="addr:housenumber" v="63" /><tag k="addr:subdistrict" v="정릉동" /></node><node id="-200178" action="modify" visible="true" lat="37.60738938" lon="127.0608027"><tag k="amenity" v="pharmacy" /><tag k="name" v="백경약국" /><tag k="phone" v="+82 2 963 8974" /><tag k="source" v="공공데이터포털" /><tag k="source:date" v="2019-06-24" /><tag k="addr:street" v="돌곶이로" /><tag k="addr:housenumber" v="34" /><tag k="addr:subdistrict" v="석관동" /></node><node id="-200179" action="modify" visible="true" lat="37.61759873" lon="127.0463717"><tag k="amenity" v="pharmacy" /><tag k="name" v="인현약국" /><tag k="phone" v="+82 2 918 7353" /><tag k="source" v="공공데이터포털" /><tag k="source:date" v="2019-06-24" /><tag k="addr:street" v="돌곶이로41길" /><tag k="addr:housenumber" v="33" /><tag k="addr:subdistrict" v="장위동" /></node><node id="-200180" action="modify" visible="true" lat="37.60346738" lon="127.0368231"><tag k="amenity" v="pharmacy" /><tag k="name" v="석산약국" /><tag k="phone" v="+82 2 912 2020" /><tag k="source" v="공공데이터포털" /><tag k="source:date" v="2019-06-24" /><tag k="addr:street" v="오패산로1길" /><tag k="addr:housenumber" v="1" /><tag k="addr:subdistrict" v="하월곡동" /></node><node id="-200181" action="modify" visible="true" lat="37.59743116" lon="127.0354477"><tag k="amenity" v="pharmacy" /><tag k="name" v="종암약국" /><tag k="phone" v="+82 2 912 0107" /><tag k="source" v="공공데이터포털" /><tag k="source:date" v="2019-06-24" /><tag k="addr:street" v="종암로" /><tag k="addr:housenumber" v="80" /><tag k="addr:subdistrict" v="종암동" /><tag k="level" v="1" /></node><node id="-200182" action="modify" visible="true" lat="37.61711767" lon="127.002886"><tag k="amenity" v="pharmacy" /><tag k="name" v="세종약국" /><tag k="phone" v="+82 2 914 3685" /><tag k="source" v="공공데이터포털" /><tag k="source:date" v="2019-06-24" /><tag k="addr:street" v="보국문로" /><tag k="addr:housenumber" v="168" /><tag k="addr:subdistrict" v="정릉동" /></node><node id="-200183" action="modify" visible="true" lat="37.60475389" lon="127.0230392"><tag k="amenity" v="pharmacy" /><tag k="name" v="남진약국" /><tag k="phone" v="+82 2 913 9270" /><tag k="source" v="공공데이터포털" /><tag k="source:date" v="2019-06-24" /><tag k="addr:street" v="길음로" /><tag k="addr:housenumber" v="20" /><tag k="addr:subdistrict" v="길음뉴타운상가동" /><tag k="addr:door" v="515" /></node><node id="-200184" action="modify" visible="true" lat="37.61330471" lon="127.0505506"><tag k="amenity" v="pharmacy" /><tag k="name" v="부산약국" /><tag k="phone" v="+82 2 915 4560" /><tag k="source" v="공공데이터포털" /><tag k="source:date" v="2019-06-24" /><tag k="addr:street" v="장위로" /><tag k="addr:housenumber" v="124" /><tag k="addr:subdistrict" v="장위동" /></node><node id="-200185" action="modify" visible="true" lat="37.61680455" lon="127.0496106"><tag k="amenity" v="pharmacy" /><tag k="name" v="개미약국" /><tag k="phone" v="+82 2 915 7770" /><tag k="source" v="공공데이터포털" /><tag k="source:date" v="2019-06-24" /><tag k="addr:street" v="장월로" /><tag k="addr:housenumber" v="128" /><tag k="addr:subdistrict" v="장위동" /></node><node id="-200186" action="modify" visible="true" lat="37.58996451" lon="127.0150137"><tag k="amenity" v="pharmacy" /><tag k="name" v="지민약국" /><tag k="phone" v="+82 2 953 5674" /><tag k="source" v="공공데이터포털" /><tag k="source:date" v="2019-06-24" /><tag k="addr:street" v="삼선교로" /><tag k="addr:housenumber" v="87" /></node><node id="-200187" action="modify" visible="true" lat="37.61440985" lon="127.0534464"><tag k="amenity" v="pharmacy" /><tag k="name" v="수진약국" /><tag k="phone" v="+82 2 915 1717" /><tag k="source" v="공공데이터포털" /><tag k="source:date" v="2019-06-24" /><tag k="addr:street" v="돌곶이로" /><tag k="addr:housenumber" v="134" /><tag k="addr:subdistrict" v="장위동" /></node><node id="-200188" action="modify" visible="true" lat="37.59410517" lon="127.0338609"><tag k="amenity" v="pharmacy" /><tag k="name" v="영생약국" /><tag k="phone" v="+82 2 928 5777" /><tag k="source" v="공공데이터포털" /><tag k="source:date" v="2019-06-24" /><tag k="addr:street" v="종암로5길" /><tag k="addr:housenumber" v="36" /><tag k="addr:subdistrict" v="상가동" /><tag k="addr:unit" v="종암" /><tag k="addr:door" v="1" /></node><node id="-200189" action="modify" visible="true" lat="37.60286193" lon="127.0223818"><tag k="amenity" v="pharmacy" /><tag k="name" v="대림당약국" /><tag k="phone" v="+82 2 913 0832" /><tag k="source" v="공공데이터포털" /><tag k="source:date" v="2019-06-24" /><tag k="addr:street" v="동소문로" /><tag k="addr:housenumber" v="231" /><tag k="addr:subdistrict" v="길음동" /><tag k="level" v="-" /></node><node id="-200190" action="modify" visible="true" lat="37.61700234" lon="127.0032349"><tag k="amenity" v="pharmacy" /><tag k="name" v="온누리청수약국" /><tag k="phone" v="+82 2 913 2328" /><tag k="source" v="공공데이터포털" /><tag k="source:date" v="2019-06-24" /><tag k="addr:street" v="보국문로" /><tag k="addr:housenumber" v="164" /><tag k="addr:subdistrict" v="정릉동" /></node><node id="-200191" action="modify" visible="true" lat="37.61413001" lon="127.0412909"><tag k="amenity" v="pharmacy" /><tag k="name" v="알파약국" /><tag k="phone" v="+82 2 918 7692" /><tag k="source" v="공공데이터포털" /><tag k="source:date" v="2019-06-24" /><tag k="addr:street" v="장위로" /><tag k="addr:housenumber" v="42-1" /><tag k="addr:subdistrict" v="장위동" /></node><node id="-200192" action="modify" visible="true" lat="37.59542691" lon="127.0226287"><tag k="amenity" v="pharmacy" /><tag k="name" v="민정약국" /><tag k="phone" v="+82 2 923 0280" /><tag k="source" v="공공데이터포털" /><tag k="source:date" v="2019-06-24" /><tag k="addr:street" v="북악산로22길" /><tag k="addr:housenumber" v="2" /><tag k="addr:subdistrict" v="돈암동" /></node><node id="-200193" action="modify" visible="true" lat="37.59867806" lon="127.0205868"><tag k="amenity" v="pharmacy" /><tag k="name" v="서울고명약국" /><tag k="phone" v="+82 2 923 6811" /><tag k="source" v="공공데이터포털" /><tag k="source:date" v="2019-06-24" /><tag k="addr:street" v="북악산로17길" /><tag k="addr:housenumber" v="2" /><tag k="addr:subdistrict" v="돈암동" /></node><node id="-200194" action="modify" visible="true" lat="37.59143708" lon="127.0376777"><tag k="amenity" v="pharmacy" /><tag k="name" v="운용약국" /><tag k="phone" v="+82 2 912 3417" /><tag k="source" v="공공데이터포털" /><tag k="source:date" v="2019-06-24" /><tag k="addr:street" v="회기로" /><tag k="addr:housenumber" v="9" /><tag k="addr:subdistrict" v="종암동" /></node><node id="-200195" action="modify" visible="true" lat="37.58511033" lon="127.0314339"><tag k="amenity" v="pharmacy" /><tag k="name" v="동성약국" /><tag k="phone" v="+82 2 923 6788" /><tag k="source" v="공공데이터포털" /><tag k="source:date" v="2019-06-24" /><tag k="addr:street" v="안암로" /><tag k="addr:housenumber" v="105" /><tag k="level" v="1" /></node><node id="-200196" action="modify" visible="true" lat="37.6024197" lon="127.0159131"><tag k="amenity" v="pharmacy" /><tag k="name" v="정인약국" /><tag k="phone" v="+82 2 914 0580" /><tag k="source" v="공공데이터포털" /><tag k="source:date" v="2019-06-24" /><tag k="addr:street" v="정릉로36길" /><tag k="addr:housenumber" v="50" /><tag k="addr:subdistrict" v="정릉동" /></node><node id="-200197" action="modify" visible="true" lat="37.59611651" lon="127.0147749"><tag k="amenity" v="pharmacy" /><tag k="name" v="용수약국" /><tag k="phone" v="+82 2 923 4756" /><tag k="source" v="공공데이터포털" /><tag k="source:date" v="2019-06-24" /><tag k="addr:street" v="동소문로13나길" /><tag k="addr:housenumber" v="111" /></node><node id="-200198" action="modify" visible="true" lat="37.6079216" lon="127.0238601"><tag k="amenity" v="pharmacy" /><tag k="name" v="십자약국" /><tag k="phone" v="+82 2 988 5964" /><tag k="source" v="공공데이터포털" /><tag k="source:date" v="2019-06-24" /><tag k="addr:street" v="삼양로8길" /><tag k="addr:housenumber" v="3-4" /><tag k="addr:subdistrict" v="길음동" /></node><node id="-200199" action="modify" visible="true" lat="37.60572843" lon="127.0134857"><tag k="amenity" v="pharmacy" /><tag k="name" v="제창약국" /><tag k="phone" v="+82 2 914 8453" /><tag k="source" v="공공데이터포털" /><tag k="source:date" v="2019-06-24" /><tag k="addr:street" v="정릉로27길" /><tag k="addr:housenumber" v="41" /><tag k="addr:subdistrict" v="정릉동" /></node><node id="-200200" action="modify" visible="true" lat="37.60441797" lon="127.0394781"><tag k="amenity" v="pharmacy" /><tag k="name" v="자산약국" /><tag k="phone" v="+82 2 913 2130" /><tag k="source" v="공공데이터포털" /><tag k="source:date" v="2019-06-24" /><tag k="addr:street" v="화랑로5길" /><tag k="addr:housenumber" v="42" /><tag k="addr:subdistrict" v="하월곡동" /></node><node id="-200201" action="modify" visible="true" lat="37.60247771" lon="127.0130186"><tag k="amenity" v="pharmacy" /><tag k="name" v="강원약국" /><tag k="phone" v="+82 2 914 8814" /><tag k="source" v="공공데이터포털" /><tag k="source:date" v="2019-06-24" /><tag k="addr:street" v="아리랑로" /><tag k="addr:housenumber" v="117-7" /><tag k="addr:subdistrict" v="정릉동" /></node></osm>