<?xml version='1.0' encoding='utf-8'?>
<osm version="0.6" generator="JOSM"><node id="-200001" action="modify" visible="true" lat="37.52245151" lon="126.6634026"><tag k="amenity" v="pharmacy" /><tag k="name" v="가정약국" /><tag k="phone" v="+82 32 246 4627" /><tag k="source" v="공공데이터포털" /><tag k="source:date" v="2020-08-28" /><tag k="addr:street" v="새오개로111번안길" /><tag k="addr:housenumber" v="19-1" /><tag k="addr:subdistrict" v="신현동" /><tag k="addr:door" v="107" /></node><node id="-200002" action="modify" visible="true" lat="37.5323839" lon="126.6470464"><tag k="amenity" v="pharmacy" /><tag k="name" v="송송약국" /><tag k="phone" v="+82 32 266 5200" /><tag k="source" v="공공데이터포털" /><tag k="source:date" v="2020-08-28" /><tag k="addr:street" v="청라커낼로260번길" /><tag k="addr:housenumber" v="27" /><tag k="addr:door" v="130" /></node><node id="-200003" action="modify" visible="true" lat="37.52208025" lon="126.6648346"><tag k="amenity" v="pharmacy" /><tag k="name" v="연세드림약국" /><tag k="phone" v="+82 32 572 9003" /><tag k="source" v="공공데이터포털" /><tag k="source:date" v="2020-08-28" /><tag k="addr:street" v="새오개로111번안길" /><tag k="addr:housenumber" v="32" /><tag k="addr:subdistrict" v="신현동" /><tag k="addr:door" v="102" /></node><node id="-200004" action="modify" visible="true" lat="37.51848254" lon="126.6726021"><tag k="amenity" v="pharmacy" /><tag k="name" v="사(4)층약국" /><tag k="phone" v="+82 32 573 4995" /><tag k="source" v="공공데이터포털" /><tag k="source:date" v="2020-08-28" /><tag k="addr:street" v="가정로" /><tag k="addr:housenumber" v="375" /><tag k="addr:door" v="409" /></node><node id="-200005" action="modify" visible="true" lat="37.53388963" lon="126.650289"><tag k="amenity" v="pharmacy" /><tag k="name" v="블루팜약국" /><tag k="phone" v="+82 32 263 5116" /><tag k="source" v="공공데이터포털" /><tag k="source:date" v="2020-08-28" /><tag k="addr:street" v="중봉대로" /><tag k="addr:housenumber" v="610" /><tag k="addr:subdistrict" v="청라동" /><tag k="addr:door" v="105" /></node><node id="-200006" action="modify" visible="true" lat="37.54172212" lon="126.6840832"><tag k="amenity" v="pharmacy" /><tag k="name" v="가까운약국" /><tag k="phone" v="+82 32 566 0998" /><tag k="source" v="공공데이터포털" /><tag k="source:date" v="2020-08-28" /><tag k="addr:street" v="심곡로100번길" /><tag k="addr:housenumber" v="30" /></node><node id="-200007" action="modify" visible="true" lat="37.52647816" lon="126.6697114"><tag k="amenity" v="pharmacy" /><tag k="name" v="루원시티약국" /><tag k="phone" v="+82 32 564 8575" /><tag k="source" v="공공데이터포털" /><tag k="source:date" v="2020-08-28" /><tag k="addr:street" v="염곡로" /><tag k="addr:housenumber" v="468" /><tag k="addr:door" v="106" /></node><node id="-200008" action="modify" visible="true" lat="37.53212602" lon="126.6568263"><tag k="amenity" v="pharmacy" /><tag k="name" v="옵티마강남약국" /><tag k="phone" v="+82 32 865 2222" /><tag k="source" v="공공데이터포털" /><tag k="source:date" v="2020-08-28" /><tag k="addr:street" v="청라에메랄드로" /><tag k="addr:housenumber" v="84" /><tag k="addr:door" v="106" /></node><node id="-200009" action="modify" visible="true" lat="37.52638571" lon="126.6711046"><tag k="amenity" v="pharmacy" /><tag k="name" v="루원진약국" /><tag k="phone" v="+82 32 569 4880" /><tag k="source" v="공공데이터포털" /><tag k="source:date" v="2020-08-28" /><tag k="addr:street" v="염곡로464번길" /><tag k="addr:housenumber" v="15" /><tag k="addr:subdistrict" v="가정동" /><tag k="addr:door" v="106" /></node><node id="-200010" action="modify" visible="true" lat="37.53212602" lon="126.6568263"><tag k="amenity" v="pharmacy" /><tag k="name" v="신신약국" /><tag k="phone" v="+82 32 565 0416" /><tag k="source" v="공공데이터포털" /><tag k="source:date" v="2020-08-28" /><tag k="addr:street" v="청라에메랄드로" /><tag k="addr:housenumber" v="78" /><tag k="addr:door" v="106" /></node><node id="-200011" action="modify" visible="true" lat="37.53233836" lon="126.6556911"><tag k="amenity" v="pharmacy" /><tag k="name" v="청라큰사랑약국" /><tag k="phone" v="+82 32 568 7729" /><tag k="source" v="공공데이터포털" /><tag k="source:date" v="2020-08-28" /><tag k="addr:street" v="청라에메랄드로" /><tag k="addr:housenumber" v="79" /><tag k="addr:subdistrict" v="청라동" /><tag k="addr:door" v="B12-B13" /></node><node id="-200012" action="modify" visible="true" lat="37.53386257" lon="126.6455601"><tag k="amenity" v="pharmacy" /><tag k="name" v="청라천사약국" /><tag k="phone" v="+82 32 572 8887" /><tag k="source" v="공공데이터포털" /><tag k="source:date" v="2020-08-28" /><tag k="addr:street" v="청라커낼로288번길" /><tag k="addr:housenumber" v="10" /><tag k="addr:door" v="112" /></node><node id="-200013" action="modify" visible="true" lat="37.49456871" lon="126.6814046"><tag k="amenity" v="pharmacy" /><tag k="name" v="가좌한마음약국" /><tag k="phone" v="+82 32 571 7582" /><tag k="source" v="공공데이터포털" /><tag k="source:date" v="2020-08-28" /><tag k="addr:street" v="원적로" /><tag k="addr:housenumber" v="85" /><tag k="addr:door" v="210" /></node><node id="-200014" action="modify" visible="true" lat="37.53208948" lon="126.6457279"><tag k="amenity" v="pharmacy" /><tag k="name" v="두리약국" /><tag k="source" v="공공데이터포털" /><tag k="source:date" v="2020-08-28" /><tag k="addr:street" v="청라커낼로260번길" /><tag k="addr:housenumber" v="11" /><tag k="addr:door" v="105" /></node><node id="-200015" action="modify" visible="true" lat="37.52242283" lon="126.6648511"><tag k="amenity" v="pharmacy" /><tag k="name" v="새오개약국" /><tag k="phone" v="+82 32 571 5553" /><tag k="source" v="공공데이터포털" /><tag k="source:date" v="2020-08-28" /><tag k="addr:street" v="새오개로111번안길" /><tag k="addr:housenumber" v="31" /><tag k="addr:subdistrict" v="신현동" /><tag k="addr:door" v="101" /></node><node id="-200016" action="modify" visible="true" lat="37.54409033" lon="126.6750794"><tag k="amenity" v="pharmacy" /><tag k="name" v="새봄약국" /><tag k="phone" v="+82 32 562 6610" /><tag k="source" v="공공데이터포털" /><tag k="source:date" v="2020-08-28" /><tag k="addr:street" v="탁옥로" /><tag k="addr:housenumber" v="49" /><tag k="addr:door" v="404" /></node><node id="-200017" action="modify" visible="true" lat="37.49501687" lon="126.6828103"><tag k="amenity" v="pharmacy" /><tag k="name" v="서광약국" /><tag k="phone" v="+82 32 572 6635" /><tag k="source" v="공공데이터포털" /><tag k="source:date" v="2020-08-28" /><tag k="addr:street" v="원적로" /><tag k="addr:housenumber" v="100" /><tag k="addr:door" v="101-102" /></node><node id="-200018" action="modify" visible="true" lat="37.49278194" lon="126.6860157"><tag k="amenity" v="pharmacy" /><tag k="name" v="해봄약국" /><tag k="phone" v="+82 32 571 3857" /><tag k="source" v="공공데이터포털" /><tag k="source:date" v="2020-08-28" /><tag k="addr:street" v="장고개로337번길" /><tag k="addr:housenumber" v="7" /><tag k="addr:subdistrict" v="가좌동" /><tag k="addr:door" v="103" /></node><node id="-200019" action="modify" visible="true" lat="37.49526897" lon="126.6844116"><tag k="amenity" v="pharmacy" /><tag k="name" v="딸기약국" /><tag k="phone" v="+82 32 573 5670" /><tag k="source" v="공공데이터포털" /><tag k="source:date" v="2020-08-28" /><tag k="addr:street" v="건지로" /><tag k="addr:housenumber" v="402" /><tag k="addr:door" v="105" /></node><node id="-200020" action="modify" visible="true" lat="37.60260123" lon="126.65743"><tag k="amenity" v="pharmacy" /><tag k="name" v="메디피아약국" /><tag k="phone" v="+82 32 562 0258" /><tag k="source" v="공공데이터포털" /><tag k="source:date" v="2020-08-28" /><tag k="addr:street" v="완정로" /><tag k="addr:housenumber" v="172" /><tag k="addr:subdistrict" v="마전동" /><tag k="addr:door" v="109" /></node><node id="-200021" action="modify" visible="true" lat="37.53209493" lon="126.6509323"><tag k="amenity" v="pharmacy" /><tag k="name" v="금빛약국" /><tag k="phone" v="+82 32 565 0531" /><tag k="source" v="공공데이터포털" /><tag k="source:date" v="2020-08-28" /><tag k="addr:street" v="중봉대로586번길" /><tag k="addr:housenumber" v="9-4" /><tag k="addr:door" v="113" /></node><node id="-200022" action="modify" visible="true" lat="37.56363436" lon="126.6735565"><tag k="amenity" v="pharmacy" /><tag k="name" v="큰사랑약국" /><tag k="phone" v="+82 32 565 7996" /><tag k="source" v="공공데이터포털" /><tag k="source:date" v="2020-08-28" /><tag k="addr:street" v="승학로" /><tag k="addr:housenumber" v="470" /><tag k="addr:subdistrict" v="검암동" /><tag k="addr:door" v="108" /></node><node id="-200023" action="modify" visible="true" lat="37.51633814" lon="126.6758186"><tag k="amenity" v="pharmacy" /><tag k="name" v="더사랑약국" /><tag k="phone" v="+82 70 4388 5131" /><tag k="source" v="공공데이터포털" /><tag k="source:date" v="2020-08-28" /><tag k="addr:street" v="가경주로40번길" /><tag k="addr:housenumber" v="20-10" /><tag k="addr:subdistrict" v="가정동" /><tag k="addr:door" v="1" /></node><node id="-200024" action="modify" visible="true" lat="37.49314401" lon="126.6853535"><tag k="amenity" v="pharmacy" /><tag k="name" v="일화약국" /><tag k="phone" v="+82 32 576 9321" /><tag k="source" v="공공데이터포털" /><tag k="source:date" v="2020-08-28" /><tag k="addr:street" v="장고개로337번길" /><tag k="addr:housenumber" v="16" /><tag k="addr:door" v="408" /></node><node id="-200025" action="modify" visible="true" lat="37.51813807" lon="126.673219"><tag k="amenity" v="pharmacy" /><tag k="name" v="하늘약국" /><tag k="phone" v="+82 32 576 2020" /><tag k="source" v="공공데이터포털" /><tag k="source:date" v="2020-08-28" /><tag k="addr:street" v="가정로" /><tag k="addr:housenumber" v="372" /><tag k="addr:subdistrict" v="가정동" /><tag k="level" v="1" /></node><node id="-200026" action="modify" visible="true" lat="37.51944582" lon="126.6733316"><tag k="amenity" v="pharmacy" /><tag k="name" v="세란약국" /><tag k="phone" v="+82 32 582 1682" /><tag k="source" v="공공데이터포털" /><tag k="source:date" v="2020-08-28" /><tag k="addr:street" v="가정로" /><tag k="addr:housenumber" v="388" /><tag k="addr:subdistrict" v="가정동" /><tag k="level" v="1" /></node><node id="-200027" action="modify" visible="true" lat="37.59395092" lon="126.6749328"><tag k="amenity" v="pharmacy" /><tag k="name" v="올리브약국" /><tag k="phone" v="+82 32 566 5505" /><tag k="source" v="공공데이터포털" /><tag k="source:date" v="2020-08-28" /><tag k="addr:street" v="원당대로" /><tag k="addr:housenumber" v="663" /><tag k="addr:door" v="103" /></node><node id="-200028" action="modify" visible="true" lat="37.52370315" lon="126.6240684"><tag k="amenity" v="pharmacy" /><tag k="name" v="행복온누리약국" /><tag k="phone" v="+82 32 567 0523" /><tag k="source" v="공공데이터포털" /><tag k="source:date" v="2020-08-28" /><tag k="addr:street" v="솔빛로" /><tag k="addr:housenumber" v="24" /><tag k="addr:subdistrict" v="청라동" /><tag k="addr:door" v="101-102" /></node><node id="-200029" action="modify" visible="true" lat="37.5927574" lon="126.6956075"><tag k="amenity" v="pharmacy" /><tag k="name" v="푸른솔약국" /><tag k="phone" v="+82 32 563 0236" /><tag k="source" v="공공데이터포털" /><tag k="source:date" v="2020-08-28" /><tag k="addr:street" v="고산후로95번길" /><tag k="addr:housenumber" v="32" /><tag k="addr:door" v="102" /></node><node id="-200030" action="modify" visible="true" lat="37.60254472" lon="126.6556304"><tag k="amenity" v="pharmacy" /><tag k="name" v="메디팜우리들약국" /><tag k="phone" v="+82 32 561 0978" /><tag k="source" v="공공데이터포털" /><tag k="source:date" v="2020-08-28" /><tag k="addr:street" v="완정로" /><tag k="addr:housenumber" v="187" /><tag k="addr:door" v="101" /></node><node id="-200031" action="modify" visible="true" lat="37.60147146" lon="126.6587073"><tag k="amenity" v="pharmacy" /><tag k="name" v="생동온누리약국" /><tag k="phone" v="+82 32 568 1589" /><tag k="source" v="공공데이터포털" /><tag k="source:date" v="2020-08-28" /><tag k="addr:street" v="완정로" /><tag k="addr:housenumber" v="153" /><tag k="addr:door" v="101-102" /></node><node id="-200032" action="modify" visible="true" lat="37.59510977" lon="126.6722172"><tag k="amenity" v="pharmacy" /><tag k="name" v="검단온누리약국" /><tag k="phone" v="+82 32 564 8894" /><tag k="source" v="공공데이터포털" /><tag k="source:date" v="2020-08-28" /><tag k="addr:street" v="완정로" /><tag k="addr:housenumber" v="18" /><tag k="addr:door" v="104" /></node><node id="-200033" action="modify" visible="true" lat="37.52720848" lon="126.6697551"><tag k="amenity" v="pharmacy" /><tag k="name" v="가온약국" /><tag k="phone" v="+82 32 567 0879" /><tag k="source" v="공공데이터포털" /><tag k="source:date" v="2020-08-28" /><tag k="addr:street" v="봉오재3로" /><tag k="addr:housenumber" v="90" /></node><node id="-200034" action="modify" visible="true" lat="37.53199817" lon="126.6401292"><tag k="amenity" v="pharmacy" /><tag k="name" v="청라로이약국" /><tag k="phone" v="+82 32 569 7725" /><tag k="source" v="공공데이터포털" /><tag k="source:date" v="2020-08-28" /><tag k="addr:street" v="크리스탈로74번길" /><tag k="addr:housenumber" v="31" /><tag k="addr:door" v="109" /></node><node id="-200035" action="modify" visible="true" lat="37.48944062" lon="126.6788713"><tag k="amenity" v="pharmacy" /><tag k="name" v="편안한약국" /><tag k="phone" v="+82 32 583 1133" /><tag k="source" v="공공데이터포털" /><tag k="source:date" v="2020-08-28" /><tag k="addr:street" v="원적로27번길" /><tag k="addr:housenumber" v="11" /><tag k="addr:subdistrict" v="가좌동" /></node><node id="-200036" action="modify" visible="true" lat="37.54412585" lon="126.6758369"><tag k="amenity" v="pharmacy" /><tag k="name" v="성누가약국" /><tag k="phone" v="+82 32 565 5250" /><tag k="source" v="공공데이터포털" /><tag k="source:date" v="2020-08-28" /><tag k="addr:street" v="탁옥로" /><tag k="addr:housenumber" v="55" /></node><node id="-200037" action="modify" visible="true" lat="37.50297214" lon="126.6722658"><tag k="amenity" v="pharmacy" /><tag k="name" v="옵티마정다운약국" /><tag k="phone" v="+82 32 579 4456" /><tag k="source" v="공공데이터포털" /><tag k="source:date" v="2020-08-28" /><tag k="addr:street" v="가정로" /><tag k="addr:housenumber" v="204" /><tag k="addr:subdistrict" v="석남동" /></node><node id="-200038" action="modify" visible="true" lat="37.5655515" lon="126.6749827"><tag k="amenity" v="pharmacy" /><tag k="name" v="행복한약국" /><tag k="phone" v="+82 70 7792 5502" /><tag k="source" v="공공데이터포털" /><tag k="source:date" v="2020-08-28" /><tag k="addr:street" v="승학로" /><tag k="addr:housenumber" v="497" /><tag k="addr:door" v="109" /></node><node id="-200039" action="modify" visible="true" lat="37.5134055" lon="126.6690158"><tag k="amenity" v="pharmacy" /><tag k="name" v="이삭약국" /><tag k="phone" v="+82 32 267 7582" /><tag k="source" v="공공데이터포털" /><tag k="source:date" v="2020-08-28" /><tag k="addr:street" v="율도로" /><tag k="addr:housenumber" v="62-1" /><tag k="addr:subdistrict" v="석남동" /><tag k="level" v="1" /></node><node id="-200040" action="modify" visible="true" lat="37.53398199" lon="126.6568157"><tag k="amenity" v="pharmacy" /><tag k="name" v="청라온누리약국" /><tag k="phone" v="+82 32 567 8212" /><tag k="source" v="공공데이터포털" /><tag k="source:date" v="2020-08-28" /><tag k="addr:street" v="청라에메랄드로102번길" /><tag k="addr:housenumber" v="8" /><tag k="addr:door" v="108" /></node><node id="-200041" action="modify" visible="true" lat="37.60227551" lon="126.6565186"><tag k="amenity" v="pharmacy" /><tag k="name" v="보성메디컬약국" /><tag k="phone" v="+82 32 567 0167" /><tag k="source" v="공공데이터포털" /><tag k="source:date" v="2020-08-28" /><tag k="addr:street" v="완정로" /><tag k="addr:housenumber" v="179" /><tag k="addr:door" v="102-103" /></node><node id="-200042" action="modify" visible="true" lat="37.53205115" lon="126.6502542"><tag k="amenity" v="pharmacy" /><tag k="name" v="청라중앙약국" /><tag k="phone" v="+82 32 569 5678" /><tag k="source" v="공공데이터포털" /><tag k="source:date" v="2020-08-28" /><tag k="addr:street" v="중봉대로" /><tag k="addr:housenumber" v="588" /><tag k="addr:door" v="104" /></node><node id="-200043" action="modify" visible="true" lat="37.5094653" lon="126.6703751"><tag k="amenity" v="pharmacy" /><tag k="name" v="삼육오사랑약국" /><tag k="phone" v="+82 32 575 6849" /><tag k="source" v="공공데이터포털" /><tag k="source:date" v="2020-08-28" /><tag k="addr:street" v="칠천왕로33번길" /><tag k="addr:housenumber" v="14" /><tag k="addr:subdistrict" v="석남동" /><tag k="level" v="1" /></node><node id="-200044" action="modify" visible="true" lat="37.61355929" lon="126.6856285"><tag k="amenity" v="pharmacy" /><tag k="name" v="열린솔약국" /><tag k="phone" v="+82 32 565 3135" /><tag k="source" v="공공데이터포털" /><tag k="source:date" v="2020-08-28" /><tag k="addr:street" v="검단로768번길" /><tag k="addr:housenumber" v="2" /><tag k="addr:door" v="105" /></node><node id="-200045" action="modify" visible="true" lat="37.49299212" lon="126.679001"><tag k="amenity" v="pharmacy" /><tag k="name" v="건지약국" /><tag k="phone" v="+82 32 571 7572" /><tag k="source" v="공공데이터포털" /><tag k="source:date" v="2020-08-28" /><tag k="addr:street" v="신진말로" /><tag k="addr:housenumber" v="30" /><tag k="level" v="1" /></node><node id="-200046" action="modify" visible="true" lat="37.54201278" lon="126.6826749"><tag k="amenity" v="pharmacy" /><tag k="name" v="성모사랑약국" /><tag k="phone" v="+82 32 565 2933" /><tag k="source" v="공공데이터포털" /><tag k="source:date" v="2020-08-28" /><tag k="addr:street" v="심곡로100번길" /><tag k="addr:housenumber" v="15" /><tag k="addr:subdistrict" v="심곡동" /></node><node id="-200047" action="modify" visible="true" lat="37.53214453" lon="126.6529114"><tag k="amenity" v="pharmacy" /><tag k="name" v="365열린약국" /><tag k="phone" v="+82 70 8837 7582" /><tag k="source" v="공공데이터포털" /><tag k="source:date" v="2020-08-28" /><tag k="addr:street" v="청라라임로" /><tag k="addr:housenumber" v="51" /><tag k="addr:door" v="105" /></node><node id="-200048" action="modify" visible="true" lat="37.52930697" lon="126.6656789"><tag k="amenity" v="pharmacy" /><tag k="name" v="명문약국" /><tag k="phone" v="+82 32 721 7220" /><tag k="source" v="공공데이터포털" /><tag k="source:date" v="2020-08-28" /><tag k="addr:street" v="봉오재3로" /><tag k="addr:housenumber" v="44" /><tag k="addr:door" v="101" /></node><node id="-200049" action="modify" visible="true" lat="37.61862742" lon="126.6908971"><tag k="amenity" v="pharmacy" /><tag k="name" v="조은나라약국" /><tag k="phone" v="+82 32 565 4090" /><tag k="source" v="공공데이터포털" /><tag k="source:date" v="2020-08-28" /><tag k="addr:street" v="검단로" /><tag k="addr:housenumber" v="842" /><tag k="addr:door" v="206" /></node><node id="-200050" action="modify" visible="true" lat="37.55886607" lon="126.6526799"><tag k="amenity" v="pharmacy" /><tag k="name" v="경서메디칼약국" /><tag k="phone" v="+82 32 562 4001" /><tag k="source" v="공공데이터포털" /><tag k="source:date" v="2020-08-28" /><tag k="addr:street" v="도요지로" /><tag k="addr:housenumber" v="22" /><tag k="addr:door" v="103" /></node><node id="-200051" action="modify" visible="true" lat="37.53256502" lon="126.6502789"><tag k="amenity" v="pharmacy" /><tag k="name" v="청라비젼약국" /><tag k="phone" v="+82 32 569 1057" /><tag k="source" v="공공데이터포털" /><tag k="source:date" v="2020-08-28" /><tag k="addr:street" v="중봉대로" /><tag k="addr:housenumber" v="594" /><tag k="addr:subdistrict" v="청라동" /></node><node id="-200052" action="modify" visible="true" lat="37.56518178" lon="126.6749553"><tag k="amenity" v="pharmacy" /><tag k="name" v="드림약국" /><tag k="phone" v="+82 70 7619 2828" /><tag k="source" v="공공데이터포털" /><tag k="source:date" v="2020-08-28" /><tag k="addr:street" v="승학로" /><tag k="addr:housenumber" v="498" /><tag k="addr:door" v="108" /></node><node id="-200053" action="modify" visible="true" lat="37.53341248" lon="126.6401035"><tag k="amenity" v="pharmacy" /><tag k="name" v="도담약국" /><tag k="phone" v="+82 32 564 4333" /><tag k="source" v="공공데이터포털" /><tag k="source:date" v="2020-08-28" /><tag k="addr:street" v="청라루비로" /><tag k="addr:housenumber" v="93" /><tag k="addr:door" v="105" /></node><node id="-200054" action="modify" visible="true" lat="37.60993801" lon="126.6704023"><tag k="amenity" v="pharmacy" /><tag k="name" v="메디안약국" /><tag k="phone" v="+82 32 567 2463" /><tag k="source" v="공공데이터포털" /><tag k="source:date" v="2020-08-28" /><tag k="addr:street" v="검단로623번길" /><tag k="addr:housenumber" v="4" /><tag k="addr:door" v="105" /></node><node id="-200055" action="modify" visible="true" lat="37.5923812" lon="126.6707483"><tag k="amenity" v="pharmacy" /><tag k="name" v="사랑탑약국" /><tag k="phone" v="+82 32 569 7117" /><tag k="source" v="공공데이터포털" /><tag k="source:date" v="2020-08-28" /><tag k="addr:street" v="청마로19번길" /><tag k="addr:housenumber" v="3" /><tag k="level" v="1" /></node><node id="-200056" action="modify" visible="true" lat="37.59659357" lon="126.6402804"><tag k="amenity" v="pharmacy" /><tag k="name" v="열린온누리약국" /><tag k="phone" v="+82 70 8828 9179" /><tag k="source" v="공공데이터포털" /><tag k="source:date" v="2020-08-28" /><tag k="addr:street" v="단봉로" /><tag k="addr:housenumber" v="97-7" /><tag k="addr:subdistrict" v="오류동" /><tag k="addr:door" v="108" /></node><node id="-200057" action="modify" visible="true" lat="37.52946925" lon="126.6656873"><tag k="amenity" v="pharmacy" /><tag k="name" v="가정미소약국" /><tag k="phone" v="+82 32 567 3012" /><tag k="source" v="공공데이터포털" /><tag k="source:date" v="2020-08-28" /><tag k="addr:street" v="봉오재3로" /><tag k="addr:housenumber" v="42" /><tag k="addr:subdistrict" v="가정동" /><tag k="addr:door" v="102" /></node><node id="-200058" action="modify" visible="true" lat="37.52970839" lon="126.665321"><tag k="amenity" v="pharmacy" /><tag k="name" v="가정온누리약국" /><tag k="phone" v="+82 32 566 7809" /><tag k="source" v="공공데이터포털" /><tag k="source:date" v="2020-08-28" /><tag k="addr:street" v="청중로" /><tag k="addr:housenumber" v="486" /><tag k="addr:door" v="105" /></node><node id="-200059" action="modify" visible="true" lat="37.53338225" lon="126.6516219"><tag k="amenity" v="pharmacy" /><tag k="name" v="청라바다약국" /><tag k="phone" v="+82 32 568 3258" /><tag k="source" v="공공데이터포털" /><tag k="source:date" v="2020-08-28" /><tag k="addr:street" v="중봉대로612번길" /><tag k="addr:housenumber" v="10-16" /><tag k="addr:door" v="105-106" /></node><node id="-200060" action="modify" visible="true" lat="37.49745413" lon="126.6719336"><tag k="amenity" v="pharmacy" /><tag k="name" v="정온누리약국" /><tag k="phone" v="+82 32 577 7606" /><tag k="source" v="공공데이터포털" /><tag k="source:date" v="2020-08-28" /><tag k="addr:street" v="가정로" /><tag k="addr:housenumber" v="142-1" /><tag k="level" v="1" /></node><node id="-200061" action="modify" visible="true" lat="37.50971766" lon="126.6703819"><tag k="amenity" v="pharmacy" /><tag k="name" v="성민대학약국" /><tag k="phone" v="+82 32 571 2812" /><tag k="source" v="공공데이터포털" /><tag k="source:date" v="2020-08-28" /><tag k="addr:street" v="길주로75번길" /><tag k="addr:housenumber" v="35" /><tag k="addr:subdistrict" v="석남동" /><tag k="level" v="1" /></node><node id="-200062" action="modify" visible="true" lat="37.50947696" lon="126.6698093"><tag k="amenity" v="pharmacy" /><tag k="name" v="플러스약국" /><tag k="phone" v="+82 32 575 9917" /><tag k="source" v="공공데이터포털" /><tag k="source:date" v="2020-08-28" /><tag k="addr:street" v="칠천왕로33번길" /><tag k="addr:housenumber" v="18" /><tag k="addr:subdistrict" v="석남동" /><tag k="level" v="1" /></node><node id="-200063" action="modify" visible="true" lat="37.53205115" lon="126.6502542"><tag k="amenity" v="pharmacy" /><tag k="name" v="건강약국" /><tag k="phone" v="+82 32 569 7718" /><tag k="source" v="공공데이터포털" /><tag k="source:date" v="2020-08-28" /><tag k="addr:street" v="중봉대로" /><tag k="addr:housenumber" v="588" /><tag k="addr:door" v="503" /></node><node id="-200064" action="modify" visible="true" lat="37.5421626" lon="126.6783384"><tag k="amenity" v="pharmacy" /><tag k="name" v="한마음한약국" /><tag k="phone" v="+82 32 501 1145" /><tag k="source" v="공공데이터포털" /><tag k="source:date" v="2020-08-28" /><tag k="addr:street" v="심곡로" /><tag k="addr:housenumber" v="79" /><tag k="level" v="3" /></node><node id="-200065" action="modify" visible="true" lat="37.51279252" lon="126.6786298"><tag k="amenity" v="pharmacy" /><tag k="name" v="우리약국" /><tag k="phone" v="+82 32 579 8150" /><tag k="source" v="공공데이터포털" /><tag k="source:date" v="2020-08-28" /><tag k="addr:street" v="서달로" /><tag k="addr:housenumber" v="159" /><tag k="addr:subdistrict" v="석남동" /><tag k="addr:door" v="102" /></node><node id="-200066" action="modify" visible="true" lat="37.55057562" lon="126.6740933"><tag k="amenity" v="pharmacy" /><tag k="name" v="연희연세약국" /><tag k="phone" v="+82 32 566 9380" /><tag k="source" v="공공데이터포털" /><tag k="source:date" v="2020-08-28" /><tag k="addr:street" v="서곶로369번길" /><tag k="addr:housenumber" v="24" /><tag k="addr:subdistrict" v="연희동" /><tag k="level" v="1" /></node><node id="-200067" action="modify" visible="true" lat="37.53371902" lon="126.6401206"><tag k="amenity" v="pharmacy" /><tag k="name" v="마음편한약국" /><tag k="phone" v="+82 32 561 0524" /><tag k="source" v="공공데이터포털" /><tag k="source:date" v="2020-08-28" /><tag k="addr:street" v="청라루비로" /><tag k="addr:housenumber" v="95" /><tag k="addr:door" v="108" /></node><node id="-200068" action="modify" visible="true" lat="37.60192471" lon="126.6565702"><tag k="amenity" v="pharmacy" /><tag k="name" v="검단미래안약국" /><tag k="phone" v="+82 32 566 9037" /><tag k="source" v="공공데이터포털" /><tag k="source:date" v="2020-08-28" /><tag k="addr:street" v="검단로" /><tag k="addr:housenumber" v="469" /><tag k="addr:subdistrict" v="왕길동" /><tag k="addr:door" v="101" /></node><node id="-200069" action="modify" visible="true" lat="37.60282476" lon="126.656486"><tag k="amenity" v="pharmacy" /><tag k="name" v="착한약국" /><tag k="phone" v="+82 32 563 7803" /><tag k="source" v="공공데이터포털" /><tag k="source:date" v="2020-08-28" /><tag k="addr:street" v="완정로" /><tag k="addr:housenumber" v="180" /><tag k="level" v="1" /></node><node id="-200070" action="modify" visible="true" lat="37.54212114" lon="126.6826957"><tag k="amenity" v="pharmacy" /><tag k="name" v="토마토약국" /><tag k="phone" v="+82 32 567 5860" /><tag k="source" v="공공데이터포털" /><tag k="source:date" v="2020-08-28" /><tag k="addr:street" v="심곡로100번길" /><tag k="addr:housenumber" v="17-3" /><tag k="addr:subdistrict" v="심곡동" /></node><node id="-200071" action="modify" visible="true" lat="37.59237916" lon="126.6705672"><tag k="amenity" v="pharmacy" /><tag k="name" v="미소탑약국" /><tag k="phone" v="+82 32 566 0182" /><tag k="source" v="공공데이터포털" /><tag k="source:date" v="2020-08-28" /><tag k="addr:street" v="청마로" /><tag k="addr:housenumber" v="17" /><tag k="addr:door" v="104-105" /></node><node id="-200072" action="modify" visible="true" lat="37.55035498" lon="126.6737011"><tag k="amenity" v="pharmacy" /><tag k="name" v="연세온누리약국" /><tag k="phone" v="+82 32 561 2212" /><tag k="source" v="공공데이터포털" /><tag k="source:date" v="2020-08-28" /><tag k="addr:street" v="승학로" /><tag k="addr:housenumber" v="321" /><tag k="addr:subdistrict" v="연희동" /><tag k="level" v="1" /></node><node id="-200073" action="modify" visible="true" lat="37.53400038" lon="126.6528893"><tag k="amenity" v="pharmacy" /><tag k="name" v="대명약국" /><tag k="phone" v="+82 32 569 5213" /><tag k="source" v="공공데이터포털" /><tag k="source:date" v="2020-08-28" /><tag k="addr:street" v="청라라임로" /><tag k="addr:housenumber" v="71" /><tag k="addr:door" v="111" /></node><node id="-200074" action="modify" visible="true" lat="37.60164249" lon="126.6571075"><tag k="amenity" v="pharmacy" /><tag k="name" v="산들약국" /><tag k="phone" v="+82 32 564 9133" /><tag k="source" v="공공데이터포털" /><tag k="source:date" v="2020-08-28" /><tag k="addr:street" v="검단로" /><tag k="addr:housenumber" v="474" /><tag k="addr:door" v="102" /></node><node id="-200075" action="modify" visible="true" lat="37.53207737" lon="126.6368353"><tag k="amenity" v="pharmacy" /><tag k="name" v="호수약국" /><tag k="phone" v="+82 32 567 6756" /><tag k="source" v="공공데이터포털" /><tag k="source:date" v="2020-08-28" /><tag k="addr:street" v="크리스탈로" /><tag k="addr:housenumber" v="78" /><tag k="addr:door" v="105" /></node><node id="-200076" action="modify" visible="true" lat="37.54935999" lon="126.6757671"><tag k="amenity" v="pharmacy" /><tag k="name" v="백제당약국" /><tag k="phone" v="+82 32 562 3049" /><tag k="source" v="공공데이터포털" /><tag k="source:date" v="2020-08-28" /><tag k="addr:street" v="연희로" /><tag k="addr:housenumber" v="12" /><tag k="addr:subdistrict" v="연희동" /><tag k="level" v="1" /></node><node id="-200077" action="modify" visible="true" lat="37.53666906" lon="126.6569939"><tag k="amenity" v="pharmacy" /><tag k="name" v="포도나무약국" /><tag k="phone" v="+82 70 4187 3625" /><tag k="source" v="공공데이터포털" /><tag k="source:date" v="2020-08-28" /><tag k="addr:street" v="청라에메랄드로" /><tag k="addr:housenumber" v="134" /><tag k="addr:door" v="104-1" /></node><node id="-200078" action="modify" visible="true" lat="37.59069418" lon="126.6729636"><tag k="amenity" v="pharmacy" /><tag k="name" v="함께약국" /><tag k="phone" v="+82 32 567 3828" /><tag k="source" v="공공데이터포털" /><tag k="source:date" v="2020-08-28" /><tag k="addr:street" v="서곶로" /><tag k="addr:housenumber" v="823" /><tag k="addr:subdistrict" v="당하동" /><tag k="level" v="1" /></node><node id="-200079" action="modify" visible="true" lat="37.54415555" lon="126.6736638"><tag k="amenity" v="pharmacy" /><tag k="name" v="복지온누리약국" /><tag k="phone" v="+82 32 568 5538" /><tag k="source" v="공공데이터포털" /><tag k="source:date" v="2020-08-28" /><tag k="addr:street" v="탁옥로" /><tag k="addr:housenumber" v="37" /><tag k="level" v="1" /><tag k="addr:door" v="107" /></node><node id="-200080" action="modify" visible="true" lat="37.54357481" lon="126.6765143"><tag k="amenity" v="pharmacy" /><tag k="name" v="녹십자약국" /><tag k="phone" v="+82 32 566 8600" /><tag k="source" v="공공데이터포털" /><tag k="source:date" v="2020-08-28" /><tag k="addr:street" v="서곶로" /><tag k="addr:housenumber" v="293" /><tag k="addr:subdistrict" v="심곡동" /><tag k="level" v="1" /></node><node id="-200081" action="modify" visible="true" lat="37.59323055" lon="126.6976601"><tag k="amenity" v="pharmacy" /><tag k="name" v="원당연세약국" /><tag k="phone" v="+82 32 569 2773" /><tag k="source" v="공공데이터포털" /><tag k="source:date" v="2020-08-28" /><tag k="addr:street" v="원당대로" /><tag k="addr:housenumber" v="866" /><tag k="addr:door" v="201" /></node><node id="-200082" action="modify" visible="true" lat="37.54485736" lon="126.6816291"><tag k="amenity" v="pharmacy" /><tag k="name" v="제일약국" /><tag k="phone" v="+82 32 564 8421" /><tag k="source" v="공공데이터포털" /><tag k="source:date" v="2020-08-28" /><tag k="addr:street" v="심곡로" /><tag k="addr:housenumber" v="133" /><tag k="addr:door" v="111" /></node><node id="-200083" action="modify" visible="true" lat="37.50668159" lon="126.6720192"><tag k="amenity" v="pharmacy" /><tag k="name" v="시온약국" /><tag k="phone" v="+82 32 572 8279" /><tag k="source" v="공공데이터포털" /><tag k="source:date" v="2020-08-28" /><tag k="addr:street" v="길주로" /><tag k="addr:housenumber" v="91" /><tag k="addr:subdistrict" v="석남동" /></node><node id="-200084" action="modify" visible="true" lat="37.54229205" lon="126.68267"><tag k="amenity" v="pharmacy" /><tag k="name" v="크린팜대학약국" /><tag k="phone" v="+82 32 567 8874" /><tag k="source" v="공공데이터포털" /><tag k="source:date" v="2020-08-28" /><tag k="addr:street" v="심곡로100번길" /><tag k="addr:housenumber" v="17-5" /><tag k="addr:subdistrict" v="심곡동" /><tag k="level" v="1" /></node><node id="-200085" action="modify" visible="true" lat="37.49694872" lon="126.6831382"><tag k="amenity" v="pharmacy" /><tag k="name" v="에버그린약국" /><tag k="phone" v="+82 32 582 7799" /><tag k="source" v="공공데이터포털" /><tag k="source:date" v="2020-08-28" /><tag k="addr:street" v="건지로" /><tag k="addr:housenumber" v="371" /><tag k="addr:subdistrict" v="가좌동" /><tag k="level" v="1" /><tag k="addr:door" v="1" /></node><node id="-200086" action="modify" visible="true" lat="37.52563936" lon="126.6309678"><tag k="amenity" v="pharmacy" /><tag k="name" v="용한약국" /><tag k="phone" v="+82 32 561 0501" /><tag k="source" v="공공데이터포털" /><tag k="source:date" v="2020-08-28" /><tag k="addr:street" v="옥빛로" /><tag k="addr:housenumber" v="4" /><tag k="addr:subdistrict" v="경서동" /><tag k="addr:door" v="103,4" /></node><node id="-200087" action="modify" visible="true" lat="37.56670028" lon="126.6826369"><tag k="amenity" v="pharmacy" /><tag k="name" v="동안약국" /><tag k="phone" v="+82 70 7768 6776" /><tag k="source" v="공공데이터포털" /><tag k="source:date" v="2020-08-28" /><tag k="addr:street" v="승학로" /><tag k="addr:housenumber" v="567" /><tag k="addr:subdistrict" v="검암동" /><tag k="addr:door" v="101" /></node><node id="-200088" action="modify" visible="true" lat="37.61358187" lon="126.6603702"><tag k="amenity" v="pharmacy" /><tag k="name" v="참조은약국" /><tag k="phone" v="+82 32 438 8866" /><tag k="source" v="공공데이터포털" /><tag k="source:date" v="2020-08-28" /><tag k="addr:street" v="마전로5번길" /><tag k="addr:housenumber" v="22-1" /><tag k="addr:subdistrict" v="마전동" /><tag k="addr:door" v="101" /></node><node id="-200089" action="modify" visible="true" lat="37.60274932" lon="126.6546075"><tag k="amenity" v="pharmacy" /><tag k="name" v="검단제일약국" /><tag k="phone" v="+82 32 564 1588" /><tag k="source" v="공공데이터포털" /><tag k="source:date" v="2020-08-28" /><tag k="addr:street" v="완정로" /><tag k="addr:housenumber" v="197" /><tag k="addr:subdistrict" v="왕길동" /><tag k="addr:door" v="103104" /></node><node id="-200090" action="modify" visible="true" lat="37.53336714" lon="126.6502984"><tag k="amenity" v="pharmacy" /><tag k="name" v="청라미래약국" /><tag k="phone" v="+82 32 715 6038" /><tag k="source" v="공공데이터포털" /><tag k="source:date" v="2020-08-28" /><tag k="addr:street" v="중봉대로" /><tag k="addr:housenumber" v="602" /><tag k="addr:subdistrict" v="청라동" /><tag k="level" v="1" /></node><node id="-200091" action="modify" visible="true" lat="37.51848254" lon="126.6726021"><tag k="amenity" v="pharmacy" /><tag k="name" v="비타민약국" /><tag k="phone" v="+82 32 575 8899" /><tag k="source" v="공공데이터포털" /><tag k="source:date" v="2020-08-28" /><tag k="addr:street" v="가정로" /><tag k="addr:housenumber" v="375" /><tag k="addr:door" v="310-311" /></node><node id="-200092" action="modify" visible="true" lat="37.51738973" lon="126.6731757"><tag k="amenity" v="pharmacy" /><tag k="name" v="굿모닝약국" /><tag k="phone" v="+82 32 579 7571" /><tag k="source" v="공공데이터포털" /><tag k="source:date" v="2020-08-28" /><tag k="addr:street" v="가정로" /><tag k="addr:housenumber" v="364-1" /><tag k="addr:subdistrict" v="가정동" /></node><node id="-200093" action="modify" visible="true" lat="37.5968799" lon="126.6993178"><tag k="amenity" v="pharmacy" /><tag k="name" v="경희기경한약국" /><tag k="phone" v="+82 32 561 1887" /><tag k="source" v="공공데이터포털" /><tag k="source:date" v="2020-08-28" /><tag k="addr:street" v="고산후로" /><tag k="addr:housenumber" v="148" /><tag k="addr:subdistrict" v="원당동" /><tag k="level" v="1" /></node><node id="-200094" action="modify" visible="true" lat="37.51091113" lon="126.6723515"><tag k="amenity" v="pharmacy" /><tag k="name" v="석남우리약국" /><tag k="phone" v="+82 32 575 6006" /><tag k="source" v="공공데이터포털" /><tag k="source:date" v="2020-08-28" /><tag k="addr:street" v="가정로" /><tag k="addr:housenumber" v="291" /><tag k="addr:subdistrict" v="석남동" /></node><node id="-200095" action="modify" visible="true" lat="37.51723621" lon="126.6731445"><tag k="amenity" v="pharmacy" /><tag k="name" v="열린약국" /><tag k="phone" v="+82 32 579 4242" /><tag k="source" v="공공데이터포털" /><tag k="source:date" v="2020-08-28" /><tag k="addr:street" v="가정로" /><tag k="addr:housenumber" v="364" /><tag k="addr:subdistrict" v="가정동" /><tag k="level" v="1" /></node><node id="-200096" action="modify" visible="true" lat="37.50382375" lon="126.6718775"><tag k="amenity" v="pharmacy" /><tag k="name" v="행복한약국" /><tag k="phone" v="+82 32 576 5100" /><tag k="source" v="공공데이터포털" /><tag k="source:date" v="2020-08-28" /><tag k="addr:street" v="가정로" /><tag k="addr:housenumber" v="213" /><tag k="addr:subdistrict" v="석남동" /></node><node id="-200097" action="modify" visible="true" lat="37.59265303" lon="126.6967643"><tag k="amenity" v="pharmacy" /><tag k="name" v="미약국" /><tag k="phone" v="+82 32 568 8998" /><tag k="source" v="공공데이터포털" /><tag k="source:date" v="2020-08-28" /><tag k="addr:street" v="고산후로95번길" /><tag k="addr:housenumber" v="20" /><tag k="addr:door" v="108-109" /></node><node id="-200098" action="modify" visible="true" lat="37.48974089" lon="126.6799402"><tag k="amenity" v="pharmacy" /><tag k="name" v="한샘약국" /><tag k="phone" v="+82 32 583 1536" /><tag k="source" v="공공데이터포털" /><tag k="source:date" v="2020-08-28" /><tag k="addr:street" v="원적로" /><tag k="addr:housenumber" v="29" /><tag k="addr:subdistrict" v="나동" /><tag k="addr:door" v="4" /></node><node id="-200099" action="modify" visible="true" lat="37.50987002" lon="126.6695083"><tag k="amenity" v="pharmacy" /><tag k="name" v="성민메디칼약국" /><tag k="phone" v="+82 32 577 6245" /><tag k="source" v="공공데이터포털" /><tag k="source:date" v="2020-08-28" /><tag k="addr:street" v="신석로" /><tag k="addr:housenumber" v="68" /><tag k="addr:subdistrict" v="석남동" /></node><node id="-200100" action="modify" visible="true" lat="37.5334429" lon="126.6529899"><tag k="amenity" v="pharmacy" /><tag k="name" v="청라유명약국" /><tag k="phone" v="+82 32 563 0605" /><tag k="source" v="공공데이터포털" /><tag k="source:date" v="2020-08-28" /><tag k="addr:street" v="청라라임로" /><tag k="addr:housenumber" v="65" /><tag k="addr:door" v="108" /></node><node id="-200101" action="modify" visible="true" lat="37.59208742" lon="126.6726672"><tag k="amenity" v="pharmacy" /><tag k="name" v="검단튼튼약국" /><tag k="phone" v="+82 32 569 7535" /><tag k="source" v="공공데이터포털" /><tag k="source:date" v="2020-08-28" /><tag k="addr:street" v="청마로19번길" /><tag k="addr:housenumber" v="20" /><tag k="addr:subdistrict" v="당하동" /><tag k="addr:door" v="103" /></node><node id="-200102" action="modify" visible="true" lat="37.53030251" lon="126.6478306"><tag k="amenity" v="pharmacy" /><tag k="name" v="마트약국" /><tag k="phone" v="+82 70 4120 1403" /><tag k="source" v="공공데이터포털" /><tag k="source:date" v="2020-08-28" /><tag k="addr:street" v="청라커낼로" /><tag k="addr:housenumber" v="252" /><tag k="addr:unit" v="A" /><tag k="addr:door" v="140" /></node><node id="-200103" action="modify" visible="true" lat="37.59328607" lon="126.6742991"><tag k="amenity" v="pharmacy" /><tag k="name" v="프라자약국" /><tag k="phone" v="+82 32 565 8106" /><tag k="source" v="공공데이터포털" /><tag k="source:date" v="2020-08-28" /><tag k="addr:street" v="원당대로" /><tag k="addr:housenumber" v="660" /><tag k="addr:subdistrict" v="당하동" /><tag k="addr:door" v="101-1" /></node><node id="-200104" action="modify" visible="true" lat="37.53237628" lon="126.6487436"><tag k="amenity" v="pharmacy" /><tag k="name" v="이도약국" /><tag k="phone" v="+82 32 562 8050" /><tag k="source" v="공공데이터포털" /><tag k="source:date" v="2020-08-28" /><tag k="addr:street" v="중봉대로" /><tag k="addr:housenumber" v="587" /><tag k="level" v="-2" /></node><node id="-200105" action="modify" visible="true" lat="37.53205115" lon="126.6502542"><tag k="amenity" v="pharmacy" /><tag k="name" v="봄약국" /><tag k="phone" v="+82 32 565 3419" /><tag k="source" v="공공데이터포털" /><tag k="source:date" v="2020-08-28" /><tag k="addr:street" v="중봉대로" /><tag k="addr:housenumber" v="588" /><tag k="addr:door" v="302-1" /></node><node id="-200106" action="modify" visible="true" lat="37.52530117" lon="126.6297748"><tag k="amenity" v="pharmacy" /><tag k="name" v="태평양약국" /><tag k="phone" v="+82 32 564 8070" /><tag k="source" v="공공데이터포털" /><tag k="source:date" v="2020-08-28" /><tag k="addr:street" v="푸른로" /><tag k="addr:housenumber" v="3" /><tag k="addr:subdistrict" v="경서동" /><tag k="addr:door" v="104" /></node><node id="-200107" action="modify" visible="true" lat="37.51887016" lon="126.673421"><tag k="amenity" v="pharmacy" /><tag k="name" v="한솔약국" /><tag k="phone" v="+82 32 572 7633" /><tag k="source" v="공공데이터포털" /><tag k="source:date" v="2020-08-28" /><tag k="addr:street" v="가정로" /><tag k="addr:housenumber" v="382" /></node><node id="-200108" action="modify" visible="true" lat="37.60247456" lon="126.6542161"><tag k="amenity" v="pharmacy" /><tag k="name" v="누리약국" /><tag k="phone" v="+82 32 567 0344" /><tag k="source" v="공공데이터포털" /><tag k="source:date" v="2020-08-28" /><tag k="addr:street" v="검단로445번길" /><tag k="addr:housenumber" v="18" /><tag k="addr:door" v="107-1" /></node><node id="-200109" action="modify" visible="true" lat="37.60262669" lon="126.6596718"><tag k="amenity" v="pharmacy" /><tag k="name" v="사랑온누리약국" /><tag k="phone" v="+82 32 568 5706" /><tag k="source" v="공공데이터포털" /><tag k="source:date" v="2020-08-28" /><tag k="addr:street" v="검단로" /><tag k="addr:housenumber" v="500" /></node><node id="-200110" action="modify" visible="true" lat="37.50329226" lon="126.6726899"><tag k="amenity" v="pharmacy" /><tag k="name" v="거북시장약국" /><tag k="phone" v="+82 32 575 6881" /><tag k="source" v="공공데이터포털" /><tag k="source:date" v="2020-08-28" /><tag k="addr:street" v="거북로" /><tag k="addr:housenumber" v="97" /><tag k="addr:subdistrict" v="석남동" /></node><node id="-200111" action="modify" visible="true" lat="37.5203917" lon="126.6733149"><tag k="amenity" v="pharmacy" /><tag k="name" v="정다운온누리약국" /><tag k="phone" v="+82 32 584 9348" /><tag k="source" v="공공데이터포털" /><tag k="source:date" v="2020-08-28" /><tag k="addr:street" v="가정로" /><tag k="addr:housenumber" v="398" /><tag k="addr:door" v="105" /></node><node id="-200112" action="modify" visible="true" lat="37.59738865" lon="126.6396884"><tag k="amenity" v="pharmacy" /><tag k="name" v="하나약국" /><tag k="phone" v="+82 32 563 1558" /><tag k="source" v="공공데이터포털" /><tag k="source:date" v="2020-08-28" /><tag k="addr:street" v="단봉로" /><tag k="addr:housenumber" v="107" /><tag k="addr:door" v="104" /></node><node id="-200113" action="modify" visible="true" lat="37.59594378" lon="126.6702661"><tag k="amenity" v="pharmacy" /><tag k="name" v="한성메디칼약국" /><tag k="phone" v="+82 32 567 5345" /><tag k="source" v="공공데이터포털" /><tag k="source:date" v="2020-08-28" /><tag k="addr:street" v="완정로" /><tag k="addr:housenumber" v="36" /><tag k="level" v="1" /></node><node id="-200114" action="modify" visible="true" lat="37.60449244" lon="126.6589363"><tag k="amenity" v="pharmacy" /><tag k="name" v="단오약국" /><tag k="phone" v="+82 32 563 3245" /><tag k="source" v="공공데이터포털" /><tag k="source:date" v="2020-08-28" /><tag k="addr:street" v="완정로178번길" /><tag k="addr:housenumber" v="31" /></node><node id="-200115" action="modify" visible="true" lat="37.56548679" lon="126.6740331"><tag k="amenity" v="pharmacy" /><tag k="name" v="늘건강온누리약국" /><tag k="phone" v="+82 32 569 2306" /><tag k="source" v="공공데이터포털" /><tag k="source:date" v="2020-08-28" /><tag k="addr:street" v="승학로" /><tag k="addr:housenumber" v="491" /><tag k="addr:subdistrict" v="검암동" /><tag k="addr:door" v="105" /></node><node id="-200116" action="modify" visible="true" lat="37.54348661" lon="126.680714"><tag k="amenity" v="pharmacy" /><tag k="name" v="원광한약국" /><tag k="phone" v="+82 32 564 7757" /><tag k="source" v="공공데이터포털" /><tag k="source:date" v="2020-08-28" /><tag k="addr:street" v="탁옥로98번길" /><tag k="addr:housenumber" v="1" /><tag k="addr:subdistrict" v="심곡동" /><tag k="addr:door" v="106" /></node><node id="-200117" action="modify" visible="true" lat="37.5029314" lon="126.671848"><tag k="amenity" v="pharmacy" /><tag k="name" v="정성약국" /><tag k="phone" v="+82 32 579 0075" /><tag k="source" v="공공데이터포털" /><tag k="source:date" v="2020-08-28" /><tag k="addr:street" v="가정로" /><tag k="addr:housenumber" v="201-1" /><tag k="level" v="1" /></node><node id="-200118" action="modify" visible="true" lat="37.50296732" lon="126.6726391"><tag k="amenity" v="pharmacy" /><tag k="name" v="조은약국" /><tag k="phone" v="+82 32 576 7530" /><tag k="source" v="공공데이터포털" /><tag k="source:date" v="2020-08-28" /><tag k="addr:street" v="거북로" /><tag k="addr:housenumber" v="98" /><tag k="addr:subdistrict" v="석남동" /></node><node id="-200119" action="modify" visible="true" lat="37.59394436" lon="126.6970249"><tag k="amenity" v="pharmacy" /><tag k="name" v="원당우리약국" /><tag k="phone" v="+82 32 568 1591" /><tag k="source" v="공공데이터포털" /><tag k="source:date" v="2020-08-28" /><tag k="addr:street" v="원당대로" /><tag k="addr:housenumber" v="859" /><tag k="addr:door" v="107" /></node><node id="-200120" action="modify" visible="true" lat="37.61326655" lon="126.6860414"><tag k="amenity" v="pharmacy" /><tag k="name" v="성심약국" /><tag k="phone" v="+82 32 564 5389" /><tag k="source" v="공공데이터포털" /><tag k="source:date" v="2020-08-28" /><tag k="addr:street" v="검단로768번1길" /><tag k="addr:housenumber" v="4" /><tag k="level" v="1" /></node><node id="-200121" action="modify" visible="true" lat="37.59237108" lon="126.6714506"><tag k="amenity" v="pharmacy" /><tag k="name" v="메디탑약국" /><tag k="phone" v="+82 32 564 6924" /><tag k="source" v="공공데이터포털" /><tag k="source:date" v="2020-08-28" /><tag k="addr:street" v="청마로19번길" /><tag k="addr:housenumber" v="9" /><tag k="addr:subdistrict" v="당하동" /><tag k="addr:door" v="101" /></node><node id="-200122" action="modify" visible="true" lat="37.59452805" lon="126.6645729"><tag k="amenity" v="pharmacy" /><tag k="name" v="즐거운약국" /><tag k="phone" v="+82 32 574 1651" /><tag k="source" v="공공데이터포털" /><tag k="source:date" v="2020-08-28" /><tag k="addr:street" v="원당대로" /><tag k="addr:housenumber" v="581" /></node><node id="-200123" action="modify" visible="true" lat="37.51240742" lon="126.6724042"><tag k="amenity" v="pharmacy" /><tag k="name" v="하나온누리약국" /><tag k="phone" v="+82 32 571 6956" /><tag k="source" v="공공데이터포털" /><tag k="source:date" v="2020-08-28" /><tag k="addr:street" v="가정로" /><tag k="addr:housenumber" v="309" /><tag k="addr:subdistrict" v="석남동" /><tag k="level" v="1" /></node><node id="-200124" action="modify" visible="true" lat="37.54215808" lon="126.6723073"><tag k="amenity" v="pharmacy" /><tag k="name" v="연희우리약국" /><tag k="phone" v="+82 32 566 4258" /><tag k="source" v="공공데이터포털" /><tag k="source:date" v="2020-08-28" /><tag k="addr:street" v="심곡로" /><tag k="addr:housenumber" v="24" /><tag k="addr:subdistrict" v="심곡동" /></node><node id="-200125" action="modify" visible="true" lat="37.51848254" lon="126.6726021"><tag k="amenity" v="pharmacy" /><tag k="name" v="오렌지약국" /><tag k="phone" v="+82 32 563 2474" /><tag k="source" v="공공데이터포털" /><tag k="source:date" v="2020-08-28" /><tag k="addr:street" v="가정로" /><tag k="addr:housenumber" v="375" /><tag k="addr:door" v="104" /></node><node id="-200126" action="modify" visible="true" lat="37.4933967" lon="126.6845801"><tag k="amenity" v="pharmacy" /><tag k="name" v="가좌메디칼약국" /><tag k="phone" v="+82 32 579 8653" /><tag k="source" v="공공데이터포털" /><tag k="source:date" v="2020-08-28" /><tag k="addr:street" v="원적로96번길" /><tag k="addr:housenumber" v="26" /><tag k="addr:subdistrict" v="가좌동" /></node><node id="-200127" action="modify" visible="true" lat="37.58547445" lon="126.6767246"><tag k="amenity" v="pharmacy" /><tag k="name" v="검단마트약국" /><tag k="phone" v="+82 32 564 7588" /><tag k="source" v="공공데이터포털" /><tag k="source:date" v="2020-08-28" /><tag k="addr:street" v="서곶로" /><tag k="addr:housenumber" v="754" /><tag k="addr:subdistrict" v="당하동" /></node><node id="-200128" action="modify" visible="true" lat="37.54409414" lon="126.6746154"><tag k="amenity" v="pharmacy" /><tag k="name" v="그린약국" /><tag k="phone" v="+82 32 569 4037" /><tag k="source" v="공공데이터포털" /><tag k="source:date" v="2020-08-28" /><tag k="addr:street" v="탁옥로" /><tag k="addr:housenumber" v="45" /><tag k="addr:subdistrict" v="심곡동" /></node><node id="-200129" action="modify" visible="true" lat="37.50955216" lon="126.6781213"><tag k="amenity" v="pharmacy" /><tag k="name" v="메디팜약수약국" /><tag k="phone" v="+82 32 574 6815" /><tag k="source" v="공공데이터포털" /><tag k="source:date" v="2020-08-28" /><tag k="addr:street" v="서달로123번길" /><tag k="addr:housenumber" v="3" /><tag k="addr:subdistrict" v="석남동" /></node><node id="-200130" action="modify" visible="true" lat="37.60254472" lon="126.6556304"><tag k="amenity" v="pharmacy" /><tag k="name" v="마전메디칼약국" /><tag k="phone" v="+82 32 561 0396" /><tag k="source" v="공공데이터포털" /><tag k="source:date" v="2020-08-28" /><tag k="addr:street" v="완정로" /><tag k="addr:housenumber" v="187" /><tag k="addr:subdistrict" v="왕길동" /></node><node id="-200131" action="modify" visible="true" lat="37.51751879" lon="126.6686261"><tag k="amenity" v="pharmacy" /><tag k="name" v="성모약국" /><tag k="phone" v="+82 32 583 6083" /><tag k="source" v="공공데이터포털" /><tag k="source:date" v="2020-08-28" /><tag k="addr:street" v="원창로" /><tag k="addr:housenumber" v="174" /><tag k="addr:subdistrict" v="신현동" /><tag k="addr:door" v="102103" /></node><node id="-200132" action="modify" visible="true" lat="37.49456871" lon="126.6814046"><tag k="amenity" v="pharmacy" /><tag k="name" v="동아메디칼약국" /><tag k="phone" v="+82 32 579 5793" /><tag k="source" v="공공데이터포털" /><tag k="source:date" v="2020-08-28" /><tag k="addr:street" v="원적로" /><tag k="addr:housenumber" v="85" /><tag k="addr:subdistrict" v="가좌동" /></node><node id="-200133" action="modify" visible="true" lat="37.60180142" lon="126.6576142"><tag k="amenity" v="pharmacy" /><tag k="name" v="백제약국" /><tag k="phone" v="+82 32 569 7582" /><tag k="source" v="공공데이터포털" /><tag k="source:date" v="2020-08-28" /><tag k="addr:street" v="검단로" /><tag k="addr:housenumber" v="480" /></node><node id="-200134" action="modify" visible="true" lat="37.50321473" lon="126.6746139"><tag k="amenity" v="pharmacy" /><tag k="name" v="온누리이화약국" /><tag k="phone" v="+82 32 571 2569" /><tag k="source" v="공공데이터포털" /><tag k="source:date" v="2020-08-28" /><tag k="addr:street" v="거북로" /><tag k="addr:housenumber" v="115" /><tag k="addr:subdistrict" v="석남동" /></node><node id="-200135" action="modify" visible="true" lat="37.59254753" lon="126.6759314"><tag k="amenity" v="pharmacy" /><tag k="name" v="당하백화점약국" /><tag k="phone" v="+82 32 564 8218" /><tag k="source" v="공공데이터포털" /><tag k="source:date" v="2020-08-28" /><tag k="addr:street" v="청마로167번길" /><tag k="addr:housenumber" v="8" /><tag k="addr:door" v="106" /></node><node id="-200136" action="modify" visible="true" lat="37.61842629" lon="126.6930754"><tag k="amenity" v="pharmacy" /><tag k="name" v="서울약국" /><tag k="phone" v="+82 32 564 0030" /><tag k="source" v="공공데이터포털" /><tag k="source:date" v="2020-08-28" /><tag k="addr:street" v="검단로" /><tag k="addr:housenumber" v="836" /><tag k="addr:door" v="217" /></node><node id="-200137" action="modify" visible="true" lat="37.5494521" lon="126.67675"><tag k="amenity" v="pharmacy" /><tag k="name" v="새연희약국" /><tag k="phone" v="+82 32 567 3186" /><tag k="source" v="공공데이터포털" /><tag k="source:date" v="2020-08-28" /><tag k="addr:street" v="서곶로" /><tag k="addr:housenumber" v="355-1" /><tag k="addr:subdistrict" v="연희동" /></node><node id="-200138" action="modify" visible="true" lat="37.59831966" lon="126.6676193"><tag k="amenity" v="pharmacy" /><tag k="name" v="수약국" /><tag k="phone" v="+82 32 561 2920" /><tag k="source" v="공공데이터포털" /><tag k="source:date" v="2020-08-28" /><tag k="addr:street" v="완정로" /><tag k="addr:housenumber" v="70" /><tag k="addr:door" v="211" /></node><node id="-200139" action="modify" visible="true" lat="37.59414832" lon="126.6950964"><tag k="amenity" v="pharmacy" /><tag k="name" v="미소약국" /><tag k="phone" v="+82 32 567 7772" /><tag k="source" v="공공데이터포털" /><tag k="source:date" v="2020-08-28" /><tag k="addr:street" v="원당대로" /><tag k="addr:housenumber" v="841" /></node><node id="-200140" action="modify" visible="true" lat="37.51327262" lon="126.6732259"><tag k="amenity" v="pharmacy" /><tag k="name" v="맑은약국" /><tag k="phone" v="+82 32 581 0580" /><tag k="source" v="공공데이터포털" /><tag k="source:date" v="2020-08-28" /><tag k="addr:street" v="명가골로" /><tag k="addr:housenumber" v="37" /><tag k="addr:subdistrict" v="석남동" /></node><node id="-200141" action="modify" visible="true" lat="37.51377621" lon="126.6683305"><tag k="amenity" v="pharmacy" /><tag k="name" v="신현프라자약국" /><tag k="phone" v="+82 32 575 1389" /><tag k="source" v="공공데이터포털" /><tag k="source:date" v="2020-08-28" /><tag k="addr:street" v="율도로" /><tag k="addr:housenumber" v="55" /><tag k="addr:subdistrict" v="신현동" /></node><node id="-200142" action="modify" visible="true" lat="37.59199662" lon="126.6766206"><tag k="amenity" v="pharmacy" /><tag k="name" v="당하메디칼약국" /><tag k="phone" v="+82 32 566 0771" /><tag k="source" v="공공데이터포털" /><tag k="source:date" v="2020-08-28" /><tag k="addr:street" v="청마로" /><tag k="addr:housenumber" v="163" /><tag k="addr:subdistrict" v="당하동" /></node><node id="-200143" action="modify" visible="true" lat="37.49764798" lon="126.6707428"><tag k="amenity" v="pharmacy" /><tag k="name" v="가좌마트약국" /><tag k="phone" v="+82 32 571 6555" /><tag k="source" v="공공데이터포털" /><tag k="source:date" v="2020-08-28" /><tag k="addr:street" v="가정로151번길" /><tag k="addr:housenumber" v="11" /><tag k="addr:subdistrict" v="가좌동" /><tag k="level" v="2" /></node><node id="-200144" action="modify" visible="true" lat="37.61842629" lon="126.6930754"><tag k="amenity" v="pharmacy" /><tag k="name" v="참사랑약국" /><tag k="phone" v="+82 32 563 8810" /><tag k="source" v="공공데이터포털" /><tag k="source:date" v="2020-08-28" /><tag k="addr:street" v="검단로" /><tag k="addr:housenumber" v="836" /><tag k="addr:door" v="212-213" /></node><node id="-200145" action="modify" visible="true" lat="37.55027988" lon="126.6822919"><tag k="amenity" v="pharmacy" /><tag k="name" v="푸른약국" /><tag k="phone" v="+82 32 563 6490" /><tag k="source" v="공공데이터포털" /><tag k="source:date" v="2020-08-28" /><tag k="addr:street" v="심곡로194번길" /><tag k="addr:housenumber" v="1" /><tag k="addr:subdistrict" v="공촌동" /></node><node id="-200146" action="modify" visible="true" lat="37.56740074" lon="126.6832358"><tag k="amenity" v="pharmacy" /><tag k="name" v="연세약국" /><tag k="phone" v="+82 32 562 5620" /><tag k="source" v="공공데이터포털" /><tag k="source:date" v="2020-08-28" /><tag k="addr:street" v="승학로" /><tag k="addr:housenumber" v="577" /><tag k="addr:door" v="111" /></node><node id="-200147" action="modify" visible="true" lat="37.59558141" lon="126.6700913"><tag k="amenity" v="pharmacy" /><tag k="name" v="위드팜100세약국" /><tag k="phone" v="+82 32 565 1201" /><tag k="source" v="공공데이터포털" /><tag k="source:date" v="2020-08-28" /><tag k="addr:street" v="완정로" /><tag k="addr:housenumber" v="35" /></node><node id="-200148" action="modify" visible="true" lat="37.49501687" lon="126.6828103"><tag k="amenity" v="pharmacy" /><tag k="name" v="성심메디팜약국" /><tag k="phone" v="+82 32 575 5556" /><tag k="source" v="공공데이터포털" /><tag k="source:date" v="2020-08-28" /><tag k="addr:street" v="원적로" /><tag k="addr:housenumber" v="100" /><tag k="addr:subdistrict" v="가좌동" /></node><node id="-200149" action="modify" visible="true" lat="37.49570458" lon="126.671795"><tag k="amenity" v="pharmacy" /><tag k="name" v="정든약국" /><tag k="phone" v="+82 32 581 9916" /><tag k="source" v="공공데이터포털" /><tag k="source:date" v="2020-08-28" /><tag k="addr:street" v="가정로" /><tag k="addr:housenumber" v="124" /><tag k="addr:subdistrict" v="가좌동" /></node><node id="-200150" action="modify" visible="true" lat="37.49456871" lon="126.6814046"><tag k="amenity" v="pharmacy" /><tag k="name" v="성호약국" /><tag k="phone" v="+82 32 572 5999" /><tag k="source" v="공공데이터포털" /><tag k="source:date" v="2020-08-28" /><tag k="addr:street" v="원적로" /><tag k="addr:housenumber" v="85" /><tag k="addr:door" v="310" /></node><node id="-200151" action="modify" visible="true" lat="37.54262715" lon="126.6763726"><tag k="amenity" v="pharmacy" /><tag k="name" v="한사랑약국" /><tag k="phone" v="+82 32 568 5711" /><tag k="source" v="공공데이터포털" /><tag k="source:date" v="2020-08-28" /><tag k="addr:street" v="서곶로" /><tag k="addr:housenumber" v="281" /><tag k="addr:subdistrict" v="심곡동" /></node><node id="-200152" action="modify" visible="true" lat="37.49565534" lon="126.6826973"><tag k="amenity" v="pharmacy" /><tag k="name" v="굿윌드림약국" /><tag k="phone" v="+82 32 574 4793" /><tag k="source" v="공공데이터포털" /><tag k="source:date" v="2020-08-28" /><tag k="addr:street" v="원적로" /><tag k="addr:housenumber" v="103" /><tag k="addr:subdistrict" v="가좌동" /></node><node id="-200153" action="modify" visible="true" lat="37.51738466" lon="126.6727233"><tag k="amenity" v="pharmacy" /><tag k="name" v="천사약국" /><tag k="phone" v="+82 32 579 8735" /><tag k="source" v="공공데이터포털" /><tag k="source:date" v="2020-08-28" /><tag k="addr:street" v="가정로" /><tag k="addr:housenumber" v="363" /><tag k="addr:subdistrict" v="신현동" /></node><node id="-200154" action="modify" visible="true" lat="37.51779537" lon="126.6731912"><tag k="amenity" v="pharmacy" /><tag k="name" v="푸른건강약국" /><tag k="phone" v="+82 32 571 9206" /><tag k="source" v="공공데이터포털" /><tag k="source:date" v="2020-08-28" /><tag k="addr:street" v="가정로" /><tag k="addr:housenumber" v="370" /><tag k="addr:subdistrict" v="가정동" /></node><node id="-200155" action="modify" visible="true" lat="37.60254472" lon="126.6556304"><tag k="amenity" v="pharmacy" /><tag k="name" v="그린온누리약국" /><tag k="phone" v="+82 32 561 1775" /><tag k="source" v="공공데이터포털" /><tag k="source:date" v="2020-08-28" /><tag k="addr:street" v="완정로" /><tag k="addr:housenumber" v="187" /><tag k="addr:door" v="103" /></node><node id="-200156" action="modify" visible="true" lat="37.48974089" lon="126.6799402"><tag k="amenity" v="pharmacy" /><tag k="name" v="메디팜성모약국" /><tag k="phone" v="+82 32 576 2028" /><tag k="source" v="공공데이터포털" /><tag k="source:date" v="2020-08-28" /><tag k="addr:street" v="원적로" /><tag k="addr:housenumber" v="29" /><tag k="addr:subdistrict" v="가좌동" /></node><node id="-200157" action="modify" visible="true" lat="37.48874461" lon="126.6835196"><tag k="amenity" v="pharmacy" /><tag k="name" v="한결약국" /><tag k="phone" v="+82 32 584 0457" /><tag k="source" v="공공데이터포털" /><tag k="source:date" v="2020-08-28" /><tag k="addr:street" v="고래울로" /><tag k="addr:housenumber" v="4" /><tag k="addr:subdistrict" v="가좌동" /></node><node id="-200158" action="modify" visible="true" lat="37.50974838" lon="126.6707094"><tag k="amenity" v="pharmacy" /><tag k="name" v="중앙약국" /><tag k="phone" v="+82 32 582 5919" /><tag k="source" v="공공데이터포털" /><tag k="source:date" v="2020-08-28" /><tag k="addr:street" v="길주로75번길" /><tag k="addr:housenumber" v="36" /><tag k="addr:subdistrict" v="석남동" /></node><node id="-200159" action="modify" visible="true" lat="37.51358672" lon="126.6651102"><tag k="amenity" v="pharmacy" /><tag k="name" v="대학약국" /><tag k="phone" v="+82 32 574 6237" /><tag k="source" v="공공데이터포털" /><tag k="source:date" v="2020-08-28" /><tag k="addr:street" v="새오개로" /><tag k="addr:housenumber" v="37" /><tag k="addr:subdistrict" v="석남동" /></node><node id="-200160" action="modify" visible="true" lat="37.51236746" lon="126.6728573"><tag k="amenity" v="pharmacy" /><tag k="name" v="그랜드약국" /><tag k="phone" v="+82 32 581 8449" /><tag k="source" v="공공데이터포털" /><tag k="source:date" v="2020-08-28" /><tag k="addr:street" v="가정로" /><tag k="addr:housenumber" v="308" /><tag k="addr:subdistrict" v="석남동" /></node><node id="-200161" action="modify" visible="true" lat="37.51306369" lon="126.6779011"><tag k="amenity" v="pharmacy" /><tag k="name" v="한국약국" /><tag k="phone" v="+82 32 581 9297" /><tag k="source" v="공공데이터포털" /><tag k="source:date" v="2020-08-28" /><tag k="addr:street" v="서달로163번길" /><tag k="addr:housenumber" v="9" /><tag k="addr:subdistrict" v="석남동" /></node><node id="-200162" action="modify" visible="true" lat="37.50291137" lon="126.6732734"><tag k="amenity" v="pharmacy" /><tag k="name" v="보건약국" /><tag k="phone" v="+82 32 582 2761" /><tag k="source" v="공공데이터포털" /><tag k="source:date" v="2020-08-28" /><tag k="addr:street" v="거북로" /><tag k="addr:housenumber" v="104" /></node><node id="-200163" action="modify" visible="true" lat="37.48695753" lon="126.6856767"><tag k="amenity" v="pharmacy" /><tag k="name" v="옥신온누리약국" /><tag k="phone" v="+82 32 577 8963" /><tag k="source" v="공공데이터포털" /><tag k="source:date" v="2020-08-28" /><tag k="addr:street" v="고래울로" /><tag k="addr:housenumber" v="29" /><tag k="addr:subdistrict" v="가좌동" /></node><node id="-200164" action="modify" visible="true" lat="37.49477112" lon="126.6825884"><tag k="amenity" v="pharmacy" /><tag k="name" v="사랑의약국" /><tag k="phone" v="+82 32 577 4241" /><tag k="source" v="공공데이터포털" /><tag k="source:date" v="2020-08-28" /><tag k="addr:street" v="원적로" /><tag k="addr:housenumber" v="96" /><tag k="addr:subdistrict" v="가좌동" /></node><node id="-200165" action="modify" visible="true" lat="37.50276507" lon="126.6722807"><tag k="amenity" v="pharmacy" /><tag k="name" v="청우약국" /><tag k="phone" v="+82 32 571 2455" /><tag k="source" v="공공데이터포털" /><tag k="source:date" v="2020-08-28" /><tag k="addr:street" v="가정로" /><tag k="addr:housenumber" v="202" /><tag k="addr:subdistrict" v="석남동" /></node><node id="-200166" action="modify" visible="true" lat="37.49593493" lon="126.677072"><tag k="amenity" v="pharmacy" /><tag k="name" v="가좌약국" /><tag k="phone" v="+82 32 571 3183" /><tag k="source" v="공공데이터포털" /><tag k="source:date" v="2020-08-28" /><tag k="addr:street" v="건지로318번길" /><tag k="addr:housenumber" v="32" /><tag k="addr:subdistrict" v="가좌동" /></node><node id="-200167" action="modify" visible="true" lat="37.49335406" lon="126.6799445"><tag k="amenity" v="pharmacy" /><tag k="name" v="명성약국" /><tag k="phone" v="+82 32 577 6558" /><tag k="source" v="공공데이터포털" /><tag k="source:date" v="2020-08-28" /><tag k="addr:street" v="신진말로" /><tag k="addr:housenumber" v="37-1" /><tag k="addr:subdistrict" v="가좌동" /></node><node id="-200168" action="modify" visible="true" lat="37.50309098" lon="126.670013"><tag k="amenity" v="pharmacy" /><tag k="name" v="자생약국" /><tag k="phone" v="+82 32 571 6066" /><tag k="source" v="공공데이터포털" /><tag k="source:date" v="2020-08-28" /><tag k="addr:street" v="거북로" /><tag k="addr:housenumber" v="74-1" /><tag k="addr:subdistrict" v="석남동" /></node><node id="-200169" action="modify" visible="true" lat="37.50312231" lon="126.6768209"><tag k="amenity" v="pharmacy" /><tag k="name" v="늘봄약국" /><tag k="phone" v="+82 32 573 6012" /><tag k="source" v="공공데이터포털" /><tag k="source:date" v="2020-08-28" /><tag k="addr:street" v="길주로136번길" /><tag k="addr:housenumber" v="32-1" /><tag k="addr:subdistrict" v="석남동" /><tag k="level" v="1" /></node></osm>